{"type": "FeatureCollection", "bbox": [-84.000162, 34.524374, -83.953447, 34.677732], "features": [{"bbox": [-84.000162, 34.524374, -83.953447, 34.677732], "type": "Feature", "properties": {"segments": [{"distance": 22257.8, "duration": 1519.8, "steps": [{"distance": 7.4, "duration": 1.8, "type": 11, "instruction": "Head north", "name": "-", "way_points": [0, 1]}, {"distance": 8580.2, "duration": 623.1, "type": 3, "instruction": "Turn sharp right onto GA 60", "name": "GA 60", "way_points": [1, 286]}, {"distance": 12907.5, "duration": 820.5, "type": 7, "instruction": "Enter the roundabout and take the 1st exit onto US 19, GA 9, GA 60", "name": "US 19, GA 9, GA 60", "exit_number": 1, "way_points": [286, 610]}, {"distance": 549.8, "duration": 44.0, "type": 6, "instruction": "Continue straight onto Morrison Moore Parkway West, GA 9, GA 52", "name": "Morrison Moore Parkway West, GA 9, GA 52", "way_points": [610, 625]}, {"distance": 171.4, "duration": 20.6, "type": 1, "instruction": "Turn right onto Alumni Drive", "name": "Alumni Drive", "way_points": [625, 635]}, {"distance": 41.4, "duration": 9.9, "type": 1, "instruction": "Turn right", "name": "-", "way_points": [635, 638]}, {"distance": 0.0, "duration": 0.0, "type": 10, "instruction": "Arrive at your destination, on the right", "name": "-", "way_points": [638, 638]}]}], "way_points": [0, 638], "summary": {"distance": 22257.8, "duration": 1519.8}}, "geometry": {"coordinates": [[-84.000149, 34.677685], [-84.000162, 34.677732], [-83.999867, 34.677554], [-83.998886, 34.676952], [-83.998712, 34.676863], [-83.998471, 34.67679], [-83.997959, 34.676755], [-83.997722, 34.676699], [-83.997517, 34.676576], [-83.997124, 34.676295], [-83.996846, 34.676141], [-83.996639, 34.676052], [-83.996347, 34.675964], [-83.995802, 34.675854], [-83.995464, 34.675858], [-83.995077, 34.6759], [-83.994925, 34.675902], [-83.994735, 34.675863], [-83.994639, 34.675806], [-83.994554, 34.67572], [-83.99438, 34.675376], [-83.994281, 34.675247], [-83.993847, 34.674878], [-83.993726, 34.674815], [-83.993591, 34.674793], [-83.993474, 34.674807], [-83.993042, 34.675006], [-83.992917, 34.675035], [-83.992795, 34.675038], [-83.992639, 34.675], [-83.992153, 34.674785], [-83.991924, 34.674701], [-83.991652, 34.67464], [-83.991055, 34.674592], [-83.990821, 34.674556], [-83.990636, 34.674485], [-83.990537, 34.674422], [-83.990323, 34.674206], [-83.990223, 34.674033], [-83.990204, 34.673877], [-83.990222, 34.673505], [-83.990181, 34.673353], [-83.990101, 34.673221], [-83.990048, 34.673169], [-83.989963, 34.67312], [-83.989427, 34.672869], [-83.989203, 34.672702], [-83.989039, 34.672531], [-83.988211, 34.671484], [-83.988087, 34.671368], [-83.987975, 34.671291], [-83.987577, 34.671107], [-83.987328, 34.670962], [-83.987115, 34.670753], [-83.986907, 34.670418], [-83.986869, 34.670296], [-83.986789, 34.669783], [-83.986791, 34.669554], [-83.986871, 34.669368], [-83.987126, 34.668999], [-83.987166, 34.668891], [-83.987269, 34.668421], [-83.987632, 34.667422], [-83.98763, 34.667284], [-83.9876, 34.66717], [-83.987535, 34.667095], [-83.987396, 34.667012], [-83.9872, 34.666973], [-83.987051, 34.666972], [-83.986254, 34.667068], [-83.986022, 34.667065], [-83.985778, 34.667036], [-83.985516, 34.666972], [-83.985062, 34.666788], [-83.984691, 34.666608], [-83.984402, 34.666442], [-83.98371, 34.665934], [-83.983535, 34.665772], [-83.983366, 34.665575], [-83.983145, 34.665279], [-83.982982, 34.665026], [-83.982877, 34.664799], [-83.982736, 34.664453], [-83.982636, 34.664275], [-83.982416, 34.66405], [-83.982321, 34.663982], [-83.98205, 34.66383], [-83.981326, 34.663496], [-83.980526, 34.663135], [-83.980187, 34.663012], [-83.97982, 34.662927], [-83.97923, 34.662856], [-83.979064, 34.66282], [-83.978948, 34.662774], [-83.97883, 34.662683], [-83.978744, 34.662553], [-83.978704, 34.662419], [-83.978605, 34.661822], [-83.978553, 34.661687], [-83.978497, 34.661601], [-83.978327, 34.661447], [-83.976926, 34.660336], [-83.976714, 34.6602], [-83.976546, 34.660141], [-83.976334, 34.660112], [-83.975889, 34.66013], [-83.97566, 34.660119], [-83.975475, 34.660054], [-83.975359, 34.659972], [-83.975221, 34.65985], [-83.975092, 34.659694], [-83.974736, 34.659047], [-83.974494, 34.658709], [-83.974319, 34.658543], [-83.973919, 34.658303], [-83.973707, 34.658136], [-83.973565, 34.657949], [-83.97336, 34.65753], [-83.973221, 34.657304], [-83.973106, 34.657189], [-83.972835, 34.656964], [-83.972466, 34.656439], [-83.972259, 34.656196], [-83.972025, 34.655999], [-83.971884, 34.655905], [-83.971723, 34.655825], [-83.9715, 34.655798], [-83.971308, 34.655837], [-83.970786, 34.656023], [-83.970578, 34.656059], [-83.970396, 34.656047], [-83.970098, 34.65597], [-83.969856, 34.65593], [-83.969235, 34.65593], [-83.969081, 34.655893], [-83.968945, 34.655831], [-83.968257, 34.655383], [-83.968166, 34.655272], [-83.968137, 34.655208], [-83.968139, 34.655125], [-83.968181, 34.655007], [-83.96844, 34.65468], [-83.968463, 34.654631], [-83.968465, 34.654497], [-83.968373, 34.654348], [-83.968031, 34.65405], [-83.967974, 34.653968], [-83.967913, 34.653786], [-83.967915, 34.653688], [-83.967944, 34.653585], [-83.968009, 34.653481], [-83.968454, 34.653061], [-83.968491, 34.653005], [-83.968522, 34.652883], [-83.968507, 34.652821], [-83.968407, 34.652698], [-83.968043, 34.652427], [-83.967951, 34.652337], [-83.967897, 34.652256], [-83.967863, 34.652069], [-83.967916, 34.651812], [-83.96792, 34.651616], [-83.967874, 34.651311], [-83.967902, 34.651202], [-83.967968, 34.651121], [-83.96807, 34.651063], [-83.968172, 34.651031], [-83.968448, 34.650981], [-83.968588, 34.650934], [-83.968671, 34.650881], [-83.968766, 34.650796], [-83.968832, 34.650696], [-83.968887, 34.650571], [-83.968882, 34.650282], [-83.968847, 34.650092], [-83.968724, 34.649868], [-83.968562, 34.649672], [-83.96852, 34.649593], [-83.968499, 34.649384], [-83.96852, 34.649087], [-83.96851, 34.648975], [-83.968471, 34.648854], [-83.968412, 34.648769], [-83.968319, 34.648682], [-83.968011, 34.648434], [-83.967429, 34.647879], [-83.967194, 34.647698], [-83.9669, 34.647514], [-83.966257, 34.647154], [-83.966086, 34.647077], [-83.965919, 34.647033], [-83.965455, 34.646965], [-83.965226, 34.646894], [-83.965079, 34.646812], [-83.964722, 34.646551], [-83.964525, 34.646447], [-83.964326, 34.646401], [-83.96389, 34.646401], [-83.963719, 34.646378], [-83.963529, 34.646298], [-83.963419, 34.646209], [-83.963337, 34.646106], [-83.963212, 34.645872], [-83.963138, 34.645592], [-83.963153, 34.645413], [-83.96325, 34.645146], [-83.963278, 34.644865], [-83.963255, 34.644516], [-83.963194, 34.644293], [-83.963121, 34.644147], [-83.963039, 34.644049], [-83.962922, 34.643948], [-83.962537, 34.643703], [-83.962005, 34.643308], [-83.961444, 34.643001], [-83.961355, 34.642934], [-83.96121, 34.642788], [-83.960986, 34.642473], [-83.959921, 34.640645], [-83.959829, 34.640384], [-83.959793, 34.639908], [-83.959773, 34.639844], [-83.959732, 34.639788], [-83.959673, 34.639738], [-83.959539, 34.639698], [-83.959433, 34.639691], [-83.959056, 34.639713], [-83.958901, 34.639677], [-83.958808, 34.639631], [-83.958725, 34.639568], [-83.958058, 34.638855], [-83.957748, 34.63855], [-83.957529, 34.638348], [-83.95731, 34.638206], [-83.957137, 34.638143], [-83.956588, 34.638047], [-83.956485, 34.638011], [-83.956407, 34.637943], [-83.956334, 34.637805], [-83.956313, 34.637572], [-83.956335, 34.637377], [-83.956451, 34.637149], [-83.9565, 34.637082], [-83.956661, 34.636926], [-83.957076, 34.636636], [-83.95721, 34.636506], [-83.957254, 34.636353], [-83.957211, 34.636186], [-83.956996, 34.635894], [-83.956514, 34.635306], [-83.95631, 34.635117], [-83.955638, 34.634576], [-83.954801, 34.633767], [-83.954739, 34.633687], [-83.954276, 34.633003], [-83.954088, 34.632684], [-83.95363, 34.632008], [-83.953585, 34.631918], [-83.953525, 34.631744], [-83.953491, 34.631185], [-83.95348, 34.630873], [-83.953507, 34.630638], [-83.953637, 34.630227], [-83.953651, 34.630105], [-83.953632, 34.629919], [-83.953451, 34.62937], [-83.953447, 34.629266], [-83.953489, 34.629156], [-83.953555, 34.629075], [-83.953721, 34.628955], [-83.953853, 34.628918], [-83.954002, 34.628905], [-83.954271, 34.628909], [-83.954473, 34.628958], [-83.954609, 34.629011], [-83.955001, 34.629287], [-83.955151, 34.629361], [-83.955272, 34.629387], [-83.955432, 34.62935], [-83.955508, 34.629291], [-83.955551, 34.629216], [-83.955568, 34.6291], [-83.955533, 34.629006], [-83.955217, 34.628513], [-83.955109, 34.628258], [-83.955048, 34.627715], [-83.955074, 34.627602], [-83.955127, 34.627568], [-83.95517, 34.62748], [-83.955153, 34.627396], [-83.955124, 34.62736], [-83.955036, 34.62688], [-83.954964, 34.626637], [-83.954928, 34.626397], [-83.954943, 34.626304], [-83.955009, 34.626176], [-83.955138, 34.626059], [-83.95559, 34.625819], [-83.95598, 34.625655], [-83.956315, 34.625545], [-83.956428, 34.625496], [-83.956536, 34.625428], [-83.956676, 34.625261], [-83.95679, 34.624966], [-83.956851, 34.624874], [-83.956909, 34.624823], [-83.957028, 34.624765], [-83.95739, 34.624722], [-83.957517, 34.624678], [-83.957634, 34.624565], [-83.957771, 34.624312], [-83.957902, 34.624166], [-83.958057, 34.624073], [-83.958382, 34.623912], [-83.958457, 34.623866], [-83.958544, 34.623782], [-83.958606, 34.623676], [-83.958646, 34.623529], [-83.958743, 34.622878], [-83.958819, 34.622534], [-83.958941, 34.622218], [-83.959187, 34.621717], [-83.959237, 34.621537], [-83.959295, 34.621339], [-83.959502, 34.620582], [-83.959622, 34.620234], [-83.960318, 34.618459], [-83.960513, 34.618105], [-83.96073, 34.61781], [-83.96082, 34.617634], [-83.9609, 34.617344], [-83.961114, 34.616196], [-83.96115, 34.616086], [-83.961226, 34.615958], [-83.961352, 34.615855], [-83.961438, 34.615818], [-83.961533, 34.615791], [-83.962103, 34.61573], [-83.962225, 34.61569], [-83.962357, 34.615615], [-83.962486, 34.615467], [-83.962542, 34.61536], [-83.962864, 34.614573], [-83.963, 34.614378], [-83.963127, 34.614284], [-83.963215, 34.61424], [-83.963987, 34.614079], [-83.964222, 34.613994], [-83.964414, 34.613862], [-83.964496, 34.613777], [-83.964589, 34.613623], [-83.964621, 34.613494], [-83.964624, 34.613357], [-83.964564, 34.613137], [-83.964037, 34.612046], [-83.96395, 34.611797], [-83.963948, 34.611635], [-83.963983, 34.611519], [-83.96407, 34.611376], [-83.964145, 34.611297], [-83.964369, 34.611157], [-83.964516, 34.611087], [-83.965003, 34.610913], [-83.965855, 34.610643], [-83.966022, 34.610622], [-83.966185, 34.61065], [-83.966335, 34.610715], [-83.966693, 34.610928], [-83.966853, 34.610997], [-83.967024, 34.611034], [-83.967322, 34.611051], [-83.967558, 34.611033], [-83.967679, 34.61101], [-83.967892, 34.610939], [-83.968185, 34.610795], [-83.968345, 34.610697], [-83.968501, 34.610569], [-83.968927, 34.610108], [-83.969135, 34.609984], [-83.969357, 34.609932], [-83.969919, 34.609899], [-83.97017, 34.609849], [-83.970282, 34.609808], [-83.970463, 34.60971], [-83.970636, 34.609563], [-83.97075, 34.609406], [-83.970784, 34.609286], [-83.970784, 34.609214], [-83.97076, 34.609125], [-83.97064, 34.608895], [-83.97022, 34.608354], [-83.970021, 34.608064], [-83.969894, 34.607875], [-83.969759, 34.607629], [-83.969706, 34.607528], [-83.969633, 34.607306], [-83.969605, 34.607159], [-83.9696, 34.607015], [-83.969656, 34.606623], [-83.969816, 34.606047], [-83.969827, 34.605892], [-83.969811, 34.605822], [-83.969673, 34.605617], [-83.968957, 34.60499], [-83.968874, 34.604876], [-83.968829, 34.604706], [-83.968861, 34.604522], [-83.969161, 34.604076], [-83.969462, 34.603533], [-83.969552, 34.603423], [-83.969828, 34.603208], [-83.969944, 34.603075], [-83.96998, 34.602911], [-83.969968, 34.602831], [-83.969792, 34.602228], [-83.969764, 34.602035], [-83.969773, 34.601878], [-83.96992, 34.601481], [-83.970072, 34.601175], [-83.97011, 34.601046], [-83.970125, 34.600869], [-83.970101, 34.600686], [-83.970007, 34.600417], [-83.969742, 34.599893], [-83.969727, 34.599785], [-83.969738, 34.599672], [-83.969791, 34.599506], [-83.970079, 34.598825], [-83.970547, 34.597435], [-83.970738, 34.596764], [-83.970756, 34.596596], [-83.970717, 34.596306], [-83.970627, 34.596056], [-83.970504, 34.595832], [-83.969968, 34.595025], [-83.969654, 34.594553], [-83.969506, 34.594297], [-83.969185, 34.593616], [-83.969075, 34.593336], [-83.969042, 34.593112], [-83.969055, 34.592919], [-83.969384, 34.591756], [-83.969512, 34.591449], [-83.969735, 34.591064], [-83.969958, 34.590747], [-83.970061, 34.590654], [-83.970091, 34.590615], [-83.970242, 34.590526], [-83.970624, 34.590361], [-83.970782, 34.590243], [-83.97089, 34.590102], [-83.970913, 34.590046], [-83.97093, 34.589845], [-83.970875, 34.589685], [-83.970746, 34.58951], [-83.970571, 34.589318], [-83.97049, 34.58918], [-83.970456, 34.588967], [-83.970488, 34.588717], [-83.970503, 34.58863], [-83.970736, 34.587429], [-83.970763, 34.5872], [-83.970764, 34.586969], [-83.970747, 34.586896], [-83.970721, 34.586822], [-83.970633, 34.586684], [-83.970344, 34.58637], [-83.970218, 34.586179], [-83.970083, 34.585812], [-83.969825, 34.584959], [-83.969491, 34.583931], [-83.969049, 34.583121], [-83.968993, 34.582972], [-83.96897, 34.582766], [-83.968987, 34.582648], [-83.969077, 34.582416], [-83.969194, 34.58227], [-83.969333, 34.582142], [-83.969476, 34.582048], [-83.969607, 34.581985], [-83.970131, 34.581814], [-83.970393, 34.581711], [-83.970491, 34.581652], [-83.970562, 34.581584], [-83.970641, 34.581438], [-83.970669, 34.581321], [-83.970656, 34.581122], [-83.970477, 34.580427], [-83.970322, 34.580059], [-83.970015, 34.579646], [-83.969958, 34.579582], [-83.969711, 34.57931], [-83.969332, 34.578905], [-83.968889, 34.578442], [-83.968653, 34.578165], [-83.968483, 34.577876], [-83.968316, 34.577382], [-83.967992, 34.576277], [-83.967916, 34.576019], [-83.967801, 34.575602], [-83.967708, 34.57528], [-83.967407, 34.57428], [-83.967354, 34.573943], [-83.967365, 34.573631], [-83.967484, 34.573069], [-83.967537, 34.572844], [-83.967576, 34.572678], [-83.967755, 34.571944], [-83.967949, 34.571261], [-83.968049, 34.57079], [-83.968166, 34.570294], [-83.96821, 34.570103], [-83.968361, 34.569438], [-83.968459, 34.568981], [-83.968484, 34.568757], [-83.968479, 34.568531], [-83.968444, 34.568307], [-83.968358, 34.568047], [-83.968272, 34.567887], [-83.968111, 34.567669], [-83.967755, 34.567274], [-83.967171, 34.566669], [-83.966729, 34.56621], [-83.966373, 34.565694], [-83.966211, 34.56533], [-83.966139, 34.565083], [-83.966104, 34.564883], [-83.966104, 34.564444], [-83.966088, 34.564353], [-83.966113, 34.563947], [-83.96617, 34.563179], [-83.96623, 34.562841], [-83.966289, 34.562631], [-83.966458, 34.562136], [-83.966648, 34.561644], [-83.967055, 34.560604], [-83.96713, 34.560239], [-83.96715, 34.559989], [-83.96715, 34.55767], [-83.967196, 34.557363], [-83.967271, 34.557122], [-83.967383, 34.556856], [-83.967955, 34.555591], [-83.9683, 34.55471], [-83.968732, 34.553489], [-83.969025, 34.552707], [-83.969149, 34.552425], [-83.969328, 34.552101], [-83.969485, 34.551865], [-83.969769, 34.55152], [-83.971657, 34.549466], [-83.972335, 34.548694], [-83.972595, 34.548293], [-83.972764, 34.547922], [-83.972842, 34.54768], [-83.972903, 34.54735], [-83.972922, 34.547042], [-83.972901, 34.546676], [-83.972802, 34.546209], [-83.972699, 34.545931], [-83.972135, 34.544699], [-83.972056, 34.544449], [-83.972, 34.544116], [-83.971993, 34.543768], [-83.972025, 34.543508], [-83.972071, 34.543301], [-83.972212, 34.54293], [-83.972445, 34.54255], [-83.972662, 34.542293], [-83.973817, 34.541179], [-83.973982, 34.541019], [-83.974226, 34.540774], [-83.974682, 34.540212], [-83.975019, 34.539714], [-83.975294, 34.539243], [-83.975526, 34.538773], [-83.975785, 34.538123], [-83.975879, 34.537822], [-83.975926, 34.53758], [-83.975957, 34.537374], [-83.975952, 34.537085], [-83.975915, 34.53639], [-83.975899, 34.536104], [-83.975897, 34.53584], [-83.975937, 34.535461], [-83.975976, 34.535278], [-83.976071, 34.534983], [-83.976321, 34.534463], [-83.976408, 34.534299], [-83.976679, 34.533795], [-83.977044, 34.533086], [-83.97727, 34.532696], [-83.977422, 34.532433], [-83.977556, 34.532158], [-83.977641, 34.53196], [-83.977691, 34.531739], [-83.977718, 34.5315], [-83.977685, 34.531038], [-83.977614, 34.530556], [-83.9776, 34.530246], [-83.977627, 34.530068], [-83.977694, 34.529757], [-83.977739, 34.529602], [-83.977955, 34.529092], [-83.978174, 34.528655], [-83.978283, 34.528478], [-83.978428, 34.528272], [-83.978596, 34.528056], [-83.978624, 34.528016], [-83.979005, 34.527431], [-83.979317, 34.526925], [-83.979447, 34.526688], [-83.97964, 34.526341], [-83.97976, 34.526134], [-83.979949, 34.525844], [-83.980114, 34.525659], [-83.980502, 34.525278], [-83.981013, 34.524875], [-83.981388, 34.524652], [-83.981658, 34.524545], [-83.982075, 34.524436], [-83.982309, 34.524397], [-83.982674, 34.524374], [-83.983046, 34.524383], [-83.98346, 34.524417], [-83.983821, 34.524446], [-83.983815, 34.524669], [-83.983844, 34.524771], [-83.983881, 34.524827], [-83.983981, 34.524904], [-83.98406, 34.524934], [-83.98447, 34.525035], [-83.984542, 34.525069], [-83.984637, 34.52516], [-83.98479, 34.525413], [-83.984902, 34.525521], [-83.984858, 34.525637], [-83.984863, 34.525706], [-83.984975, 34.525861]], "type": "LineString"}}], "metadata": {"attribution": "openrouteservice.org | OpenStreetMap contributors", "service": "routing", "timestamp": 1769468439874, "query": {"coordinates": [[-84.000134, 34.677688], [-83.9843953, 34.526146499999996]], "profile": "driving-car", "profileName": "driving-car", "format": "geojson"}, "engine": {"version": "9.5.0", "build_date": "2025-10-31T12:33:09Z", "graph_date": "2026-01-25T11:10:32Z", "osm_date": "2026-01-19T01:00:01Z"}}}