{"type": "FeatureCollection", "bbox": [-84.022341, 34.677685, -84.000149, 34.688923], "features": [{"bbox": [-84.022341, 34.677685, -84.000149, 34.688923], "type": "Feature", "properties": {"segments": [{"distance": 3208.5, "duration": 232.3, "steps": [{"distance": 7.4, "duration": 1.8, "type": 11, "instruction": "Head north", "name": "-", "way_points": [0, 1]}, {"distance": 3178.9, "duration": 228.9, "type": 4, "instruction": "Turn slight left onto GA 60", "name": "GA 60", "way_points": [1, 73]}, {"distance": 22.2, "duration": 1.6, "type": 1, "instruction": "Turn right onto Wolf Pen Gap Road, GA 180", "name": "Wolf Pen Gap Road, GA 180", "way_points": [73, 74]}, {"distance": 0.0, "duration": 0.0, "type": 10, "instruction": "Arrive at Wolf Pen Gap Road, GA 180, on the left", "name": "-", "way_points": [74, 74]}]}], "way_points": [0, 74], "summary": {"distance": 3208.5, "duration": 232.3}}, "geometry": {"coordinates": [[-84.000149, 34.677685], [-84.000162, 34.677732], [-84.001021, 34.678261], [-84.001223, 34.678357], [-84.001733, 34.678525], [-84.001947, 34.678642], [-84.002037, 34.678748], [-84.002263, 34.679325], [-84.002398, 34.679592], [-84.002564, 34.679865], [-84.003491, 34.681178], [-84.003589, 34.681287], [-84.004988, 34.682434], [-84.006501, 34.684022], [-84.006757, 34.684273], [-84.006926, 34.684412], [-84.007278, 34.684598], [-84.007508, 34.684739], [-84.007852, 34.68512], [-84.007955, 34.68526], [-84.008152, 34.685463], [-84.008325, 34.685579], [-84.008455, 34.685622], [-84.008586, 34.685632], [-84.008662, 34.685621], [-84.008804, 34.685573], [-84.009013, 34.685432], [-84.009183, 34.685264], [-84.009281, 34.685088], [-84.00931, 34.684961], [-84.009286, 34.684643], [-84.009221, 34.68424], [-84.008952, 34.683178], [-84.008937, 34.683004], [-84.008998, 34.682851], [-84.009062, 34.682769], [-84.009212, 34.682661], [-84.009384, 34.682594], [-84.009874, 34.682496], [-84.01055, 34.682385], [-84.010752, 34.682377], [-84.011, 34.682397], [-84.011161, 34.682437], [-84.01132, 34.682499], [-84.012797, 34.683231], [-84.013083, 34.683354], [-84.013327, 34.683433], [-84.013732, 34.683503], [-84.014157, 34.683521], [-84.014393, 34.683516], [-84.014777, 34.683446], [-84.015032, 34.683345], [-84.015285, 34.683236], [-84.01557, 34.683172], [-84.015739, 34.683166], [-84.017886, 34.683232], [-84.018103, 34.683258], [-84.018366, 34.683326], [-84.018603, 34.683447], [-84.01877, 34.683574], [-84.019053, 34.683898], [-84.019309, 34.684276], [-84.019731, 34.684811], [-84.020227, 34.685352], [-84.020879, 34.685977], [-84.021137, 34.686272], [-84.021251, 34.686432], [-84.021359, 34.686594], [-84.021536, 34.686917], [-84.021896, 34.687627], [-84.022003, 34.687843], [-84.022067, 34.687979], [-84.022279, 34.68852], [-84.022341, 34.688858], [-84.022112, 34.688923]], "type": "LineString"}}], "metadata": {"attribution": "openrouteservice.org | OpenStreetMap contributors", "service": "routing", "timestamp": 1769468440162, "query": {"coordinates": [[-84.000134, 34.677688], [-84.0221356, 34.6889792]], "profile": "driving-car", "profileName": "driving-car", "format": "geojson"}, "engine": {"version": "9.5.0", "build_date": "2025-10-31T12:33:09Z", "graph_date": "2026-01-25T11:10:32Z", "osm_date": "2026-01-19T01:00:01Z"}}}