{"type": "FeatureCollection", "bbox": [-83.984975, 34.524374, -83.894721, 34.735562], "features": [{"bbox": [-83.984975, 34.524374, -83.894721, 34.735562], "type": "Feature", "properties": {"segments": [{"distance": 34686.9, "duration": 1926.8, "steps": [{"distance": 34.1, "duration": 8.2, "type": 11, "instruction": "Head northwest", "name": "-", "way_points": [0, 2]}, {"distance": 12463.6, "duration": 527.9, "type": 2, "instruction": "Turn sharp left onto Gainesville Highway, US 19, US 129, GA 11", "name": "Gainesville Highway, US 19, US 129, GA 11", "way_points": [2, 367]}, {"distance": 8490.2, "duration": 492.9, "type": 1, "instruction": "Turn right onto US 19, GA 9", "name": "US 19, GA 9", "way_points": [367, 535]}, {"distance": 12936.3, "duration": 823.5, "type": 7, "instruction": "Enter the roundabout and take the 2nd exit onto US 19, GA 9, GA 60", "name": "US 19, GA 9, GA 60", "exit_number": 2, "way_points": [535, 863]}, {"distance": 549.8, "duration": 44.0, "type": 6, "instruction": "Continue straight onto Morrison Moore Parkway West, GA 9, GA 52", "name": "Morrison Moore Parkway West, GA 9, GA 52", "way_points": [863, 878]}, {"distance": 171.4, "duration": 20.6, "type": 1, "instruction": "Turn right onto Alumni Drive", "name": "Alumni Drive", "way_points": [878, 888]}, {"distance": 41.4, "duration": 9.9, "type": 1, "instruction": "Turn right", "name": "-", "way_points": [888, 891]}, {"distance": 0.0, "duration": 0.0, "type": 10, "instruction": "Arrive at your destination, on the right", "name": "-", "way_points": [891, 891]}]}], "way_points": [0, 891], "summary": {"distance": 34686.9, "duration": 1926.8}}, "geometry": {"coordinates": [[-83.917941, 34.735346], [-83.918118, 34.735507], [-83.918204, 34.735562], [-83.918191, 34.73544], [-83.91819, 34.735303], [-83.918226, 34.735117], [-83.918297, 34.734954], [-83.918413, 34.734804], [-83.918514, 34.734721], [-83.918678, 34.734624], [-83.918891, 34.734537], [-83.919024, 34.734499], [-83.919202, 34.734471], [-83.919421, 34.734468], [-83.919708, 34.734494], [-83.920051, 34.734571], [-83.920902, 34.734844], [-83.921123, 34.734881], [-83.921219, 34.734868], [-83.921324, 34.734831], [-83.921404, 34.734778], [-83.921504, 34.734676], [-83.921574, 34.734457], [-83.921577, 34.734307], [-83.921501, 34.733564], [-83.921404, 34.733259], [-83.92133, 34.733105], [-83.921217, 34.732903], [-83.921093, 34.732677], [-83.921026, 34.73252], [-83.921007, 34.73241], [-83.921021, 34.732201], [-83.921071, 34.732001], [-83.921173, 34.731736], [-83.921292, 34.731564], [-83.921413, 34.731489], [-83.921542, 34.731458], [-83.921742, 34.731434], [-83.922713, 34.731492], [-83.922857, 34.731462], [-83.922977, 34.731408], [-83.923053, 34.731318], [-83.923072, 34.731234], [-83.923053, 34.731122], [-83.922997, 34.731031], [-83.922855, 34.730953], [-83.92281, 34.73095], [-83.922713, 34.730943], [-83.922537, 34.730972], [-83.922124, 34.731071], [-83.92197, 34.73107], [-83.921778, 34.731029], [-83.921293, 34.730856], [-83.921175, 34.730836], [-83.921052, 34.730844], [-83.920898, 34.730899], [-83.920745, 34.731016], [-83.92068, 34.731123], [-83.920374, 34.732134], [-83.92022, 34.732512], [-83.920107, 34.732692], [-83.920015, 34.732758], [-83.919882, 34.732784], [-83.919733, 34.732764], [-83.919462, 34.732657], [-83.919183, 34.732569], [-83.91906, 34.732565], [-83.918963, 34.732582], [-83.917804, 34.733217], [-83.917617, 34.733251], [-83.917484, 34.73324], [-83.917241, 34.733166], [-83.917131, 34.733095], [-83.916548, 34.732531], [-83.916216, 34.732257], [-83.915984, 34.73215], [-83.91562, 34.732022], [-83.915439, 34.731933], [-83.915345, 34.731845], [-83.915307, 34.731772], [-83.915292, 34.731673], [-83.915299, 34.731542], [-83.915365, 34.731193], [-83.915329, 34.731045], [-83.915258, 34.730931], [-83.914536, 34.730355], [-83.914414, 34.730236], [-83.914366, 34.730134], [-83.91436, 34.730021], [-83.91441, 34.72984], [-83.914611, 34.729387], [-83.914651, 34.72923], [-83.91467, 34.72911], [-83.914675, 34.728812], [-83.914662, 34.728593], [-83.91462, 34.728436], [-83.91457, 34.728333], [-83.914448, 34.728169], [-83.913848, 34.72752], [-83.913406, 34.727072], [-83.913362, 34.726987], [-83.913341, 34.726848], [-83.913347, 34.726687], [-83.913321, 34.726601], [-83.913242, 34.726482], [-83.912999, 34.726277], [-83.912937, 34.72614], [-83.912957, 34.725853], [-83.913205, 34.724838], [-83.913153, 34.724332], [-83.913177, 34.724084], [-83.913341, 34.723564], [-83.9134, 34.723279], [-83.913393, 34.723037], [-83.913324, 34.722717], [-83.913192, 34.722192], [-83.913138, 34.722054], [-83.913074, 34.721957], [-83.912983, 34.721866], [-83.912657, 34.72166], [-83.912542, 34.721541], [-83.912483, 34.721428], [-83.912315, 34.720988], [-83.912236, 34.72075], [-83.912139, 34.72036], [-83.912079, 34.720227], [-83.911758, 34.719865], [-83.911599, 34.719732], [-83.911134, 34.719439], [-83.910762, 34.719152], [-83.910697, 34.719117], [-83.910595, 34.719088], [-83.910507, 34.719085], [-83.91043, 34.719103], [-83.910241, 34.719206], [-83.91006, 34.719335], [-83.909947, 34.719391], [-83.909782, 34.719417], [-83.909417, 34.719348], [-83.909317, 34.719347], [-83.909135, 34.719381], [-83.908962, 34.71945], [-83.908832, 34.719474], [-83.908732, 34.71947], [-83.908436, 34.719353], [-83.908278, 34.719235], [-83.908182, 34.719191], [-83.908038, 34.719153], [-83.907576, 34.719121], [-83.907141, 34.719018], [-83.906977, 34.719022], [-83.906678, 34.719069], [-83.906548, 34.719065], [-83.906477, 34.71904], [-83.906381, 34.718964], [-83.906345, 34.718852], [-83.906402, 34.718672], [-83.906462, 34.71857], [-83.906607, 34.71846], [-83.906751, 34.718365], [-83.906936, 34.718278], [-83.907423, 34.718116], [-83.90756, 34.718032], [-83.907641, 34.717963], [-83.907717, 34.717803], [-83.907765, 34.71761], [-83.907843, 34.717443], [-83.907918, 34.717335], [-83.908086, 34.717238], [-83.908272, 34.717175], [-83.908409, 34.717077], [-83.908538, 34.716903], [-83.908649, 34.716661], [-83.908825, 34.716353], [-83.908943, 34.716187], [-83.909066, 34.716115], [-83.909598, 34.715924], [-83.90985, 34.71578], [-83.910738, 34.715113], [-83.910929, 34.71494], [-83.911046, 34.714808], [-83.911102, 34.714699], [-83.911137, 34.714565], [-83.911104, 34.713712], [-83.911201, 34.71287], [-83.911246, 34.712751], [-83.911336, 34.712642], [-83.911758, 34.712283], [-83.911853, 34.712176], [-83.911912, 34.712066], [-83.911948, 34.711945], [-83.911967, 34.711799], [-83.911953, 34.711472], [-83.911926, 34.711378], [-83.911849, 34.711258], [-83.911562, 34.71098], [-83.911494, 34.710886], [-83.911469, 34.71075], [-83.911515, 34.710607], [-83.911705, 34.710435], [-83.912099, 34.710309], [-83.912246, 34.71022], [-83.912342, 34.710113], [-83.912392, 34.71], [-83.912481, 34.709538], [-83.912497, 34.709386], [-83.912472, 34.709225], [-83.912415, 34.709097], [-83.912317, 34.708993], [-83.911909, 34.708678], [-83.911853, 34.708541], [-83.911868, 34.708407], [-83.911903, 34.708298], [-83.911988, 34.708198], [-83.912141, 34.708132], [-83.913384, 34.70775], [-83.913652, 34.707644], [-83.91378, 34.707564], [-83.914143, 34.70714], [-83.914492, 34.706667], [-83.914892, 34.705543], [-83.91548, 34.703816], [-83.915617, 34.703043], [-83.915769, 34.701634], [-83.915783, 34.7012], [-83.915703, 34.700876], [-83.915611, 34.700685], [-83.915478, 34.700469], [-83.914769, 34.699464], [-83.914254, 34.698666], [-83.914047, 34.698188], [-83.913864, 34.69756], [-83.913687, 34.697039], [-83.91352, 34.696808], [-83.913064, 34.696337], [-83.912953, 34.696151], [-83.912921, 34.695929], [-83.912934, 34.695281], [-83.912912, 34.69504], [-83.912866, 34.694874], [-83.912511, 34.694025], [-83.912477, 34.693842], [-83.91251, 34.693594], [-83.912647, 34.693225], [-83.912696, 34.693015], [-83.912629, 34.69264], [-83.91252, 34.69247], [-83.91228, 34.692247], [-83.911766, 34.691825], [-83.911379, 34.691478], [-83.910756, 34.690995], [-83.910497, 34.690859], [-83.909711, 34.690598], [-83.90947, 34.69048], [-83.909285, 34.690321], [-83.909121, 34.690111], [-83.908774, 34.689599], [-83.908559, 34.689261], [-83.907639, 34.687745], [-83.907279, 34.687254], [-83.906898, 34.686843], [-83.90603, 34.686134], [-83.905871, 34.686056], [-83.905557, 34.685993], [-83.905371, 34.686004], [-83.904434, 34.686187], [-83.904252, 34.686204], [-83.904083, 34.686196], [-83.90395, 34.686149], [-83.903853, 34.686046], [-83.903771, 34.685922], [-83.903523, 34.685297], [-83.903438, 34.685176], [-83.903323, 34.685094], [-83.903206, 34.685058], [-83.903094, 34.685052], [-83.902938, 34.685092], [-83.902804, 34.685162], [-83.902344, 34.685653], [-83.902166, 34.685764], [-83.901967, 34.685838], [-83.901619, 34.685926], [-83.901222, 34.686], [-83.900777, 34.686051], [-83.900408, 34.686072], [-83.899417, 34.68607], [-83.898625, 34.68615], [-83.89795, 34.68619], [-83.8976, 34.686171], [-83.897507, 34.68614], [-83.89729, 34.686008], [-83.897125, 34.685808], [-83.897069, 34.685716], [-83.896984, 34.684987], [-83.896932, 34.684907], [-83.896814, 34.684791], [-83.896637, 34.684725], [-83.895882, 34.684667], [-83.895636, 34.684584], [-83.895436, 34.684452], [-83.895343, 34.68437], [-83.89519, 34.684174], [-83.895065, 34.683949], [-83.895062, 34.683862], [-83.895119, 34.683712], [-83.895164, 34.683663], [-83.895596, 34.683375], [-83.89568, 34.683245], [-83.895707, 34.683173], [-83.895712, 34.683096], [-83.895652, 34.682887], [-83.89504, 34.681515], [-83.894722, 34.68071], [-83.894721, 34.680372], [-83.89474, 34.680248], [-83.8948, 34.680103], [-83.895457, 34.679309], [-83.895633, 34.679123], [-83.896089, 34.678643], [-83.896578, 34.678307], [-83.896814, 34.678211], [-83.897007, 34.678149], [-83.897282, 34.678088], [-83.897638, 34.678063], [-83.898865, 34.678109], [-83.89902, 34.678096], [-83.899196, 34.678055], [-83.900172, 34.677722], [-83.900507, 34.677566], [-83.900745, 34.677405], [-83.901019, 34.677155], [-83.90108, 34.677087], [-83.90129, 34.676759], [-83.90181, 34.675751], [-83.901885, 34.675633], [-83.903103, 34.674411], [-83.903195, 34.674288], [-83.903265, 34.674124], [-83.903275, 34.67402], [-83.903224, 34.673776], [-83.902991, 34.673401], [-83.902588, 34.67249], [-83.902197, 34.671845], [-83.901861, 34.671139], [-83.901773, 34.670867], [-83.901722, 34.670637], [-83.901744, 34.67051], [-83.901786, 34.670399], [-83.901877, 34.670254], [-83.902326, 34.669702], [-83.90256, 34.669372], [-83.902707, 34.669121], [-83.902778, 34.668826], [-83.902783, 34.668585], [-83.90274, 34.668325], [-83.902646, 34.668012], [-83.902496, 34.667604], [-83.902462, 34.667403], [-83.90249, 34.667152], [-83.902631, 34.666661], [-83.902638, 34.666475], [-83.902578, 34.666301], [-83.902172, 34.665676], [-83.902051, 34.665372], [-83.901905, 34.664912], [-83.901697, 34.664421], [-83.90137, 34.663816], [-83.901082, 34.663372], [-83.901248, 34.663241], [-83.901554, 34.662996], [-83.902095, 34.662554], [-83.90294, 34.661659], [-83.904469, 34.660436], [-83.904695, 34.660259], [-83.904921, 34.660083], [-83.905456, 34.659691], [-83.906383, 34.659235], [-83.907619, 34.658657], [-83.907823, 34.658537], [-83.907969, 34.658423], [-83.908013, 34.65837], [-83.908146, 34.658204], [-83.908226, 34.658007], [-83.908393, 34.657488], [-83.908518, 34.657014], [-83.908531, 34.656845], [-83.908508, 34.656678], [-83.908394, 34.656369], [-83.908219, 34.65611], [-83.907688, 34.655494], [-83.90725, 34.654993], [-83.90702, 34.654694], [-83.906861, 34.654415], [-83.906765, 34.654174], [-83.906696, 34.653922], [-83.906644, 34.653617], [-83.9065, 34.651946], [-83.906494, 34.651728], [-83.906527, 34.651343], [-83.906565, 34.651128], [-83.906705, 34.650582], [-83.90693, 34.649834], [-83.907122, 34.649335], [-83.907233, 34.649116], [-83.907373, 34.648882], [-83.907579, 34.6486], [-83.907854, 34.648249], [-83.908474, 34.647444], [-83.908869, 34.646951], [-83.909112, 34.646618], [-83.909368, 34.646146], [-83.90953, 34.645632], [-83.909765, 34.644339], [-83.909871, 34.643875], [-83.909952, 34.643719], [-83.910052, 34.643598], [-83.910192, 34.643494], [-83.910373, 34.643403], [-83.910559, 34.643346], [-83.911885, 34.64314], [-83.91223, 34.643055], [-83.912561, 34.642947], [-83.912925, 34.642774], [-83.913088, 34.642657], [-83.913236, 34.642515], [-83.913343, 34.64235], [-83.91342, 34.642128], [-83.913432, 34.641866], [-83.913294, 34.641286], [-83.913295, 34.640602], [-83.913342, 34.640247], [-83.913415, 34.639894], [-83.913533, 34.639474], [-83.913665, 34.639171], [-83.914095, 34.638385], [-83.914236, 34.638137], [-83.914478, 34.6377], [-83.914966, 34.63683], [-83.915041, 34.636702], [-83.915364, 34.636188], [-83.915571, 34.635902], [-83.915881, 34.63553], [-83.916711, 34.634592], [-83.916893, 34.634358], [-83.91702, 34.6341], [-83.917192, 34.633364], [-83.917335, 34.633085], [-83.91748, 34.632906], [-83.918055, 34.632408], [-83.918309, 34.63224], [-83.918548, 34.632145], [-83.918795, 34.632093], [-83.919025, 34.632078], [-83.9192, 34.632093], [-83.92017, 34.632299], [-83.922365, 34.632794], [-83.926678, 34.633758], [-83.927208, 34.633895], [-83.928206, 34.634189], [-83.928803, 34.634362], [-83.929729, 34.634627], [-83.931381, 34.635042], [-83.932371, 34.635257], [-83.932823, 34.63529], [-83.933089, 34.635283], [-83.933311, 34.635249], [-83.933551, 34.635191], [-83.934111, 34.63498], [-83.934273, 34.634895], [-83.934427, 34.634783], [-83.93455, 34.634666], [-83.934674, 34.634514], [-83.934758, 34.634368], [-83.934817, 34.634211], [-83.935459, 34.632191], [-83.93554, 34.631754], [-83.935563, 34.630891], [-83.935599, 34.630517], [-83.935724, 34.62983], [-83.935838, 34.629354], [-83.935912, 34.629165], [-83.935987, 34.62905], [-83.936174, 34.628864], [-83.936279, 34.628795], [-83.936498, 34.628693], [-83.936604, 34.628667], [-83.936746, 34.628655], [-83.937115, 34.628659], [-83.937518, 34.628688], [-83.937787, 34.628686], [-83.938199, 34.628609], [-83.938465, 34.628519], [-83.93872, 34.628382], [-83.938979, 34.628185], [-83.939407, 34.627793], [-83.941635, 34.625736], [-83.941812, 34.625597], [-83.942075, 34.625454], [-83.942316, 34.625383], [-83.942457, 34.625359], [-83.94279, 34.625364], [-83.943134, 34.625413], [-83.944616, 34.625673], [-83.946666, 34.626034], [-83.947021, 34.626113], [-83.94732, 34.626204], [-83.947708, 34.626354], [-83.947942, 34.626464], [-83.949438, 34.627207], [-83.949635, 34.627287], [-83.949756, 34.627318], [-83.949955, 34.627322], [-83.950141, 34.627276], [-83.950707, 34.627014], [-83.950906, 34.626953], [-83.95114, 34.626941], [-83.951345, 34.626984], [-83.951434, 34.627017], [-83.951587, 34.627115], [-83.951734, 34.627271], [-83.951812, 34.627446], [-83.951895, 34.627846], [-83.951938, 34.62796], [-83.952032, 34.628069], [-83.952148, 34.628126], [-83.952226, 34.628134], [-83.952331, 34.628121], [-83.952488, 34.628043], [-83.953057, 34.627487], [-83.953241, 34.627357], [-83.953478, 34.627269], [-83.953864, 34.627227], [-83.954461, 34.627328], [-83.954657, 34.627374], [-83.954718, 34.627405], [-83.954818, 34.627507], [-83.954841, 34.627544], [-83.954908, 34.6276], [-83.954947, 34.62761], [-83.955074, 34.627602], [-83.955127, 34.627568], [-83.95517, 34.62748], [-83.955153, 34.627396], [-83.955124, 34.62736], [-83.955036, 34.62688], [-83.954964, 34.626637], [-83.954928, 34.626397], [-83.954943, 34.626304], [-83.955009, 34.626176], [-83.955138, 34.626059], [-83.95559, 34.625819], [-83.95598, 34.625655], [-83.956315, 34.625545], [-83.956428, 34.625496], [-83.956536, 34.625428], [-83.956676, 34.625261], [-83.95679, 34.624966], [-83.956851, 34.624874], [-83.956909, 34.624823], [-83.957028, 34.624765], [-83.95739, 34.624722], [-83.957517, 34.624678], [-83.957634, 34.624565], [-83.957771, 34.624312], [-83.957902, 34.624166], [-83.958057, 34.624073], [-83.958382, 34.623912], [-83.958457, 34.623866], [-83.958544, 34.623782], [-83.958606, 34.623676], [-83.958646, 34.623529], [-83.958743, 34.622878], [-83.958819, 34.622534], [-83.958941, 34.622218], [-83.959187, 34.621717], [-83.959237, 34.621537], [-83.959295, 34.621339], [-83.959502, 34.620582], [-83.959622, 34.620234], [-83.960318, 34.618459], [-83.960513, 34.618105], [-83.96073, 34.61781], [-83.96082, 34.617634], [-83.9609, 34.617344], [-83.961114, 34.616196], [-83.96115, 34.616086], [-83.961226, 34.615958], [-83.961352, 34.615855], [-83.961438, 34.615818], [-83.961533, 34.615791], [-83.962103, 34.61573], [-83.962225, 34.61569], [-83.962357, 34.615615], [-83.962486, 34.615467], [-83.962542, 34.61536], [-83.962864, 34.614573], [-83.963, 34.614378], [-83.963127, 34.614284], [-83.963215, 34.61424], [-83.963987, 34.614079], [-83.964222, 34.613994], [-83.964414, 34.613862], [-83.964496, 34.613777], [-83.964589, 34.613623], [-83.964621, 34.613494], [-83.964624, 34.613357], [-83.964564, 34.613137], [-83.964037, 34.612046], [-83.96395, 34.611797], [-83.963948, 34.611635], [-83.963983, 34.611519], [-83.96407, 34.611376], [-83.964145, 34.611297], [-83.964369, 34.611157], [-83.964516, 34.611087], [-83.965003, 34.610913], [-83.965855, 34.610643], [-83.966022, 34.610622], [-83.966185, 34.61065], [-83.966335, 34.610715], [-83.966693, 34.610928], [-83.966853, 34.610997], [-83.967024, 34.611034], [-83.967322, 34.611051], [-83.967558, 34.611033], [-83.967679, 34.61101], [-83.967892, 34.610939], [-83.968185, 34.610795], [-83.968345, 34.610697], [-83.968501, 34.610569], [-83.968927, 34.610108], [-83.969135, 34.609984], [-83.969357, 34.609932], [-83.969919, 34.609899], [-83.97017, 34.609849], [-83.970282, 34.609808], [-83.970463, 34.60971], [-83.970636, 34.609563], [-83.97075, 34.609406], [-83.970784, 34.609286], [-83.970784, 34.609214], [-83.97076, 34.609125], [-83.97064, 34.608895], [-83.97022, 34.608354], [-83.970021, 34.608064], [-83.969894, 34.607875], [-83.969759, 34.607629], [-83.969706, 34.607528], [-83.969633, 34.607306], [-83.969605, 34.607159], [-83.9696, 34.607015], [-83.969656, 34.606623], [-83.969816, 34.606047], [-83.969827, 34.605892], [-83.969811, 34.605822], [-83.969673, 34.605617], [-83.968957, 34.60499], [-83.968874, 34.604876], [-83.968829, 34.604706], [-83.968861, 34.604522], [-83.969161, 34.604076], [-83.969462, 34.603533], [-83.969552, 34.603423], [-83.969828, 34.603208], [-83.969944, 34.603075], [-83.96998, 34.602911], [-83.969968, 34.602831], [-83.969792, 34.602228], [-83.969764, 34.602035], [-83.969773, 34.601878], [-83.96992, 34.601481], [-83.970072, 34.601175], [-83.97011, 34.601046], [-83.970125, 34.600869], [-83.970101, 34.600686], [-83.970007, 34.600417], [-83.969742, 34.599893], [-83.969727, 34.599785], [-83.969738, 34.599672], [-83.969791, 34.599506], [-83.970079, 34.598825], [-83.970547, 34.597435], [-83.970738, 34.596764], [-83.970756, 34.596596], [-83.970717, 34.596306], [-83.970627, 34.596056], [-83.970504, 34.595832], [-83.969968, 34.595025], [-83.969654, 34.594553], [-83.969506, 34.594297], [-83.969185, 34.593616], [-83.969075, 34.593336], [-83.969042, 34.593112], [-83.969055, 34.592919], [-83.969384, 34.591756], [-83.969512, 34.591449], [-83.969735, 34.591064], [-83.969958, 34.590747], [-83.970061, 34.590654], [-83.970091, 34.590615], [-83.970242, 34.590526], [-83.970624, 34.590361], [-83.970782, 34.590243], [-83.97089, 34.590102], [-83.970913, 34.590046], [-83.97093, 34.589845], [-83.970875, 34.589685], [-83.970746, 34.58951], [-83.970571, 34.589318], [-83.97049, 34.58918], [-83.970456, 34.588967], [-83.970488, 34.588717], [-83.970503, 34.58863], [-83.970736, 34.587429], [-83.970763, 34.5872], [-83.970764, 34.586969], [-83.970747, 34.586896], [-83.970721, 34.586822], [-83.970633, 34.586684], [-83.970344, 34.58637], [-83.970218, 34.586179], [-83.970083, 34.585812], [-83.969825, 34.584959], [-83.969491, 34.583931], [-83.969049, 34.583121], [-83.968993, 34.582972], [-83.96897, 34.582766], [-83.968987, 34.582648], [-83.969077, 34.582416], [-83.969194, 34.58227], [-83.969333, 34.582142], [-83.969476, 34.582048], [-83.969607, 34.581985], [-83.970131, 34.581814], [-83.970393, 34.581711], [-83.970491, 34.581652], [-83.970562, 34.581584], [-83.970641, 34.581438], [-83.970669, 34.581321], [-83.970656, 34.581122], [-83.970477, 34.580427], [-83.970322, 34.580059], [-83.970015, 34.579646], [-83.969958, 34.579582], [-83.969711, 34.57931], [-83.969332, 34.578905], [-83.968889, 34.578442], [-83.968653, 34.578165], [-83.968483, 34.577876], [-83.968316, 34.577382], [-83.967992, 34.576277], [-83.967916, 34.576019], [-83.967801, 34.575602], [-83.967708, 34.57528], [-83.967407, 34.57428], [-83.967354, 34.573943], [-83.967365, 34.573631], [-83.967484, 34.573069], [-83.967537, 34.572844], [-83.967576, 34.572678], [-83.967755, 34.571944], [-83.967949, 34.571261], [-83.968049, 34.57079], [-83.968166, 34.570294], [-83.96821, 34.570103], [-83.968361, 34.569438], [-83.968459, 34.568981], [-83.968484, 34.568757], [-83.968479, 34.568531], [-83.968444, 34.568307], [-83.968358, 34.568047], [-83.968272, 34.567887], [-83.968111, 34.567669], [-83.967755, 34.567274], [-83.967171, 34.566669], [-83.966729, 34.56621], [-83.966373, 34.565694], [-83.966211, 34.56533], [-83.966139, 34.565083], [-83.966104, 34.564883], [-83.966104, 34.564444], [-83.966088, 34.564353], [-83.966113, 34.563947], [-83.96617, 34.563179], [-83.96623, 34.562841], [-83.966289, 34.562631], [-83.966458, 34.562136], [-83.966648, 34.561644], [-83.967055, 34.560604], [-83.96713, 34.560239], [-83.96715, 34.559989], [-83.96715, 34.55767], [-83.967196, 34.557363], [-83.967271, 34.557122], [-83.967383, 34.556856], [-83.967955, 34.555591], [-83.9683, 34.55471], [-83.968732, 34.553489], [-83.969025, 34.552707], [-83.969149, 34.552425], [-83.969328, 34.552101], [-83.969485, 34.551865], [-83.969769, 34.55152], [-83.971657, 34.549466], [-83.972335, 34.548694], [-83.972595, 34.548293], [-83.972764, 34.547922], [-83.972842, 34.54768], [-83.972903, 34.54735], [-83.972922, 34.547042], [-83.972901, 34.546676], [-83.972802, 34.546209], [-83.972699, 34.545931], [-83.972135, 34.544699], [-83.972056, 34.544449], [-83.972, 34.544116], [-83.971993, 34.543768], [-83.972025, 34.543508], [-83.972071, 34.543301], [-83.972212, 34.54293], [-83.972445, 34.54255], [-83.972662, 34.542293], [-83.973817, 34.541179], [-83.973982, 34.541019], [-83.974226, 34.540774], [-83.974682, 34.540212], [-83.975019, 34.539714], [-83.975294, 34.539243], [-83.975526, 34.538773], [-83.975785, 34.538123], [-83.975879, 34.537822], [-83.975926, 34.53758], [-83.975957, 34.537374], [-83.975952, 34.537085], [-83.975915, 34.53639], [-83.975899, 34.536104], [-83.975897, 34.53584], [-83.975937, 34.535461], [-83.975976, 34.535278], [-83.976071, 34.534983], [-83.976321, 34.534463], [-83.976408, 34.534299], [-83.976679, 34.533795], [-83.977044, 34.533086], [-83.97727, 34.532696], [-83.977422, 34.532433], [-83.977556, 34.532158], [-83.977641, 34.53196], [-83.977691, 34.531739], [-83.977718, 34.5315], [-83.977685, 34.531038], [-83.977614, 34.530556], [-83.9776, 34.530246], [-83.977627, 34.530068], [-83.977694, 34.529757], [-83.977739, 34.529602], [-83.977955, 34.529092], [-83.978174, 34.528655], [-83.978283, 34.528478], [-83.978428, 34.528272], [-83.978596, 34.528056], [-83.978624, 34.528016], [-83.979005, 34.527431], [-83.979317, 34.526925], [-83.979447, 34.526688], [-83.97964, 34.526341], [-83.97976, 34.526134], [-83.979949, 34.525844], [-83.980114, 34.525659], [-83.980502, 34.525278], [-83.981013, 34.524875], [-83.981388, 34.524652], [-83.981658, 34.524545], [-83.982075, 34.524436], [-83.982309, 34.524397], [-83.982674, 34.524374], [-83.983046, 34.524383], [-83.98346, 34.524417], [-83.983821, 34.524446], [-83.983815, 34.524669], [-83.983844, 34.524771], [-83.983881, 34.524827], [-83.983981, 34.524904], [-83.98406, 34.524934], [-83.98447, 34.525035], [-83.984542, 34.525069], [-83.984637, 34.52516], [-83.98479, 34.525413], [-83.984902, 34.525521], [-83.984858, 34.525637], [-83.984863, 34.525706], [-83.984975, 34.525861]], "type": "LineString"}}], "metadata": {"attribution": "openrouteservice.org | OpenStreetMap contributors", "service": "routing", "timestamp": 1769468440319, "query": {"coordinates": [[-83.917895, 34.73538], [-83.9843953, 34.526146499999996]], "profile": "driving-car", "profileName": "driving-car", "format": "geojson"}, "engine": {"version": "9.5.0", "build_date": "2025-10-31T12:33:09Z", "graph_date": "2026-01-25T11:10:32Z", "osm_date": "2026-01-19T01:00:01Z"}}}