{"type": "FeatureCollection", "bbox": [-83.619261, 34.858977, -83.400886, 34.912558], "features": [{"bbox": [-83.619261, 34.858977, -83.400886, 34.912558], "type": "Feature", "properties": {"segments": [{"distance": 25526.6, "duration": 1450.7, "steps": [{"distance": 25503.6, "duration": 1448.9, "type": 11, "instruction": "Head southeast on US 76, GA 2", "name": "US 76, GA 2", "way_points": [0, 460]}, {"distance": 23.0, "duration": 1.8, "type": 1, "instruction": "Turn right onto South Main Street", "name": "South Main Street", "way_points": [460, 461]}, {"distance": 0.0, "duration": 0.0, "type": 10, "instruction": "Arrive at South Main Street, on the right", "name": "-", "way_points": [461, 461]}]}], "way_points": [0, 461], "summary": {"distance": 25526.6, "duration": 1450.7}}, "geometry": {"coordinates": [[-83.619261, 34.912558], [-83.619232, 34.912538], [-83.619049, 34.912369], [-83.618953, 34.912255], [-83.61882, 34.912055], [-83.618609, 34.911731], [-83.618521, 34.911567], [-83.618295, 34.911331], [-83.618151, 34.911206], [-83.617328, 34.910689], [-83.616771, 34.910277], [-83.616603, 34.910092], [-83.616478, 34.909921], [-83.616178, 34.909371], [-83.616099, 34.909255], [-83.615904, 34.909056], [-83.615751, 34.908931], [-83.615423, 34.908737], [-83.615153, 34.90864], [-83.614687, 34.908523], [-83.613331, 34.90826], [-83.612889, 34.908055], [-83.612721, 34.907949], [-83.612398, 34.907716], [-83.612193, 34.907512], [-83.612024, 34.907286], [-83.611894, 34.907043], [-83.611832, 34.906875], [-83.611083, 34.903569], [-83.611015, 34.903384], [-83.610771, 34.902983], [-83.610527, 34.902673], [-83.608912, 34.901087], [-83.608537, 34.900739], [-83.608363, 34.900518], [-83.60818, 34.900192], [-83.607459, 34.898338], [-83.606838, 34.896785], [-83.606627, 34.896481], [-83.606492, 34.896347], [-83.606249, 34.896166], [-83.605914, 34.895968], [-83.605712, 34.895899], [-83.605502, 34.895849], [-83.605287, 34.895818], [-83.605068, 34.895806], [-83.60373, 34.895791], [-83.603513, 34.895771], [-83.603195, 34.895706], [-83.602893, 34.8956], [-83.602616, 34.895455], [-83.602297, 34.89521], [-83.602096, 34.894982], [-83.601168, 34.89403], [-83.600649, 34.8937], [-83.600184, 34.893464], [-83.599591, 34.893232], [-83.599006, 34.893097], [-83.598484, 34.893002], [-83.598168, 34.892977], [-83.59595, 34.892933], [-83.595187, 34.89298], [-83.594753, 34.89303], [-83.593926, 34.893153], [-83.593181, 34.893315], [-83.592095, 34.893589], [-83.591882, 34.89363], [-83.591665, 34.89365], [-83.591447, 34.893648], [-83.591123, 34.893603], [-83.590816, 34.89351], [-83.590625, 34.893422], [-83.589411, 34.892701], [-83.58905, 34.89255], [-83.588678, 34.892505], [-83.588193, 34.892496], [-83.587866, 34.892437], [-83.587772, 34.892405], [-83.587582, 34.892309], [-83.587106, 34.891996], [-83.586899, 34.891884], [-83.586779, 34.891849], [-83.585898, 34.89171], [-83.58552, 34.89161], [-83.585105, 34.891477], [-83.584621, 34.891283], [-83.584504, 34.891219], [-83.584166, 34.890981], [-83.583989, 34.890891], [-83.583884, 34.890851], [-83.583745, 34.890821], [-83.583388, 34.89077], [-83.582999, 34.890634], [-83.582811, 34.890543], [-83.582641, 34.890434], [-83.582493, 34.890301], [-83.582074, 34.889852], [-83.581897, 34.889707], [-83.581629, 34.889534], [-83.58144, 34.889443], [-83.581132, 34.889353], [-83.579828, 34.889129], [-83.578683, 34.888901], [-83.578418, 34.88882], [-83.577874, 34.888514], [-83.577676, 34.888324], [-83.577394, 34.887983], [-83.577165, 34.887631], [-83.577135, 34.887542], [-83.577132, 34.887427], [-83.577169, 34.887224], [-83.577345, 34.886679], [-83.57739, 34.886462], [-83.57738, 34.886145], [-83.577361, 34.886073], [-83.577259, 34.885856], [-83.57633, 34.884441], [-83.576078, 34.884147], [-83.575936, 34.88401], [-83.575621, 34.88376], [-83.575215, 34.88351], [-83.575054, 34.883388], [-83.574889, 34.883251], [-83.574775, 34.883094], [-83.574699, 34.882899], [-83.574686, 34.882759], [-83.574729, 34.882556], [-83.575023, 34.881852], [-83.575178, 34.88149], [-83.575366, 34.881208], [-83.575423, 34.881149], [-83.577107, 34.879883], [-83.577269, 34.879757], [-83.577409, 34.87962], [-83.577587, 34.879544], [-83.577851, 34.879462], [-83.578325, 34.879366], [-83.578571, 34.879289], [-83.578675, 34.879222], [-83.578792, 34.879098], [-83.578852, 34.878916], [-83.578845, 34.878797], [-83.578747, 34.878568], [-83.577967, 34.877299], [-83.577764, 34.87702], [-83.57752, 34.87679], [-83.576761, 34.876157], [-83.575356, 34.875104], [-83.574243, 34.874324], [-83.57399, 34.874148], [-83.573748, 34.874057], [-83.573451, 34.874019], [-83.572841, 34.874061], [-83.571988, 34.874152], [-83.571803, 34.874187], [-83.571601, 34.874255], [-83.571486, 34.87433], [-83.571214, 34.874589], [-83.571023, 34.874743], [-83.570513, 34.874991], [-83.569569, 34.875297], [-83.569173, 34.875402], [-83.568901, 34.875454], [-83.568661, 34.875483], [-83.568347, 34.875484], [-83.568008, 34.875448], [-83.567779, 34.875378], [-83.567446, 34.875232], [-83.567146, 34.875013], [-83.566983, 34.874829], [-83.566236, 34.873777], [-83.565869, 34.873292], [-83.565785, 34.873161], [-83.565503, 34.872871], [-83.565265, 34.872759], [-83.564986, 34.872701], [-83.564111, 34.872756], [-83.563915, 34.87275], [-83.563433, 34.872668], [-83.562089, 34.872343], [-83.561552, 34.872261], [-83.560657, 34.872217], [-83.559326, 34.872226], [-83.558996, 34.872299], [-83.558398, 34.87251], [-83.55799, 34.872646], [-83.557722, 34.872774], [-83.557537, 34.872928], [-83.557194, 34.873434], [-83.556969, 34.873626], [-83.556633, 34.873832], [-83.556312, 34.873985], [-83.555673, 34.874154], [-83.555279, 34.874211], [-83.553165, 34.874374], [-83.5529, 34.874357], [-83.552719, 34.874287], [-83.552586, 34.874178], [-83.552207, 34.873683], [-83.552027, 34.873516], [-83.551789, 34.873366], [-83.551715, 34.873337], [-83.550622, 34.872924], [-83.550469, 34.872825], [-83.550152, 34.872475], [-83.549962, 34.872187], [-83.54978, 34.871861], [-83.549718, 34.871701], [-83.549699, 34.871652], [-83.549598, 34.871393], [-83.549517, 34.870946], [-83.549455, 34.870246], [-83.549396, 34.869997], [-83.549188, 34.869652], [-83.549037, 34.869454], [-83.548727, 34.869176], [-83.548327, 34.868987], [-83.548005, 34.868898], [-83.547501, 34.868802], [-83.544725, 34.868414], [-83.544181, 34.868353], [-83.543647, 34.86831], [-83.542828, 34.868344], [-83.542513, 34.868414], [-83.541515, 34.868637], [-83.541292, 34.868674], [-83.54103, 34.868718], [-83.540759, 34.868704], [-83.540607, 34.868696], [-83.540273, 34.868601], [-83.540054, 34.868505], [-83.539871, 34.868418], [-83.538384, 34.867676], [-83.537735, 34.867345], [-83.537268, 34.867078], [-83.536997, 34.866973], [-83.536565, 34.866825], [-83.536183, 34.866746], [-83.535935, 34.866715], [-83.535589, 34.86671], [-83.53456, 34.866782], [-83.533478, 34.86692], [-83.532099, 34.867099], [-83.530112, 34.867361], [-83.529838, 34.867393], [-83.529634, 34.867416], [-83.529429, 34.86744], [-83.528196, 34.867648], [-83.527105, 34.867933], [-83.526819, 34.868022], [-83.526093, 34.868228], [-83.524547, 34.868601], [-83.524052, 34.86868], [-83.523472, 34.868698], [-83.522689, 34.868579], [-83.520924, 34.86795], [-83.520077, 34.867611], [-83.519551, 34.86721], [-83.519041, 34.866682], [-83.518738, 34.866094], [-83.518624, 34.865359], [-83.518616, 34.864655], [-83.518561, 34.863199], [-83.518443, 34.862592], [-83.518397, 34.862462], [-83.518059, 34.86181], [-83.517367, 34.861099], [-83.516811, 34.860737], [-83.516433, 34.860561], [-83.515914, 34.860392], [-83.515541, 34.86031], [-83.51519, 34.860273], [-83.514303, 34.860298], [-83.513357, 34.860376], [-83.51302, 34.860362], [-83.512709, 34.860322], [-83.512412, 34.860229], [-83.512004, 34.860014], [-83.5118, 34.859872], [-83.511372, 34.859582], [-83.510804, 34.859327], [-83.510112, 34.859122], [-83.509635, 34.859015], [-83.509165, 34.858977], [-83.508753, 34.859029], [-83.507175, 34.85955], [-83.506604, 34.859718], [-83.504519, 34.860136], [-83.503754, 34.860325], [-83.501698, 34.860962], [-83.501094, 34.861089], [-83.499974, 34.86127], [-83.499486, 34.861395], [-83.499032, 34.861602], [-83.497473, 34.862392], [-83.493047, 34.864838], [-83.492734, 34.865002], [-83.492383, 34.865129], [-83.491904, 34.865221], [-83.491443, 34.865283], [-83.490926, 34.865316], [-83.489835, 34.865324], [-83.488744, 34.865389], [-83.487503, 34.865424], [-83.487167, 34.865446], [-83.486823, 34.865483], [-83.486172, 34.865616], [-83.485768, 34.865739], [-83.485641, 34.865762], [-83.485369, 34.865782], [-83.484823, 34.865771], [-83.483998, 34.865833], [-83.483654, 34.865877], [-83.483292, 34.865944], [-83.482684, 34.866256], [-83.481818, 34.866791], [-83.48149, 34.866966], [-83.481083, 34.867128], [-83.480659, 34.867212], [-83.479192, 34.867311], [-83.477665, 34.867417], [-83.473813, 34.867756], [-83.47356, 34.867771], [-83.473328, 34.867804], [-83.473077, 34.867892], [-83.472631, 34.868105], [-83.472235, 34.868304], [-83.47187, 34.868434], [-83.471535, 34.868518], [-83.471168, 34.868561], [-83.470865, 34.868664], [-83.470556, 34.868801], [-83.468388, 34.869944], [-83.467979, 34.87008], [-83.467563, 34.870191], [-83.467027, 34.870293], [-83.465102, 34.870572], [-83.464934, 34.870583], [-83.464498, 34.870563], [-83.464284, 34.870525], [-83.463841, 34.870417], [-83.463409, 34.870355], [-83.463152, 34.87036], [-83.462943, 34.870391], [-83.461405, 34.870776], [-83.460099, 34.871187], [-83.458043, 34.871942], [-83.457759, 34.872077], [-83.457581, 34.872182], [-83.457215, 34.872426], [-83.45643, 34.873087], [-83.455863, 34.873514], [-83.455225, 34.873879], [-83.454991, 34.873981], [-83.454016, 34.874341], [-83.453067, 34.874629], [-83.452723, 34.874693], [-83.451958, 34.874803], [-83.451077, 34.874945], [-83.449815, 34.875269], [-83.44883, 34.875557], [-83.448334, 34.875788], [-83.448014, 34.875998], [-83.447356, 34.876521], [-83.447119, 34.876669], [-83.446727, 34.876833], [-83.446337, 34.876911], [-83.445153, 34.876971], [-83.443598, 34.877012], [-83.441613, 34.877081], [-83.441365, 34.877086], [-83.440841, 34.877149], [-83.44035, 34.87723], [-83.439958, 34.87736], [-83.439824, 34.877404], [-83.438963, 34.877835], [-83.438727, 34.877939], [-83.438501, 34.878018], [-83.438227, 34.878082], [-83.437956, 34.878112], [-83.437696, 34.878105], [-83.436499, 34.877964], [-83.436148, 34.877957], [-83.435924, 34.877968], [-83.435486, 34.878017], [-83.434575, 34.878214], [-83.433635, 34.878447], [-83.433148, 34.87858], [-83.432778, 34.878716], [-83.432294, 34.878935], [-83.431526, 34.879362], [-83.431186, 34.879557], [-83.430632, 34.879832], [-83.430326, 34.879936], [-83.429998, 34.880006], [-83.429659, 34.880042], [-83.428129, 34.879991], [-83.426828, 34.880044], [-83.426671, 34.880053], [-83.425801, 34.880099], [-83.42478, 34.880131], [-83.424326, 34.880144], [-83.422198, 34.880304], [-83.421402, 34.880357], [-83.421135, 34.880375], [-83.419727, 34.880543], [-83.418873, 34.880737], [-83.417852, 34.88106], [-83.41624, 34.881625], [-83.415436, 34.881961], [-83.415299, 34.882015], [-83.414235, 34.882524], [-83.413537, 34.882868], [-83.413317, 34.882966], [-83.413078, 34.883043], [-83.412782, 34.883098], [-83.412544, 34.883118], [-83.412145, 34.883117], [-83.411869, 34.883067], [-83.411555, 34.882917], [-83.411421, 34.882814], [-83.410933, 34.882012], [-83.410249, 34.881044], [-83.410004, 34.880717], [-83.409261, 34.879761], [-83.409131, 34.879642], [-83.408989, 34.879539], [-83.408802, 34.879447], [-83.408597, 34.8794], [-83.408432, 34.879387], [-83.408209, 34.87941], [-83.407892, 34.879522], [-83.407769, 34.879613], [-83.407631, 34.87976], [-83.407538, 34.879969], [-83.40743, 34.880557], [-83.407333, 34.880739], [-83.407218, 34.880859], [-83.407059, 34.880951], [-83.406946, 34.880985], [-83.406693, 34.881005], [-83.406434, 34.880984], [-83.405265, 34.880852], [-83.405082, 34.880812], [-83.404909, 34.880709], [-83.404717, 34.880488], [-83.404383, 34.88008], [-83.404335, 34.880017], [-83.404219, 34.879812], [-83.404008, 34.879429], [-83.403806, 34.87903], [-83.403632, 34.878767], [-83.403512, 34.878662], [-83.403313, 34.878555], [-83.403204, 34.878536], [-83.403087, 34.878515], [-83.402895, 34.878497], [-83.402796, 34.87849], [-83.402123, 34.878441], [-83.401544, 34.8784], [-83.400886, 34.878346], [-83.400916, 34.87814]], "type": "LineString"}}], "metadata": {"attribution": "openrouteservice.org | OpenStreetMap contributors", "service": "routing", "timestamp": 1769468440476, "query": {"coordinates": [[-83.619347, 34.912473], [-83.4009933, 34.8781479]], "profile": "driving-car", "profileName": "driving-car", "format": "geojson"}, "engine": {"version": "9.5.0", "build_date": "2025-10-31T12:33:09Z", "graph_date": "2026-01-25T11:10:32Z", "osm_date": "2026-01-19T01:00:01Z"}}}