{"type": "FeatureCollection", "bbox": [-83.80109, 35.364406, -83.437898, 35.451994], "features": [{"bbox": [-83.80109, 35.364406, -83.437898, 35.451994], "type": "Feature", "properties": {"segments": [{"distance": 51489.6, "duration": 2828.8, "steps": [{"distance": 1825.0, "duration": 223.4, "type": 11, "instruction": "Head southeast on Fontana Dam Road", "name": "Fontana Dam Road", "way_points": [0, 62]}, {"distance": 34253.0, "duration": 1832.9, "type": 2, "instruction": "Turn sharp left onto Fontana Road, NC 28", "name": "Fontana Road, NC 28", "way_points": [62, 764]}, {"distance": 8334.1, "duration": 424.7, "type": 0, "instruction": "Turn left onto Appalachian Highway, US 19, US 74, NC 28", "name": "Appalachian Highway, US 19, US 74, NC 28", "way_points": [764, 895]}, {"distance": 4820.9, "duration": 173.6, "type": 12, "instruction": "Keep left onto Great Smoky Mountains Expressway, US 74", "name": "Great Smoky Mountains Expressway, US 74", "way_points": [895, 937]}, {"distance": 312.4, "duration": 22.5, "type": 13, "instruction": "Keep right", "name": "-", "way_points": [937, 942]}, {"distance": 1208.5, "duration": 79.1, "type": 2, "instruction": "Turn sharp left onto Veterans Boulevard, US 19 Connector", "name": "Veterans Boulevard, US 19 Connector", "way_points": [942, 975]}, {"distance": 298.7, "duration": 16.5, "type": 3, "instruction": "Turn sharp right onto Main Street, US 19", "name": "Main Street, US 19", "way_points": [975, 983]}, {"distance": 437.0, "duration": 56.2, "type": 0, "instruction": "Turn left onto Everett Street", "name": "Everett Street", "way_points": [983, 994]}, {"distance": 0.0, "duration": 0.0, "type": 10, "instruction": "Arrive at Everett Street, on the right", "name": "-", "way_points": [994, 994]}]}], "way_points": [0, 994], "summary": {"distance": 51489.6, "duration": 2828.8}}, "geometry": {"coordinates": [[-83.80109, 35.451994], [-83.801074, 35.451985], [-83.800625, 35.45175], [-83.800412, 35.451635], [-83.800195, 35.451525], [-83.800036, 35.451387], [-83.799923, 35.451213], [-83.799781, 35.450797], [-83.799672, 35.450662], [-83.799573, 35.450593], [-83.799407, 35.450529], [-83.799301, 35.450514], [-83.798583, 35.450473], [-83.798462, 35.450446], [-83.798274, 35.450374], [-83.798082, 35.450255], [-83.79714, 35.449509], [-83.796798, 35.449203], [-83.796685, 35.449001], [-83.796477, 35.448346], [-83.796381, 35.448182], [-83.796291, 35.448092], [-83.795953, 35.447866], [-83.794996, 35.447362], [-83.794917, 35.447302], [-83.794813, 35.447185], [-83.794756, 35.447071], [-83.794735, 35.446913], [-83.794772, 35.446759], [-83.794886, 35.4466], [-83.794979, 35.446522], [-83.796188, 35.44591], [-83.796344, 35.445822], [-83.796626, 35.445607], [-83.796802, 35.44541], [-83.796954, 35.445167], [-83.7972, 35.444552], [-83.797301, 35.444362], [-83.79744, 35.444189], [-83.79754, 35.444109], [-83.797648, 35.444045], [-83.797925, 35.443941], [-83.798907, 35.443727], [-83.799326, 35.443612], [-83.799417, 35.443571], [-83.799525, 35.443496], [-83.7996, 35.443421], [-83.799641, 35.44336], [-83.79969, 35.443231], [-83.799693, 35.44308], [-83.799636, 35.442895], [-83.799396, 35.442366], [-83.799267, 35.442025], [-83.799251, 35.441938], [-83.799266, 35.441772], [-83.799299, 35.441684], [-83.799411, 35.441528], [-83.799563, 35.441414], [-83.799681, 35.441366], [-83.799865, 35.441337], [-83.800018, 35.441339], [-83.800274, 35.441373], [-83.800664, 35.441369], [-83.8006, 35.44127], [-83.800512, 35.441185], [-83.800446, 35.441148], [-83.800323, 35.44112], [-83.799814, 35.441076], [-83.797785, 35.440958], [-83.797382, 35.440945], [-83.796747, 35.440953], [-83.796233, 35.440993], [-83.795295, 35.441117], [-83.794687, 35.441168], [-83.794301, 35.441169], [-83.794015, 35.441139], [-83.793783, 35.441083], [-83.793573, 35.441008], [-83.793287, 35.44086], [-83.793165, 35.440775], [-83.792587, 35.440298], [-83.792341, 35.440161], [-83.792126, 35.440072], [-83.791765, 35.439984], [-83.791085, 35.439903], [-83.790534, 35.439876], [-83.789778, 35.439896], [-83.789046, 35.439924], [-83.788816, 35.43993], [-83.788449, 35.439896], [-83.788132, 35.439842], [-83.787258, 35.439647], [-83.786811, 35.439588], [-83.786344, 35.4396], [-83.785643, 35.439675], [-83.785488, 35.43967], [-83.785214, 35.439619], [-83.785057, 35.439557], [-83.78494, 35.439486], [-83.784795, 35.439363], [-83.784688, 35.439213], [-83.784636, 35.439107], [-83.784576, 35.438808], [-83.78458, 35.438317], [-83.784638, 35.436968], [-83.784625, 35.436837], [-83.784598, 35.436708], [-83.784518, 35.436512], [-83.784418, 35.436376], [-83.784285, 35.436266], [-83.784107, 35.436175], [-83.783889, 35.436105], [-83.783637, 35.436083], [-83.783385, 35.436118], [-83.783112, 35.436228], [-83.782815, 35.436437], [-83.782517, 35.436589], [-83.782158, 35.436705], [-83.782021, 35.436722], [-83.781739, 35.436703], [-83.781597, 35.436675], [-83.780602, 35.436407], [-83.780164, 35.436338], [-83.779575, 35.436317], [-83.779208, 35.436343], [-83.778886, 35.436391], [-83.778288, 35.436572], [-83.777583, 35.436809], [-83.77738, 35.436846], [-83.777128, 35.436854], [-83.776461, 35.436801], [-83.775856, 35.436777], [-83.775037, 35.436876], [-83.774779, 35.436895], [-83.774522, 35.436891], [-83.774231, 35.436859], [-83.773973, 35.436796], [-83.773783, 35.436731], [-83.77324, 35.436453], [-83.77297, 35.436363], [-83.772785, 35.436329], [-83.772646, 35.43632], [-83.772416, 35.436344], [-83.772172, 35.436395], [-83.771563, 35.436576], [-83.771366, 35.436604], [-83.771161, 35.43661], [-83.771019, 35.436584], [-83.770903, 35.436548], [-83.770675, 35.436437], [-83.770454, 35.436291], [-83.770252, 35.436119], [-83.769922, 35.435736], [-83.769804, 35.435523], [-83.769764, 35.435408], [-83.769746, 35.435173], [-83.76977, 35.435055], [-83.769815, 35.434939], [-83.769884, 35.434828], [-83.770063, 35.434618], [-83.770466, 35.434228], [-83.770542, 35.434134], [-83.77116, 35.433567], [-83.771234, 35.43348], [-83.771739, 35.433017], [-83.771917, 35.432829], [-83.77199, 35.432737], [-83.772082, 35.432564], [-83.772132, 35.432352], [-83.772105, 35.432135], [-83.772003, 35.431925], [-83.771788, 35.431681], [-83.771533, 35.431442], [-83.771329, 35.431183], [-83.771015, 35.430431], [-83.770957, 35.430327], [-83.770761, 35.430128], [-83.7706, 35.430022], [-83.770339, 35.429935], [-83.770116, 35.429907], [-83.769859, 35.429939], [-83.769683, 35.429987], [-83.769435, 35.430134], [-83.769244, 35.430286], [-83.768817, 35.430708], [-83.768626, 35.43087], [-83.768369, 35.431048], [-83.76736, 35.431439], [-83.766707, 35.431656], [-83.766109, 35.431875], [-83.765688, 35.431998], [-83.76537, 35.432069], [-83.765074, 35.43212], [-83.764638, 35.432149], [-83.764159, 35.432131], [-83.763494, 35.432046], [-83.763258, 35.43197], [-83.763042, 35.431847], [-83.762925, 35.431768], [-83.762799, 35.431616], [-83.762709, 35.43145], [-83.762674, 35.43127], [-83.762695, 35.431091], [-83.762767, 35.430888], [-83.762866, 35.430755], [-83.763051, 35.430588], [-83.763499, 35.430298], [-83.763774, 35.430099], [-83.763867, 35.429999], [-83.763998, 35.429809], [-83.764029, 35.429716], [-83.764057, 35.429594], [-83.764048, 35.429396], [-83.76402, 35.429294], [-83.763896, 35.4291], [-83.763718, 35.428933], [-83.763522, 35.428825], [-83.762746, 35.428557], [-83.762589, 35.428472], [-83.762417, 35.428338], [-83.76231, 35.428182], [-83.762261, 35.428004], [-83.762249, 35.427835], [-83.762316, 35.427444], [-83.762468, 35.42703], [-83.762877, 35.426195], [-83.763073, 35.425497], [-83.763113, 35.425084], [-83.763074, 35.42452], [-83.763028, 35.424309], [-83.762948, 35.424092], [-83.762837, 35.42389], [-83.762609, 35.423621], [-83.762074, 35.423164], [-83.761771, 35.422978], [-83.761628, 35.422919], [-83.761372, 35.422869], [-83.761119, 35.422858], [-83.760349, 35.422977], [-83.760106, 35.422995], [-83.759845, 35.422989], [-83.759574, 35.422928], [-83.75945, 35.422883], [-83.759248, 35.4228], [-83.758839, 35.422601], [-83.758599, 35.422505], [-83.758322, 35.422458], [-83.758168, 35.422464], [-83.75802, 35.422484], [-83.75771, 35.422588], [-83.757116, 35.422996], [-83.756908, 35.423099], [-83.756613, 35.423184], [-83.756403, 35.423206], [-83.756247, 35.423201], [-83.755664, 35.423125], [-83.7555, 35.423119], [-83.755068, 35.423184], [-83.754862, 35.423238], [-83.754487, 35.423388], [-83.754337, 35.423412], [-83.754172, 35.423418], [-83.754024, 35.423404], [-83.753755, 35.423321], [-83.753133, 35.423031], [-83.752811, 35.422925], [-83.752564, 35.422877], [-83.752477, 35.422872], [-83.752177, 35.422866], [-83.752025, 35.422886], [-83.751869, 35.422928], [-83.751677, 35.423017], [-83.751534, 35.423116], [-83.751375, 35.423274], [-83.751282, 35.423438], [-83.751097, 35.423973], [-83.751001, 35.42414], [-83.750909, 35.424267], [-83.750833, 35.424341], [-83.750594, 35.424507], [-83.750234, 35.424682], [-83.750022, 35.424765], [-83.749811, 35.424824], [-83.749644, 35.424848], [-83.749536, 35.424853], [-83.749319, 35.424826], [-83.748828, 35.424664], [-83.748217, 35.424401], [-83.748026, 35.424334], [-83.747763, 35.424298], [-83.74747, 35.424319], [-83.747253, 35.424376], [-83.746946, 35.42452], [-83.746519, 35.424762], [-83.746296, 35.424844], [-83.74614, 35.424889], [-83.74549, 35.424961], [-83.745235, 35.425035], [-83.745114, 35.425085], [-83.743376, 35.426225], [-83.74308, 35.426357], [-83.742673, 35.426451], [-83.742542, 35.426463], [-83.742232, 35.426463], [-83.742101, 35.426449], [-83.741792, 35.426384], [-83.741533, 35.426283], [-83.741291, 35.426164], [-83.741185, 35.426087], [-83.74047, 35.42539], [-83.740266, 35.425233], [-83.740069, 35.425125], [-83.739762, 35.425025], [-83.739621, 35.424996], [-83.738709, 35.424861], [-83.738438, 35.424785], [-83.738217, 35.424679], [-83.738036, 35.424563], [-83.73747, 35.424141], [-83.737141, 35.423924], [-83.736748, 35.423804], [-83.736475, 35.423769], [-83.736189, 35.423785], [-83.735821, 35.423884], [-83.735512, 35.42404], [-83.734971, 35.424417], [-83.734722, 35.424528], [-83.73422, 35.424637], [-83.733603, 35.424694], [-83.733353, 35.424771], [-83.733238, 35.424831], [-83.733036, 35.424968], [-83.732663, 35.425408], [-83.73245, 35.425624], [-83.732243, 35.425773], [-83.73203, 35.425866], [-83.731784, 35.425909], [-83.731671, 35.42591], [-83.731459, 35.425881], [-83.731185, 35.425782], [-83.730918, 35.4256], [-83.729536, 35.424296], [-83.729273, 35.424055], [-83.729004, 35.42376], [-83.728879, 35.423539], [-83.728818, 35.423308], [-83.72884, 35.423082], [-83.728884, 35.422941], [-83.729171, 35.422423], [-83.729427, 35.422013], [-83.729506, 35.421769], [-83.729545, 35.421516], [-83.729529, 35.421274], [-83.72941, 35.420918], [-83.72925, 35.420679], [-83.729023, 35.420445], [-83.72885, 35.420302], [-83.728679, 35.420194], [-83.728598, 35.420141], [-83.728228, 35.420006], [-83.727941, 35.419965], [-83.727213, 35.419919], [-83.726342, 35.419725], [-83.726042, 35.419692], [-83.725762, 35.419718], [-83.725214, 35.419821], [-83.725081, 35.419834], [-83.724816, 35.419815], [-83.724687, 35.419788], [-83.724566, 35.419744], [-83.724347, 35.41962], [-83.724169, 35.419459], [-83.723491, 35.418455], [-83.723422, 35.418315], [-83.723392, 35.418164], [-83.723401, 35.417917], [-83.723482, 35.417731], [-83.723549, 35.417633], [-83.723635, 35.417547], [-83.723946, 35.417352], [-83.72455, 35.417125], [-83.724811, 35.416986], [-83.724913, 35.416914], [-83.72509, 35.416734], [-83.72515, 35.41664], [-83.725217, 35.416384], [-83.725201, 35.416153], [-83.725113, 35.415819], [-83.724272, 35.413046], [-83.724154, 35.41259], [-83.724065, 35.412343], [-83.723846, 35.411931], [-83.723743, 35.411803], [-83.723555, 35.411637], [-83.723344, 35.411495], [-83.723052, 35.411351], [-83.722746, 35.411254], [-83.722477, 35.411211], [-83.722189, 35.411206], [-83.721403, 35.411248], [-83.720995, 35.411251], [-83.720711, 35.411203], [-83.720426, 35.411111], [-83.72012, 35.410966], [-83.719979, 35.410868], [-83.719836, 35.410733], [-83.719692, 35.410549], [-83.719553, 35.410255], [-83.719474, 35.409856], [-83.719409, 35.409233], [-83.719364, 35.408977], [-83.719314, 35.408858], [-83.71921, 35.408675], [-83.718915, 35.40828], [-83.718387, 35.407744], [-83.717969, 35.407246], [-83.717717, 35.406832], [-83.717212, 35.405651], [-83.71709, 35.405392], [-83.716994, 35.405217], [-83.716765, 35.404894], [-83.716575, 35.404708], [-83.716336, 35.404534], [-83.716192, 35.404451], [-83.716066, 35.404385], [-83.715765, 35.404264], [-83.715442, 35.404177], [-83.715227, 35.404139], [-83.714708, 35.404108], [-83.7139, 35.404084], [-83.713754, 35.404065], [-83.713523, 35.40401], [-83.713362, 35.403927], [-83.713241, 35.403847], [-83.713143, 35.403756], [-83.713019, 35.403602], [-83.712949, 35.403471], [-83.712909, 35.403324], [-83.712901, 35.403199], [-83.712915, 35.403064], [-83.713033, 35.402791], [-83.713248, 35.402558], [-83.713893, 35.402109], [-83.714535, 35.401709], [-83.715288, 35.401207], [-83.715505, 35.401025], [-83.715596, 35.400925], [-83.715731, 35.400711], [-83.715818, 35.400491], [-83.71586, 35.4003], [-83.715855, 35.400152], [-83.715793, 35.399659], [-83.71569, 35.399089], [-83.71556, 35.398201], [-83.715563, 35.397921], [-83.715583, 35.397794], [-83.715656, 35.397577], [-83.715777, 35.397349], [-83.716018, 35.396975], [-83.716908, 35.395752], [-83.717016, 35.395567], [-83.71713, 35.395306], [-83.717193, 35.395027], [-83.717197, 35.394695], [-83.71713, 35.394315], [-83.716715, 35.392621], [-83.716693, 35.392336], [-83.716704, 35.392051], [-83.716795, 35.39129], [-83.716916, 35.390785], [-83.71697, 35.390651], [-83.717117, 35.390387], [-83.717303, 35.390177], [-83.717456, 35.389953], [-83.717556, 35.389716], [-83.717569, 35.389575], [-83.717522, 35.389222], [-83.717185, 35.388099], [-83.717007, 35.387575], [-83.716826, 35.387333], [-83.716709, 35.387219], [-83.716579, 35.387128], [-83.715735, 35.386735], [-83.71546, 35.386589], [-83.715199, 35.386415], [-83.715092, 35.386312], [-83.715021, 35.38621], [-83.714916, 35.38598], [-83.714848, 35.385649], [-83.714785, 35.385183], [-83.714713, 35.38487], [-83.714659, 35.384703], [-83.714585, 35.384564], [-83.714502, 35.384434], [-83.714193, 35.384073], [-83.713573, 35.383556], [-83.713252, 35.383202], [-83.713028, 35.382884], [-83.712341, 35.381513], [-83.711975, 35.381002], [-83.711651, 35.380671], [-83.710722, 35.379952], [-83.71054, 35.379773], [-83.710469, 35.379676], [-83.710342, 35.379386], [-83.710188, 35.378404], [-83.710124, 35.377937], [-83.710097, 35.377457], [-83.710102, 35.376975], [-83.710153, 35.376202], [-83.710123, 35.3757], [-83.71004, 35.375311], [-83.709897, 35.37492], [-83.709694, 35.37453], [-83.709417, 35.374166], [-83.709191, 35.373937], [-83.708944, 35.373724], [-83.708541, 35.373444], [-83.708392, 35.373361], [-83.707918, 35.373163], [-83.707747, 35.373108], [-83.70739, 35.373007], [-83.706661, 35.372889], [-83.706151, 35.37288], [-83.705426, 35.372923], [-83.702508, 35.373149], [-83.701022, 35.373231], [-83.700561, 35.373214], [-83.70011, 35.373134], [-83.699706, 35.37301], [-83.699352, 35.37288], [-83.698862, 35.372639], [-83.698559, 35.372444], [-83.698349, 35.372284], [-83.697835, 35.37186], [-83.697651, 35.371706], [-83.697434, 35.371524], [-83.697126, 35.371303], [-83.696711, 35.371046], [-83.69654, 35.370972], [-83.696192, 35.370853], [-83.695635, 35.370725], [-83.695326, 35.370698], [-83.694587, 35.370692], [-83.691004, 35.370864], [-83.690656, 35.370875], [-83.686698, 35.371053], [-83.686635, 35.371057], [-83.684691, 35.371148], [-83.680739, 35.37132], [-83.680268, 35.371373], [-83.67981, 35.371455], [-83.679513, 35.371555], [-83.679001, 35.371799], [-83.677053, 35.372924], [-83.676493, 35.373276], [-83.675555, 35.373799], [-83.675166, 35.373985], [-83.67464, 35.374182], [-83.674353, 35.374254], [-83.673895, 35.374309], [-83.673081, 35.374272], [-83.671805, 35.373908], [-83.671566, 35.373857], [-83.67126, 35.373769], [-83.670781, 35.373709], [-83.670185, 35.373697], [-83.669667, 35.37376], [-83.669277, 35.373845], [-83.668785, 35.374007], [-83.668398, 35.374176], [-83.668051, 35.374383], [-83.667745, 35.374604], [-83.667407, 35.374905], [-83.667136, 35.375228], [-83.666905, 35.37559], [-83.666382, 35.376332], [-83.665939, 35.376923], [-83.665637, 35.377232], [-83.66531, 35.377516], [-83.664785, 35.377891], [-83.662243, 35.37958], [-83.661057, 35.380396], [-83.660054, 35.381099], [-83.655422, 35.384654], [-83.654759, 35.385261], [-83.654079, 35.385946], [-83.653392, 35.38673], [-83.652582, 35.387578], [-83.651967, 35.388177], [-83.651214, 35.388765], [-83.650738, 35.389167], [-83.647803, 35.391326], [-83.647052, 35.391905], [-83.64627, 35.392483], [-83.645347, 35.393048], [-83.644709, 35.3934], [-83.644124, 35.393618], [-83.643434, 35.393926], [-83.642572, 35.394285], [-83.641788, 35.394644], [-83.640659, 35.395304], [-83.640004, 35.395755], [-83.639515, 35.396116], [-83.638873, 35.396459], [-83.638254, 35.396707], [-83.63776, 35.396889], [-83.63731, 35.397006], [-83.636704, 35.397108], [-83.636117, 35.397167], [-83.633207, 35.39722], [-83.632558, 35.397238], [-83.63164, 35.397289], [-83.630653, 35.397281], [-83.630209, 35.397294], [-83.62968, 35.397372], [-83.629353, 35.397476], [-83.628703, 35.397696], [-83.628416, 35.397849], [-83.628055, 35.398012], [-83.62754, 35.398179], [-83.627119, 35.398234], [-83.626748, 35.398259], [-83.626516, 35.398257], [-83.626168, 35.39823], [-83.625817, 35.398165], [-83.625552, 35.398099], [-83.62512, 35.397945], [-83.624742, 35.397754], [-83.624438, 35.397556], [-83.62402, 35.397126], [-83.623671, 35.396803], [-83.623153, 35.396489], [-83.622865, 35.396367], [-83.622578, 35.396244], [-83.620263, 35.395678], [-83.617952, 35.395121], [-83.616934, 35.394935], [-83.61625, 35.394868], [-83.615568, 35.394838], [-83.614832, 35.394864], [-83.614165, 35.394938], [-83.61275, 35.395199], [-83.612105, 35.395303], [-83.611387, 35.395354], [-83.610415, 35.395375], [-83.609346, 35.395279], [-83.608557, 35.395152], [-83.607753, 35.394934], [-83.606586, 35.394507], [-83.605844, 35.394194], [-83.605229, 35.393843], [-83.604537, 35.393338], [-83.604032, 35.393033], [-83.603428, 35.392758], [-83.60285, 35.392577], [-83.60232, 35.392484], [-83.60185, 35.39245], [-83.60138, 35.392468], [-83.600776, 35.392587], [-83.600532, 35.392679], [-83.600235, 35.392825], [-83.599831, 35.392983], [-83.599461, 35.393092], [-83.598932, 35.393176], [-83.598245, 35.393185], [-83.597724, 35.39313], [-83.597424, 35.393038], [-83.597004, 35.392955], [-83.596589, 35.392927], [-83.596239, 35.392928], [-83.595852, 35.392956], [-83.595387, 35.393056], [-83.594278, 35.393385], [-83.592698, 35.393886], [-83.592128, 35.394084], [-83.59168, 35.394205], [-83.591431, 35.394257], [-83.590958, 35.394321], [-83.590412, 35.394329], [-83.590175, 35.394306], [-83.589743, 35.39423], [-83.589521, 35.394175], [-83.589249, 35.39408], [-83.588965, 35.393962], [-83.588497, 35.393685], [-83.588328, 35.393562], [-83.587722, 35.393122], [-83.586811, 35.392364], [-83.584089, 35.390167], [-83.58302, 35.389281], [-83.581552, 35.38811], [-83.581165, 35.387769], [-83.580935, 35.387504], [-83.580707, 35.387185], [-83.580522, 35.386813], [-83.580472, 35.386635], [-83.580355, 35.385919], [-83.580194, 35.384257], [-83.580192, 35.384064], [-83.580149, 35.383728], [-83.580071, 35.38331], [-83.579934, 35.382943], [-83.579813, 35.382693], [-83.579622, 35.382397], [-83.579343, 35.382046], [-83.578985, 35.381755], [-83.57867, 35.381557], [-83.577872, 35.381156], [-83.577476, 35.380895], [-83.57716, 35.380575], [-83.576862, 35.380147], [-83.57664, 35.379636], [-83.576509, 35.378947], [-83.576501, 35.378764], [-83.576356, 35.377721], [-83.576328, 35.377314], [-83.57629, 35.376755], [-83.576257, 35.376284], [-83.576155, 35.375507], [-83.575974, 35.374894], [-83.575875, 35.374657], [-83.575702, 35.374275], [-83.575525, 35.374012], [-83.575143, 35.373567], [-83.574854, 35.373301], [-83.574586, 35.37311], [-83.574294, 35.372937], [-83.574009, 35.372778], [-83.573406, 35.372535], [-83.572834, 35.372388], [-83.572598, 35.372342], [-83.572073, 35.372288], [-83.571597, 35.372278], [-83.570969, 35.372311], [-83.567466, 35.372487], [-83.566352, 35.372541], [-83.56393, 35.372657], [-83.563116, 35.372711], [-83.562233, 35.372746], [-83.561941, 35.372727], [-83.561401, 35.372651], [-83.560693, 35.372461], [-83.560133, 35.372238], [-83.55989, 35.372106], [-83.559635, 35.371936], [-83.559383, 35.371749], [-83.559106, 35.371499], [-83.558909, 35.371288], [-83.558589, 35.370871], [-83.55685, 35.368262], [-83.556635, 35.367977], [-83.556082, 35.367137], [-83.555812, 35.366705], [-83.55551, 35.366316], [-83.555156, 35.36601], [-83.554724, 35.365741], [-83.554167, 35.365514], [-83.55352, 35.365291], [-83.553305, 35.365203], [-83.553115, 35.3651], [-83.552627, 35.364765], [-83.552482, 35.364592], [-83.552431, 35.364482], [-83.552361, 35.364406], [-83.550602, 35.364615], [-83.550184, 35.364709], [-83.549981, 35.364775], [-83.549645, 35.364932], [-83.54933, 35.365152], [-83.549181, 35.365284], [-83.548905, 35.365593], [-83.548252, 35.366323], [-83.547952, 35.366603], [-83.547549, 35.366923], [-83.547204, 35.36713], [-83.546479, 35.367476], [-83.544446, 35.368399], [-83.542649, 35.369214], [-83.542147, 35.369521], [-83.541718, 35.369849], [-83.541348, 35.370208], [-83.541031, 35.370615], [-83.540795, 35.370969], [-83.540615, 35.371333], [-83.540125, 35.37232], [-83.539905, 35.372679], [-83.539637, 35.373003], [-83.539326, 35.373287], [-83.538988, 35.373532], [-83.538634, 35.373742], [-83.538237, 35.373913], [-83.537797, 35.374066], [-83.537335, 35.374158], [-83.536901, 35.374206], [-83.536504, 35.37421], [-83.536112, 35.374188], [-83.535699, 35.374123], [-83.534779, 35.373912], [-83.533855, 35.373694], [-83.533441, 35.373646], [-83.532996, 35.373628], [-83.53255, 35.37365], [-83.532035, 35.373725], [-83.531499, 35.373816], [-83.531059, 35.373935], [-83.53018, 35.374232], [-83.529782, 35.374411], [-83.529382, 35.374606], [-83.527771, 35.375513], [-83.527379, 35.375689], [-83.526982, 35.37582], [-83.526564, 35.375916], [-83.526177, 35.375964], [-83.525743, 35.375977], [-83.525335, 35.375938], [-83.524957, 35.375872], [-83.524589, 35.37578], [-83.524254, 35.375651], [-83.523946, 35.375511], [-83.522774, 35.374888], [-83.522528, 35.374779], [-83.522042, 35.374595], [-83.521795, 35.374459], [-83.521411, 35.37436], [-83.520699, 35.374225], [-83.5202, 35.374162], [-83.51991, 35.37414], [-83.519394, 35.374126], [-83.519159, 35.374132], [-83.518748, 35.37417], [-83.518261, 35.374241], [-83.517994, 35.374334], [-83.514671, 35.37482], [-83.514137, 35.374871], [-83.513644, 35.374873], [-83.513108, 35.374836], [-83.512916, 35.374735], [-83.51247, 35.374665], [-83.51186, 35.37451], [-83.511299, 35.374289], [-83.510358, 35.373808], [-83.509624, 35.373387], [-83.507702, 35.372369], [-83.507085, 35.372113], [-83.506589, 35.372012], [-83.506139, 35.371962], [-83.505481, 35.371999], [-83.50495, 35.372095], [-83.504502, 35.372259], [-83.504325, 35.37235], [-83.504195, 35.372419], [-83.504083, 35.372472], [-83.503444, 35.372861], [-83.502987, 35.373221], [-83.502392, 35.373733], [-83.501633, 35.374527], [-83.501114, 35.375268], [-83.499951, 35.377106], [-83.498683, 35.379123], [-83.497718, 35.380754], [-83.497274, 35.381455], [-83.496967, 35.38182], [-83.49679, 35.381992], [-83.496594, 35.382149], [-83.495507, 35.382957], [-83.494685, 35.383553], [-83.493756, 35.384212], [-83.493208, 35.384544], [-83.492774, 35.384786], [-83.492031, 35.385156], [-83.491615, 35.385329], [-83.491517, 35.385366], [-83.491168, 35.385507], [-83.490579, 35.385715], [-83.490188, 35.385836], [-83.488977, 35.386144], [-83.487939, 35.38638], [-83.486766, 35.386652], [-83.485448, 35.38696], [-83.484626, 35.387179], [-83.484212, 35.387346], [-83.484006, 35.387429], [-83.483626, 35.387654], [-83.483271, 35.387935], [-83.483004, 35.388204], [-83.482776, 35.388473], [-83.482223, 35.389227], [-83.481692, 35.389831], [-83.481431, 35.390067], [-83.481153, 35.390263], [-83.480712, 35.390522], [-83.479728, 35.391017], [-83.479146, 35.391337], [-83.478723, 35.391557], [-83.478636, 35.391603], [-83.477568, 35.3922], [-83.476269, 35.392967], [-83.475763, 35.39342], [-83.474751, 35.394914], [-83.473709, 35.396628], [-83.472362, 35.39879], [-83.470313, 35.40218], [-83.470041, 35.402579], [-83.469736, 35.402896], [-83.469407, 35.403164], [-83.469047, 35.403376], [-83.468635, 35.403594], [-83.468191, 35.403766], [-83.467511, 35.403984], [-83.464372, 35.404916], [-83.46319, 35.405305], [-83.462242, 35.405704], [-83.460992, 35.406262], [-83.458759, 35.407293], [-83.458033, 35.407667], [-83.457639, 35.40791], [-83.457234, 35.408225], [-83.456982, 35.408484], [-83.45671, 35.408823], [-83.455399, 35.41083], [-83.455181, 35.411085], [-83.454848, 35.411384], [-83.454413, 35.411702], [-83.454003, 35.411927], [-83.45348, 35.412123], [-83.45283, 35.41231], [-83.450119, 35.412964], [-83.449423, 35.413185], [-83.448816, 35.413425], [-83.448374, 35.413621], [-83.447852, 35.413892], [-83.447657, 35.414005], [-83.447308, 35.414216], [-83.446853, 35.414527], [-83.443726, 35.416726], [-83.44089, 35.418736], [-83.440327, 35.419184], [-83.439197, 35.419983], [-83.438305, 35.420538], [-83.438072, 35.420727], [-83.437968, 35.420894], [-83.437898, 35.421107], [-83.438349, 35.421096], [-83.438973, 35.421129], [-83.439258, 35.421135], [-83.439452, 35.421123], [-83.439832, 35.421055], [-83.440491, 35.42085], [-83.441054, 35.420658], [-83.441277, 35.420606], [-83.441655, 35.420555], [-83.442002, 35.420554], [-83.442256, 35.420575], [-83.442465, 35.420614], [-83.442684, 35.420664], [-83.44285, 35.420719], [-83.443192, 35.420883], [-83.443518, 35.421103], [-83.443802, 35.421347], [-83.444622, 35.42212], [-83.444778, 35.422244], [-83.445686, 35.4231], [-83.445785, 35.423202], [-83.445943, 35.423371], [-83.445985, 35.423422], [-83.446069, 35.423524], [-83.446184, 35.423671], [-83.446347, 35.423907], [-83.446951, 35.424957], [-83.447148, 35.425279], [-83.447293, 35.425476], [-83.447386, 35.425576], [-83.447487, 35.425669], [-83.447639, 35.425793], [-83.447863, 35.425934], [-83.447622, 35.426068], [-83.447389, 35.426198], [-83.447268, 35.426264], [-83.446957, 35.426434], [-83.446451, 35.426716], [-83.44599, 35.426967], [-83.44572, 35.427122], [-83.445147, 35.427456], [-83.445307, 35.427654], [-83.445512, 35.42791], [-83.445612, 35.428034], [-83.44565, 35.428081], [-83.44606, 35.428633], [-83.446191, 35.42885], [-83.446735, 35.429763], [-83.447012, 35.430243], [-83.447236, 35.430619], [-83.447402, 35.430883], [-83.447419, 35.430915]], "type": "LineString"}}], "metadata": {"attribution": "openrouteservice.org | OpenStreetMap contributors", "service": "routing", "timestamp": 1769468440620, "query": {"coordinates": [[-83.801084, 35.452001], [-83.4473809, 35.4309291]], "profile": "driving-car", "profileName": "driving-car", "format": "geojson"}, "engine": {"version": "9.5.0", "build_date": "2025-10-31T12:33:09Z", "graph_date": "2026-01-25T11:10:32Z", "osm_date": "2026-01-19T01:00:01Z"}}}