{"type": "FeatureCollection", "bbox": [-83.591887, 35.328701, -83.437898, 35.430915], "features": [{"bbox": [-83.591887, 35.328701, -83.437898, 35.430915], "type": "Feature", "properties": {"segments": [{"distance": 22423.3, "duration": 1118.8, "steps": [{"distance": 30.0, "duration": 7.2, "type": 11, "instruction": "Head northeast", "name": "-", "way_points": [0, 3]}, {"distance": 62.8, "duration": 15.1, "type": 1, "instruction": "Turn right", "name": "-", "way_points": [3, 6]}, {"distance": 71.8, "duration": 17.2, "type": 1, "instruction": "Turn right onto State Road 1180", "name": "State Road 1180", "way_points": [6, 9]}, {"distance": 15181.2, "duration": 731.5, "type": 0, "instruction": "Turn left onto US 19, US 74", "name": "US 19, US 74", "way_points": [9, 294]}, {"distance": 4820.9, "duration": 173.6, "type": 12, "instruction": "Keep left onto Great Smoky Mountains Expressway, US 74", "name": "Great Smoky Mountains Expressway, US 74", "way_points": [294, 336]}, {"distance": 312.4, "duration": 22.5, "type": 13, "instruction": "Keep right", "name": "-", "way_points": [336, 341]}, {"distance": 1208.5, "duration": 79.1, "type": 2, "instruction": "Turn sharp left onto Veterans Boulevard, US 19 Connector", "name": "Veterans Boulevard, US 19 Connector", "way_points": [341, 374]}, {"distance": 298.7, "duration": 16.5, "type": 3, "instruction": "Turn sharp right onto Main Street, US 19", "name": "Main Street, US 19", "way_points": [374, 382]}, {"distance": 437.0, "duration": 56.2, "type": 0, "instruction": "Turn left onto Everett Street", "name": "Everett Street", "way_points": [382, 393]}, {"distance": 0.0, "duration": 0.0, "type": 10, "instruction": "Arrive at Everett Street, on the right", "name": "-", "way_points": [393, 393]}]}], "way_points": [0, 393], "summary": {"distance": 22423.3, "duration": 1118.8}}, "geometry": {"coordinates": [[-83.591887, 35.33222], [-83.591843, 35.332236], [-83.591728, 35.332401], [-83.591751, 35.332437], [-83.591593, 35.332618], [-83.591446, 35.332725], [-83.591261, 35.332826], [-83.591203, 35.332754], [-83.590843, 35.332418], [-83.590753, 35.332332], [-83.590474, 35.332589], [-83.590334, 35.332771], [-83.590137, 35.333244], [-83.589997, 35.333478], [-83.589899, 35.333583], [-83.589775, 35.333674], [-83.589606, 35.333758], [-83.589424, 35.333816], [-83.5893, 35.333836], [-83.589055, 35.333839], [-83.588844, 35.333804], [-83.588576, 35.333722], [-83.588296, 35.333618], [-83.587823, 35.33341], [-83.587456, 35.333201], [-83.587257, 35.333069], [-83.587181, 35.333017], [-83.586841, 35.33279], [-83.586735, 35.332736], [-83.586544, 35.33268], [-83.586296, 35.332664], [-83.586181, 35.332682], [-83.58556, 35.332882], [-83.585355, 35.332902], [-83.585258, 35.332894], [-83.584971, 35.332813], [-83.584513, 35.332583], [-83.584113, 35.332454], [-83.58381, 35.33241], [-83.583607, 35.332401], [-83.583084, 35.332412], [-83.582898, 35.332387], [-83.582716, 35.332322], [-83.582568, 35.332212], [-83.582501, 35.332131], [-83.582424, 35.33201], [-83.582247, 35.331621], [-83.582149, 35.331458], [-83.582019, 35.331294], [-83.581663, 35.33091], [-83.581567, 35.330739], [-83.581508, 35.33058], [-83.581449, 35.329993], [-83.581407, 35.329871], [-83.581341, 35.329753], [-83.580844, 35.32917], [-83.580618, 35.328965], [-83.580517, 35.328903], [-83.580268, 35.328789], [-83.579922, 35.328709], [-83.579579, 35.328701], [-83.579337, 35.32873], [-83.579078, 35.328835], [-83.578932, 35.328921], [-83.57877, 35.329017], [-83.578647, 35.329114], [-83.577818, 35.329831], [-83.577437, 35.33011], [-83.576461, 35.330764], [-83.576178, 35.331003], [-83.576012, 35.33121], [-83.575874, 35.331443], [-83.575846, 35.331521], [-83.575815, 35.331604], [-83.57575, 35.332022], [-83.575693, 35.332782], [-83.575572, 35.333413], [-83.575321, 35.334228], [-83.575093, 35.334773], [-83.574815, 35.335275], [-83.574633, 35.335523], [-83.57431, 35.335837], [-83.573843, 35.336159], [-83.573681, 35.336235], [-83.573587, 35.336284], [-83.573185, 35.336435], [-83.572757, 35.336546], [-83.57163, 35.336759], [-83.56996, 35.337311], [-83.569672, 35.337364], [-83.569303, 35.337414], [-83.569038, 35.337432], [-83.568732, 35.337449], [-83.568413, 35.337441], [-83.568058, 35.33742], [-83.56721, 35.33729], [-83.567069, 35.337277], [-83.566969, 35.337263], [-83.566749, 35.337234], [-83.566136, 35.337199], [-83.565714, 35.337233], [-83.565198, 35.33735], [-83.563849, 35.337807], [-83.563085, 35.338281], [-83.562776, 35.338625], [-83.562492, 35.339031], [-83.562344, 35.339355], [-83.562275, 35.339569], [-83.562114, 35.340524], [-83.562027, 35.340851], [-83.561581, 35.341962], [-83.560735, 35.344002], [-83.560495, 35.344398], [-83.560236, 35.344726], [-83.560188, 35.344764], [-83.559896, 35.344993], [-83.559625, 35.345179], [-83.558813, 35.345629], [-83.558519, 35.345838], [-83.558421, 35.345929], [-83.558144, 35.346261], [-83.557395, 35.347371], [-83.555618, 35.349929], [-83.555304, 35.350301], [-83.555008, 35.350557], [-83.553857, 35.351274], [-83.553679, 35.351471], [-83.55355, 35.351743], [-83.553515, 35.351969], [-83.553539, 35.352163], [-83.553675, 35.352692], [-83.553719, 35.353007], [-83.553682, 35.353338], [-83.553518, 35.353848], [-83.552894, 35.355589], [-83.55278, 35.355915], [-83.551964, 35.357409], [-83.551842, 35.35767], [-83.551824, 35.357918], [-83.551842, 35.358097], [-83.551941, 35.358291], [-83.552062, 35.35846], [-83.552205, 35.358594], [-83.552489, 35.358761], [-83.553192, 35.359061], [-83.553489, 35.359243], [-83.553643, 35.359414], [-83.55375, 35.359601], [-83.553805, 35.359971], [-83.553762, 35.360189], [-83.553629, 35.360635], [-83.553601, 35.360836], [-83.553647, 35.361054], [-83.553717, 35.361261], [-83.553996, 35.361868], [-83.554054, 35.362265], [-83.554, 35.362585], [-83.553901, 35.36294], [-83.553754, 35.363452], [-83.553584, 35.36374], [-83.553353, 35.363982], [-83.553211, 35.364082], [-83.552841, 35.364262], [-83.552361, 35.364406], [-83.550602, 35.364615], [-83.550184, 35.364709], [-83.549981, 35.364775], [-83.549645, 35.364932], [-83.54933, 35.365152], [-83.549181, 35.365284], [-83.548905, 35.365593], [-83.548252, 35.366323], [-83.547952, 35.366603], [-83.547549, 35.366923], [-83.547204, 35.36713], [-83.546479, 35.367476], [-83.544446, 35.368399], [-83.542649, 35.369214], [-83.542147, 35.369521], [-83.541718, 35.369849], [-83.541348, 35.370208], [-83.541031, 35.370615], [-83.540795, 35.370969], [-83.540615, 35.371333], [-83.540125, 35.37232], [-83.539905, 35.372679], [-83.539637, 35.373003], [-83.539326, 35.373287], [-83.538988, 35.373532], [-83.538634, 35.373742], [-83.538237, 35.373913], [-83.537797, 35.374066], [-83.537335, 35.374158], [-83.536901, 35.374206], [-83.536504, 35.37421], [-83.536112, 35.374188], [-83.535699, 35.374123], [-83.534779, 35.373912], [-83.533855, 35.373694], [-83.533441, 35.373646], [-83.532996, 35.373628], [-83.53255, 35.37365], [-83.532035, 35.373725], [-83.531499, 35.373816], [-83.531059, 35.373935], [-83.53018, 35.374232], [-83.529782, 35.374411], [-83.529382, 35.374606], [-83.527771, 35.375513], [-83.527379, 35.375689], [-83.526982, 35.37582], [-83.526564, 35.375916], [-83.526177, 35.375964], [-83.525743, 35.375977], [-83.525335, 35.375938], [-83.524957, 35.375872], [-83.524589, 35.37578], [-83.524254, 35.375651], [-83.523946, 35.375511], [-83.522774, 35.374888], [-83.522528, 35.374779], [-83.522042, 35.374595], [-83.521795, 35.374459], [-83.521411, 35.37436], [-83.520699, 35.374225], [-83.5202, 35.374162], [-83.51991, 35.37414], [-83.519394, 35.374126], [-83.519159, 35.374132], [-83.518748, 35.37417], [-83.518261, 35.374241], [-83.517994, 35.374334], [-83.514671, 35.37482], [-83.514137, 35.374871], [-83.513644, 35.374873], [-83.513108, 35.374836], [-83.512916, 35.374735], [-83.51247, 35.374665], [-83.51186, 35.37451], [-83.511299, 35.374289], [-83.510358, 35.373808], [-83.509624, 35.373387], [-83.507702, 35.372369], [-83.507085, 35.372113], [-83.506589, 35.372012], [-83.506139, 35.371962], [-83.505481, 35.371999], [-83.50495, 35.372095], [-83.504502, 35.372259], [-83.504325, 35.37235], [-83.504195, 35.372419], [-83.504083, 35.372472], [-83.503444, 35.372861], [-83.502987, 35.373221], [-83.502392, 35.373733], [-83.501633, 35.374527], [-83.501114, 35.375268], [-83.499951, 35.377106], [-83.498683, 35.379123], [-83.497718, 35.380754], [-83.497274, 35.381455], [-83.496967, 35.38182], [-83.49679, 35.381992], [-83.496594, 35.382149], [-83.495507, 35.382957], [-83.494685, 35.383553], [-83.493756, 35.384212], [-83.493208, 35.384544], [-83.492774, 35.384786], [-83.492031, 35.385156], [-83.491615, 35.385329], [-83.491517, 35.385366], [-83.491168, 35.385507], [-83.490579, 35.385715], [-83.490188, 35.385836], [-83.488977, 35.386144], [-83.487939, 35.38638], [-83.486766, 35.386652], [-83.485448, 35.38696], [-83.484626, 35.387179], [-83.484212, 35.387346], [-83.484006, 35.387429], [-83.483626, 35.387654], [-83.483271, 35.387935], [-83.483004, 35.388204], [-83.482776, 35.388473], [-83.482223, 35.389227], [-83.481692, 35.389831], [-83.481431, 35.390067], [-83.481153, 35.390263], [-83.480712, 35.390522], [-83.479728, 35.391017], [-83.479146, 35.391337], [-83.478723, 35.391557], [-83.478636, 35.391603], [-83.477568, 35.3922], [-83.476269, 35.392967], [-83.475763, 35.39342], [-83.474751, 35.394914], [-83.473709, 35.396628], [-83.472362, 35.39879], [-83.470313, 35.40218], [-83.470041, 35.402579], [-83.469736, 35.402896], [-83.469407, 35.403164], [-83.469047, 35.403376], [-83.468635, 35.403594], [-83.468191, 35.403766], [-83.467511, 35.403984], [-83.464372, 35.404916], [-83.46319, 35.405305], [-83.462242, 35.405704], [-83.460992, 35.406262], [-83.458759, 35.407293], [-83.458033, 35.407667], [-83.457639, 35.40791], [-83.457234, 35.408225], [-83.456982, 35.408484], [-83.45671, 35.408823], [-83.455399, 35.41083], [-83.455181, 35.411085], [-83.454848, 35.411384], [-83.454413, 35.411702], [-83.454003, 35.411927], [-83.45348, 35.412123], [-83.45283, 35.41231], [-83.450119, 35.412964], [-83.449423, 35.413185], [-83.448816, 35.413425], [-83.448374, 35.413621], [-83.447852, 35.413892], [-83.447657, 35.414005], [-83.447308, 35.414216], [-83.446853, 35.414527], [-83.443726, 35.416726], [-83.44089, 35.418736], [-83.440327, 35.419184], [-83.439197, 35.419983], [-83.438305, 35.420538], [-83.438072, 35.420727], [-83.437968, 35.420894], [-83.437898, 35.421107], [-83.438349, 35.421096], [-83.438973, 35.421129], [-83.439258, 35.421135], [-83.439452, 35.421123], [-83.439832, 35.421055], [-83.440491, 35.42085], [-83.441054, 35.420658], [-83.441277, 35.420606], [-83.441655, 35.420555], [-83.442002, 35.420554], [-83.442256, 35.420575], [-83.442465, 35.420614], [-83.442684, 35.420664], [-83.44285, 35.420719], [-83.443192, 35.420883], [-83.443518, 35.421103], [-83.443802, 35.421347], [-83.444622, 35.42212], [-83.444778, 35.422244], [-83.445686, 35.4231], [-83.445785, 35.423202], [-83.445943, 35.423371], [-83.445985, 35.423422], [-83.446069, 35.423524], [-83.446184, 35.423671], [-83.446347, 35.423907], [-83.446951, 35.424957], [-83.447148, 35.425279], [-83.447293, 35.425476], [-83.447386, 35.425576], [-83.447487, 35.425669], [-83.447639, 35.425793], [-83.447863, 35.425934], [-83.447622, 35.426068], [-83.447389, 35.426198], [-83.447268, 35.426264], [-83.446957, 35.426434], [-83.446451, 35.426716], [-83.44599, 35.426967], [-83.44572, 35.427122], [-83.445147, 35.427456], [-83.445307, 35.427654], [-83.445512, 35.42791], [-83.445612, 35.428034], [-83.44565, 35.428081], [-83.44606, 35.428633], [-83.446191, 35.42885], [-83.446735, 35.429763], [-83.447012, 35.430243], [-83.447236, 35.430619], [-83.447402, 35.430883], [-83.447419, 35.430915]], "type": "LineString"}}], "metadata": {"attribution": "openrouteservice.org | OpenStreetMap contributors", "service": "routing", "timestamp": 1769468440769, "query": {"coordinates": [[-83.591901, 35.332246], [-83.4473809, 35.4309291]], "profile": "driving-car", "profileName": "driving-car", "format": "geojson"}, "engine": {"version": "9.5.0", "build_date": "2025-10-31T12:33:09Z", "graph_date": "2026-01-25T11:10:32Z", "osm_date": "2026-01-19T01:00:01Z"}}}