{"type": "FeatureCollection", "bbox": [-83.807385, 35.248322, -83.590753, 35.335757], "features": [{"bbox": [-83.807385, 35.248322, -83.590753, 35.335757], "type": "Feature", "properties": {"segments": [{"distance": 34895.8, "duration": 1901.1, "steps": [{"distance": 30.0, "duration": 7.2, "type": 11, "instruction": "Head northeast", "name": "-", "way_points": [0, 3]}, {"distance": 62.8, "duration": 15.1, "type": 1, "instruction": "Turn right", "name": "-", "way_points": [3, 6]}, {"distance": 71.8, "duration": 17.2, "type": 1, "instruction": "Turn right onto State Road 1180", "name": "State Road 1180", "way_points": [6, 9]}, {"distance": 16026.2, "duration": 749.6, "type": 1, "instruction": "Turn right onto US 19, US 74", "name": "US 19, US 74", "way_points": [9, 290]}, {"distance": 18256.0, "duration": 1004.2, "type": 1, "instruction": "Turn right onto US 129, US 129", "name": "US 129, US 129", "way_points": [290, 596]}, {"distance": 448.9, "duration": 107.7, "type": 0, "instruction": "Turn left onto East Main Street", "name": "East Main Street", "way_points": [596, 610]}, {"distance": 0.0, "duration": 0.0, "type": 10, "instruction": "Arrive at East Main Street, on the right", "name": "-", "way_points": [610, 610]}]}], "way_points": [0, 610], "summary": {"distance": 34895.8, "duration": 1901.1}}, "geometry": {"coordinates": [[-83.591887, 35.33222], [-83.591843, 35.332236], [-83.591728, 35.332401], [-83.591751, 35.332437], [-83.591593, 35.332618], [-83.591446, 35.332725], [-83.591261, 35.332826], [-83.591203, 35.332754], [-83.590843, 35.332418], [-83.590753, 35.332332], [-83.59091, 35.332193], [-83.591006, 35.332058], [-83.591084, 35.331906], [-83.591236, 35.331469], [-83.591294, 35.331384], [-83.591338, 35.331332], [-83.591415, 35.331259], [-83.591548, 35.331173], [-83.591746, 35.331116], [-83.591872, 35.331106], [-83.591936, 35.331105], [-83.592152, 35.331116], [-83.593632, 35.331241], [-83.594016, 35.331327], [-83.594344, 35.331451], [-83.594613, 35.331587], [-83.594889, 35.33175], [-83.595315, 35.332039], [-83.595803, 35.332436], [-83.596168, 35.332791], [-83.596344, 35.332927], [-83.596534, 35.333036], [-83.596805, 35.333125], [-83.597123, 35.333152], [-83.597237, 35.333149], [-83.597444, 35.333116], [-83.597572, 35.333079], [-83.597782, 35.332987], [-83.597948, 35.332878], [-83.598146, 35.332688], [-83.59842, 35.33238], [-83.598602, 35.332142], [-83.598971, 35.331474], [-83.599082, 35.331336], [-83.599155, 35.331275], [-83.599341, 35.331161], [-83.599449, 35.331119], [-83.599699, 35.331067], [-83.59984, 35.331064], [-83.600322, 35.331099], [-83.601101, 35.331176], [-83.601352, 35.331223], [-83.601578, 35.331294], [-83.601759, 35.331374], [-83.602481, 35.331733], [-83.602781, 35.331826], [-83.603007, 35.331851], [-83.603638, 35.331874], [-83.604101, 35.331833], [-83.604348, 35.33178], [-83.604927, 35.331619], [-83.605687, 35.33136], [-83.605866, 35.331314], [-83.606009, 35.331297], [-83.606225, 35.3313], [-83.606417, 35.331333], [-83.608354, 35.331998], [-83.610376, 35.33267], [-83.611548, 35.333096], [-83.611979, 35.333297], [-83.613388, 35.334111], [-83.613738, 35.334297], [-83.614069, 35.33446], [-83.614293, 35.334549], [-83.615095, 35.33482], [-83.617385, 35.335542], [-83.617651, 35.335619], [-83.617861, 35.335662], [-83.618149, 35.335696], [-83.619144, 35.335757], [-83.619715, 35.335731], [-83.620312, 35.335655], [-83.621384, 35.335438], [-83.621786, 35.335323], [-83.622855, 35.334963], [-83.623028, 35.334885], [-83.623712, 35.334485], [-83.624294, 35.334227], [-83.625353, 35.333885], [-83.625894, 35.333654], [-83.627262, 35.332945], [-83.627431, 35.332814], [-83.627553, 35.332668], [-83.627639, 35.332496], [-83.627665, 35.332374], [-83.627679, 35.332164], [-83.627631, 35.331415], [-83.627543, 35.330649], [-83.627537, 35.330142], [-83.627584, 35.329817], [-83.627636, 35.329683], [-83.627716, 35.329541], [-83.627796, 35.329431], [-83.628015, 35.329224], [-83.628497, 35.328922], [-83.629123, 35.328574], [-83.629814, 35.328258], [-83.630338, 35.327941], [-83.630641, 35.327687], [-83.630788, 35.32749], [-83.63086, 35.327321], [-83.630893, 35.327119], [-83.630865, 35.326862], [-83.630726, 35.326545], [-83.630435, 35.325984], [-83.63037, 35.325809], [-83.630306, 35.325541], [-83.630282, 35.325315], [-83.630293, 35.324983], [-83.630391, 35.324477], [-83.630534, 35.3241], [-83.630635, 35.32394], [-83.631011, 35.323379], [-83.631591, 35.322446], [-83.631701, 35.322305], [-83.63183, 35.322191], [-83.632118, 35.322025], [-83.633164, 35.321587], [-83.633605, 35.321421], [-83.634219, 35.321221], [-83.634478, 35.321111], [-83.634718, 35.320985], [-83.635133, 35.320725], [-83.635401, 35.320509], [-83.635558, 35.320345], [-83.63573, 35.320115], [-83.635826, 35.319946], [-83.635919, 35.319745], [-83.63598, 35.319559], [-83.636023, 35.31921], [-83.636006, 35.318614], [-83.636031, 35.318284], [-83.636184, 35.317695], [-83.636277, 35.31746], [-83.636348, 35.317338], [-83.63643, 35.317233], [-83.63659, 35.317083], [-83.638337, 35.315606], [-83.638599, 35.315315], [-83.639529, 35.313768], [-83.639706, 35.313398], [-83.639859, 35.312973], [-83.639963, 35.312779], [-83.640059, 35.312644], [-83.640206, 35.312479], [-83.640903, 35.311868], [-83.641982, 35.311129], [-83.642477, 35.310689], [-83.642682, 35.310531], [-83.643104, 35.310271], [-83.643427, 35.310041], [-83.643661, 35.309801], [-83.644358, 35.308845], [-83.644494, 35.308686], [-83.644714, 35.308479], [-83.64488, 35.308344], [-83.645801, 35.307696], [-83.646588, 35.307073], [-83.647134, 35.306731], [-83.649137, 35.305639], [-83.649786, 35.305334], [-83.65103, 35.304802], [-83.651327, 35.304643], [-83.651695, 35.304393], [-83.652012, 35.304095], [-83.652251, 35.303795], [-83.652935, 35.302675], [-83.653062, 35.302467], [-83.653244, 35.302216], [-83.653457, 35.301976], [-83.653896, 35.301539], [-83.654125, 35.301309], [-83.654458, 35.300951], [-83.654627, 35.300724], [-83.655261, 35.29967], [-83.65556, 35.299226], [-83.655851, 35.298919], [-83.657822, 35.297246], [-83.657972, 35.297104], [-83.658668, 35.296361], [-83.658876, 35.296167], [-83.659041, 35.296038], [-83.659222, 35.295922], [-83.660049, 35.295555], [-83.660413, 35.295376], [-83.660856, 35.295077], [-83.66106, 35.294896], [-83.66121, 35.294732], [-83.66139, 35.294495], [-83.661469, 35.294371], [-83.661625, 35.294041], [-83.661747, 35.293629], [-83.661999, 35.292497], [-83.662063, 35.292269], [-83.662161, 35.29203], [-83.662299, 35.291803], [-83.662467, 35.291609], [-83.662632, 35.291457], [-83.664181, 35.29029], [-83.664653, 35.289926], [-83.665041, 35.289561], [-83.66656, 35.287852], [-83.666802, 35.287597], [-83.667083, 35.287356], [-83.667476, 35.287064], [-83.670137, 35.285118], [-83.674262, 35.282083], [-83.675157, 35.281339], [-83.675535, 35.281066], [-83.676022, 35.280796], [-83.676349, 35.28066], [-83.67718, 35.280369], [-83.678241, 35.279887], [-83.678749, 35.27961], [-83.679203, 35.279286], [-83.681847, 35.277348], [-83.681999, 35.277232], [-83.682126, 35.277073], [-83.682209, 35.276895], [-83.68225, 35.276658], [-83.682279, 35.274687], [-83.68229, 35.274084], [-83.682344, 35.273545], [-83.682387, 35.273318], [-83.682543, 35.272962], [-83.682765, 35.272624], [-83.683017, 35.272333], [-83.686856, 35.268601], [-83.687239, 35.268211], [-83.687561, 35.267804], [-83.687767, 35.267486], [-83.687971, 35.267116], [-83.688051, 35.266915], [-83.688381, 35.265853], [-83.688553, 35.265296], [-83.688668, 35.264994], [-83.688837, 35.264663], [-83.689067, 35.26434], [-83.689347, 35.264024], [-83.689712, 35.263704], [-83.690747, 35.262995], [-83.691004, 35.262791], [-83.69131, 35.26243], [-83.691429, 35.26221], [-83.691544, 35.261946], [-83.691597, 35.261742], [-83.691612, 35.261519], [-83.691595, 35.260597], [-83.691662, 35.260237], [-83.691742, 35.260021], [-83.691831, 35.259814], [-83.691941, 35.259629], [-83.692933, 35.25806], [-83.694261, 35.256043], [-83.69447, 35.255772], [-83.694695, 35.255535], [-83.694993, 35.255274], [-83.696753, 35.253793], [-83.696929, 35.25361], [-83.697096, 35.253402], [-83.697471, 35.252856], [-83.697598, 35.252712], [-83.697785, 35.252583], [-83.697982, 35.252492], [-83.698201, 35.252425], [-83.698815, 35.252315], [-83.699156, 35.252232], [-83.699378, 35.252132], [-83.699692, 35.251956], [-83.699866, 35.251814], [-83.700038, 35.251628], [-83.700165, 35.251441], [-83.700556, 35.25064], [-83.700647, 35.250491], [-83.700837, 35.250263], [-83.70102, 35.250083], [-83.701281, 35.249897], [-83.701505, 35.249707], [-83.70205, 35.249027], [-83.702491, 35.248414], [-83.702557, 35.248322], [-83.702626, 35.248349], [-83.702773, 35.248441], [-83.702889, 35.248559], [-83.70291, 35.248598], [-83.702917, 35.248622], [-83.70293, 35.248747], [-83.702877, 35.24889], [-83.702483, 35.249333], [-83.702273, 35.249692], [-83.701795, 35.250918], [-83.701733, 35.251155], [-83.701722, 35.25135], [-83.701744, 35.251506], [-83.701814, 35.251679], [-83.701937, 35.251843], [-83.702012, 35.251911], [-83.70213, 35.252014], [-83.702275, 35.25211], [-83.702992, 35.252529], [-83.703184, 35.25267], [-83.703318, 35.252801], [-83.703391, 35.252914], [-83.703442, 35.253035], [-83.703477, 35.25328], [-83.703446, 35.253465], [-83.703406, 35.253558], [-83.703271, 35.253732], [-83.703149, 35.253846], [-83.702689, 35.254186], [-83.702473, 35.254404], [-83.702407, 35.254514], [-83.70234, 35.25473], [-83.702312, 35.25503], [-83.70237, 35.255566], [-83.702369, 35.255831], [-83.702343, 35.255928], [-83.70222, 35.25611], [-83.702136, 35.256195], [-83.702008, 35.25629], [-83.701864, 35.256361], [-83.701672, 35.256422], [-83.701505, 35.256452], [-83.701258, 35.256473], [-83.700888, 35.256489], [-83.700672, 35.256519], [-83.700524, 35.256559], [-83.700264, 35.256678], [-83.69998, 35.256912], [-83.698699, 35.258456], [-83.69779, 35.25965], [-83.695131, 35.262981], [-83.69491, 35.263313], [-83.694828, 35.263493], [-83.694776, 35.263751], [-83.694764, 35.26391], [-83.694846, 35.264683], [-83.694822, 35.264825], [-83.694778, 35.264956], [-83.694699, 35.265077], [-83.694507, 35.26527], [-83.693689, 35.265815], [-83.693561, 35.265918], [-83.693377, 35.266142], [-83.693276, 35.266364], [-83.693115, 35.267647], [-83.693076, 35.267901], [-83.693023, 35.268067], [-83.692869, 35.268317], [-83.692737, 35.268457], [-83.692411, 35.268714], [-83.692213, 35.268923], [-83.692122, 35.269062], [-83.691895, 35.269557], [-83.691752, 35.269763], [-83.691278, 35.270139], [-83.691134, 35.27029], [-83.691021, 35.27048], [-83.69095, 35.27079], [-83.690887, 35.271545], [-83.690852, 35.27217], [-83.690874, 35.272391], [-83.690918, 35.272539], [-83.691053, 35.272776], [-83.691301, 35.272989], [-83.691444, 35.273069], [-83.69173, 35.273138], [-83.692199, 35.273121], [-83.69255, 35.273075], [-83.693267, 35.272853], [-83.693461, 35.272852], [-83.693837, 35.27273], [-83.694591, 35.272524], [-83.695538, 35.272173], [-83.696231, 35.271813], [-83.696522, 35.271594], [-83.696667, 35.271462], [-83.697024, 35.271078], [-83.697113, 35.270907], [-83.697453, 35.270476], [-83.697711, 35.270221], [-83.69802, 35.270025], [-83.698193, 35.269935], [-83.698375, 35.269863], [-83.698765, 35.269763], [-83.703258, 35.269116], [-83.703483, 35.269059], [-83.704358, 35.268974], [-83.710784, 35.268067], [-83.711651, 35.268], [-83.712494, 35.268001], [-83.712926, 35.268017], [-83.713709, 35.268326], [-83.714151, 35.268097], [-83.714395, 35.268118], [-83.715258, 35.268175], [-83.717694, 35.268342], [-83.718299, 35.268399], [-83.718691, 35.268467], [-83.719145, 35.268582], [-83.719425, 35.268672], [-83.720052, 35.268932], [-83.720528, 35.269196], [-83.722541, 35.27072], [-83.722818, 35.270941], [-83.723323, 35.271411], [-83.723754, 35.271754], [-83.724379, 35.272187], [-83.724545, 35.272262], [-83.724706, 35.272399], [-83.725228, 35.272676], [-83.726299, 35.273181], [-83.726481, 35.27324], [-83.726657, 35.27333], [-83.726994, 35.273564], [-83.727148, 35.273685], [-83.727419, 35.273947], [-83.727643, 35.274232], [-83.727943, 35.274669], [-83.728169, 35.274951], [-83.728301, 35.275083], [-83.728611, 35.2753], [-83.728975, 35.275452], [-83.729362, 35.275542], [-83.729946, 35.275489], [-83.730202, 35.275392], [-83.730302, 35.275343], [-83.730611, 35.275142], [-83.730733, 35.275025], [-83.73084, 35.274892], [-83.730928, 35.274747], [-83.731047, 35.274422], [-83.731078, 35.274077], [-83.731015, 35.273567], [-83.731018, 35.273387], [-83.730935, 35.272356], [-83.730874, 35.271855], [-83.730863, 35.271684], [-83.730884, 35.271336], [-83.730945, 35.270993], [-83.731074, 35.270667], [-83.731265, 35.270363], [-83.731521, 35.270082], [-83.731799, 35.269866], [-83.731962, 35.269766], [-83.73231, 35.269596], [-83.732691, 35.26948], [-83.733295, 35.269397], [-83.733717, 35.269408], [-83.734155, 35.269469], [-83.734485, 35.269577], [-83.734759, 35.269697], [-83.73501, 35.26983], [-83.735159, 35.269933], [-83.735419, 35.270166], [-83.735643, 35.270418], [-83.735934, 35.270815], [-83.736444, 35.271575], [-83.736737, 35.271965], [-83.736957, 35.272212], [-83.737202, 35.272439], [-83.737601, 35.272734], [-83.738012, 35.272978], [-83.738306, 35.273117], [-83.739922, 35.273509], [-83.740976, 35.273617], [-83.742012, 35.273639], [-83.742618, 35.273632], [-83.74301, 35.273619], [-83.743817, 35.273542], [-83.744953, 35.273368], [-83.745178, 35.273319], [-83.745614, 35.273165], [-83.746109, 35.27292], [-83.746763, 35.272509], [-83.748198, 35.271514], [-83.749094, 35.270923], [-83.749295, 35.270781], [-83.750009, 35.27028], [-83.750199, 35.270174], [-83.7506, 35.269996], [-83.751025, 35.269876], [-83.751462, 35.269819], [-83.7519, 35.269819], [-83.752117, 35.269833], [-83.75232, 35.269868], [-83.752701, 35.269972], [-83.753081, 35.270118], [-83.753415, 35.270304], [-83.753715, 35.270538], [-83.753983, 35.270815], [-83.754194, 35.271128], [-83.75427, 35.271297], [-83.754659, 35.272543], [-83.754732, 35.272719], [-83.754911, 35.273062], [-83.755147, 35.273387], [-83.755283, 35.273532], [-83.755587, 35.273795], [-83.75593, 35.274014], [-83.756314, 35.274209], [-83.757512, 35.274842], [-83.758167, 35.275214], [-83.758452, 35.275322], [-83.760079, 35.276141], [-83.760832, 35.276546], [-83.761269, 35.276836], [-83.761654, 35.277276], [-83.761875, 35.277562], [-83.764361, 35.28106], [-83.764569, 35.281413], [-83.765085, 35.282102], [-83.766139, 35.283604], [-83.76629, 35.283782], [-83.766402, 35.283952], [-83.766509, 35.284125], [-83.766576, 35.284309], [-83.766812, 35.285044], [-83.766977, 35.286003], [-83.767053, 35.286378], [-83.767109, 35.286562], [-83.767188, 35.28674], [-83.767386, 35.287087], [-83.767695, 35.287352], [-83.767827, 35.28744], [-83.768263, 35.287683], [-83.772262, 35.289703], [-83.772965, 35.290045], [-83.773527, 35.290282], [-83.774048, 35.290467], [-83.774514, 35.290605], [-83.775483, 35.290902], [-83.775794, 35.291006], [-83.778187, 35.291712], [-83.778703, 35.291879], [-83.779904, 35.292237], [-83.783928, 35.293432], [-83.784403, 35.293577], [-83.787518, 35.294495], [-83.790091, 35.295268], [-83.790879, 35.295524], [-83.791251, 35.295673], [-83.791774, 35.295929], [-83.792099, 35.296119], [-83.792522, 35.29641], [-83.792829, 35.296652], [-83.793153, 35.296947], [-83.79355, 35.297378], [-83.793769, 35.297662], [-83.793968, 35.297972], [-83.794142, 35.298303], [-83.794619, 35.299323], [-83.795373, 35.301045], [-83.795488, 35.301397], [-83.795567, 35.301752], [-83.795613, 35.30229], [-83.795602, 35.302653], [-83.795564, 35.303], [-83.795496, 35.303339], [-83.794952, 35.305418], [-83.794811, 35.306079], [-83.794614, 35.307319], [-83.794597, 35.307484], [-83.794593, 35.3079], [-83.794671, 35.308518], [-83.794726, 35.308815], [-83.794911, 35.309551], [-83.795002, 35.309837], [-83.795109, 35.310115], [-83.795305, 35.310534], [-83.79563, 35.311104], [-83.795912, 35.311532], [-83.796119, 35.311808], [-83.79644, 35.312175], [-83.79681, 35.312564], [-83.797853, 35.313548], [-83.799791, 35.315359], [-83.800273, 35.315846], [-83.800596, 35.316283], [-83.800873, 35.316788], [-83.801366, 35.317761], [-83.801812, 35.318631], [-83.80235, 35.319712], [-83.802639, 35.320416], [-83.802704, 35.320633], [-83.80275, 35.320911], [-83.80281, 35.321682], [-83.803052, 35.321726], [-83.803116, 35.321751], [-83.803528, 35.322036], [-83.803922, 35.322265], [-83.804145, 35.32235], [-83.80444, 35.322437], [-83.805287, 35.322635], [-83.805852, 35.322814], [-83.806192, 35.322873], [-83.806412, 35.32288], [-83.806855, 35.322845], [-83.807074, 35.322811], [-83.807243, 35.32278], [-83.807385, 35.322766]], "type": "LineString"}}], "metadata": {"attribution": "openrouteservice.org | OpenStreetMap contributors", "service": "routing", "timestamp": 1769468440909, "query": {"coordinates": [[-83.591901, 35.332246], [-83.807399, 35.322866]], "profile": "driving-car", "profileName": "driving-car", "format": "geojson"}, "engine": {"version": "9.5.0", "build_date": "2025-10-31T12:33:09Z", "graph_date": "2026-01-25T11:10:32Z", "osm_date": "2026-01-19T01:00:01Z"}}}