{"type": "FeatureCollection", "bbox": [-83.202531, 35.780096, -83.101683, 35.968283], "features": [{"bbox": [-83.202531, 35.780096, -83.101683, 35.968283], "type": "Feature", "properties": {"segments": [{"distance": 28995.4, "duration": 1443.1, "steps": [{"distance": 1135.4, "duration": 263.7, "type": 11, "instruction": "Head southeast on Green Corner Road", "name": "Green Corner Road", "way_points": [0, 26]}, {"distance": 277.9, "duration": 30.0, "type": 1, "instruction": "Turn right", "name": "-", "way_points": [26, 33]}, {"distance": 24300.2, "duration": 996.7, "type": 6, "instruction": "Continue straight onto I 40", "name": "I 40", "way_points": [33, 219]}, {"distance": 421.2, "duration": 30.3, "type": 13, "instruction": "Keep right", "name": "-", "way_points": [219, 224]}, {"distance": 38.0, "duration": 2.7, "type": 12, "instruction": "Keep left", "name": "-", "way_points": [224, 227]}, {"distance": 2385.5, "duration": 101.0, "type": 1, "instruction": "Turn right onto Cosby Highway, US 321, SR 32", "name": "Cosby Highway, US 321, SR 32", "way_points": [227, 275]}, {"distance": 437.2, "duration": 18.6, "type": 1, "instruction": "Turn right onto East Main Street", "name": "East Main Street", "way_points": [275, 281]}, {"distance": 0.0, "duration": 0.0, "type": 10, "instruction": "Arrive at East Main Street, straight ahead", "name": "-", "way_points": [281, 281]}]}], "way_points": [0, 281], "summary": {"distance": 28995.4, "duration": 1443.1}}, "geometry": {"coordinates": [[-83.10217, 35.783103], [-83.102168, 35.7831], [-83.101713, 35.782391], [-83.101683, 35.782238], [-83.101692, 35.78215], [-83.101826, 35.781963], [-83.101956, 35.781873], [-83.102361, 35.781655], [-83.103179, 35.781146], [-83.104648, 35.78031], [-83.104922, 35.780177], [-83.105206, 35.780096], [-83.105489, 35.78011], [-83.105765, 35.780196], [-83.107096, 35.780864], [-83.107623, 35.781308], [-83.108441, 35.781764], [-83.10877, 35.782016], [-83.109055, 35.782328], [-83.109286, 35.782923], [-83.109276, 35.783306], [-83.109301, 35.783382], [-83.109345, 35.78344], [-83.109492, 35.783545], [-83.10965, 35.783609], [-83.109792, 35.783626], [-83.109906, 35.783631], [-83.109968, 35.783692], [-83.110041, 35.78381], [-83.110158, 35.784041], [-83.110573, 35.784646], [-83.111154, 35.785268], [-83.111482, 35.785555], [-83.111651, 35.785662], [-83.1118, 35.785802], [-83.112107, 35.78604], [-83.112612, 35.786356], [-83.114174, 35.78718], [-83.11456, 35.78744], [-83.114835, 35.787717], [-83.115065, 35.78803], [-83.115181, 35.788224], [-83.115247, 35.788469], [-83.115278, 35.788656], [-83.115292, 35.788951], [-83.115216, 35.789332], [-83.115101, 35.789638], [-83.114395, 35.790757], [-83.114191, 35.791124], [-83.114032, 35.791506], [-83.113885, 35.791991], [-83.113823, 35.792348], [-83.113788, 35.792772], [-83.113823, 35.793392], [-83.113894, 35.793862], [-83.114116, 35.794478], [-83.114324, 35.794924], [-83.114724, 35.795482], [-83.114985, 35.795809], [-83.115496, 35.79628], [-83.116236, 35.796788], [-83.116547, 35.796968], [-83.117146, 35.797223], [-83.11786, 35.797457], [-83.118763, 35.797638], [-83.119802, 35.797691], [-83.12042, 35.797653], [-83.121127, 35.797535], [-83.121604, 35.797425], [-83.122077, 35.797277], [-83.122563, 35.79708], [-83.12495, 35.795975], [-83.125675, 35.79574], [-83.126307, 35.795637], [-83.126878, 35.795614], [-83.127552, 35.795668], [-83.128142, 35.795781], [-83.128657, 35.795964], [-83.1292, 35.796248], [-83.129593, 35.796525], [-83.129981, 35.796867], [-83.130229, 35.797163], [-83.130496, 35.797588], [-83.130772, 35.798268], [-83.13109, 35.799444], [-83.131277, 35.800033], [-83.131399, 35.800329], [-83.131657, 35.800788], [-83.131947, 35.80119], [-83.13219, 35.801471], [-83.132546, 35.801809], [-83.136042, 35.804644], [-83.136332, 35.804903], [-83.136688, 35.805233], [-83.137914, 35.806508], [-83.13811, 35.806766], [-83.138901, 35.807427], [-83.139435, 35.80781], [-83.141789, 35.809423], [-83.14206, 35.809685], [-83.142252, 35.809901], [-83.142411, 35.810133], [-83.142711, 35.810698], [-83.142781, 35.811104], [-83.14282, 35.814164], [-83.142856, 35.816201], [-83.142893, 35.816573], [-83.142968, 35.816911], [-83.143119, 35.817481], [-83.143421, 35.818021], [-83.143947, 35.81861], [-83.144204, 35.818873], [-83.144681, 35.819233], [-83.145097, 35.819487], [-83.145533, 35.819726], [-83.146047, 35.81992], [-83.147044, 35.820182], [-83.15142, 35.821222], [-83.152099, 35.82137], [-83.152796, 35.821464], [-83.153432, 35.821453], [-83.154003, 35.821347], [-83.154462, 35.821195], [-83.154799, 35.821051], [-83.155309, 35.820751], [-83.161189, 35.816858], [-83.162731, 35.815906], [-83.16414, 35.815093], [-83.164926, 35.814721], [-83.165811, 35.814349], [-83.166897, 35.813947], [-83.167631, 35.813711], [-83.169241, 35.813286], [-83.173921, 35.812212], [-83.174347, 35.812163], [-83.17475, 35.812137], [-83.175063, 35.812171], [-83.175428, 35.812243], [-83.175765, 35.812353], [-83.176177, 35.812539], [-83.176528, 35.812774], [-83.176907, 35.813119], [-83.177427, 35.813947], [-83.178311, 35.81537], [-83.179303, 35.816865], [-83.180665, 35.818998], [-83.181235, 35.819949], [-83.182013, 35.821146], [-83.182474, 35.82219], [-83.182912, 35.823286], [-83.183211, 35.824424], [-83.183291, 35.82494], [-83.18337, 35.825449], [-83.183417, 35.826644], [-83.183366, 35.827813], [-83.183305, 35.828454], [-83.183206, 35.829198], [-83.183052, 35.829979], [-83.182825, 35.83072], [-83.182584, 35.831706], [-83.181947, 35.833343], [-83.181352, 35.834698], [-83.181114, 35.835384], [-83.180927, 35.836109], [-83.180796, 35.836886], [-83.180744, 35.837421], [-83.180706, 35.838248], [-83.18081, 35.839281], [-83.181278, 35.841276], [-83.18153, 35.842293], [-83.181924, 35.843727], [-83.182012, 35.844083], [-83.182518, 35.84606], [-83.182696, 35.846898], [-83.182911, 35.848245], [-83.183042, 35.849874], [-83.183544, 35.855364], [-83.183938, 35.860125], [-83.18484, 35.870505], [-83.185062, 35.872343], [-83.185235, 35.87335], [-83.18575, 35.875766], [-83.186387, 35.878653], [-83.18649, 35.879153], [-83.187244, 35.882631], [-83.187388, 35.883422], [-83.187491, 35.884549], [-83.187502, 35.885414], [-83.18744, 35.886526], [-83.187297, 35.887453], [-83.187161, 35.888143], [-83.186703, 35.889735], [-83.186524, 35.890285], [-83.186359, 35.890821], [-83.186178, 35.891408], [-83.185906, 35.892269], [-83.18448, 35.896909], [-83.183934, 35.898777], [-83.183705, 35.900116], [-83.183675, 35.901637], [-83.183769, 35.902613], [-83.183899, 35.903328], [-83.184183, 35.904485], [-83.188802, 35.922483], [-83.189122, 35.923557], [-83.189581, 35.924817], [-83.190039, 35.925996], [-83.190277, 35.926545], [-83.190416, 35.926882], [-83.190783, 35.927708], [-83.191422, 35.928945], [-83.192122, 35.930212], [-83.192646, 35.931115], [-83.193488, 35.932404], [-83.194597, 35.93397], [-83.198515, 35.938885], [-83.199363, 35.940105], [-83.19999, 35.941074], [-83.200468, 35.942009], [-83.201753, 35.944871], [-83.202246, 35.946179], [-83.202365, 35.946704], [-83.202441, 35.947425], [-83.202428, 35.948065], [-83.20233, 35.948582], [-83.202352, 35.948696], [-83.202407, 35.948784], [-83.202531, 35.948862], [-83.202217, 35.949188], [-83.201986, 35.949448], [-83.201744, 35.949688], [-83.20169, 35.949834], [-83.201381, 35.950149], [-83.201035, 35.9505], [-83.200851, 35.950725], [-83.200723, 35.950892], [-83.200575, 35.951089], [-83.20048, 35.951216], [-83.200437, 35.951274], [-83.200376, 35.951356], [-83.200204, 35.95158], [-83.200033, 35.951803], [-83.199689, 35.952297], [-83.199513, 35.952549], [-83.199023, 35.953237], [-83.198466, 35.95402], [-83.198223, 35.954373], [-83.19811, 35.954537], [-83.197875, 35.95487], [-83.197652, 35.955173], [-83.197453, 35.955421], [-83.19728, 35.955616], [-83.197163, 35.955741], [-83.197022, 35.955887], [-83.196582, 35.956335], [-83.196431, 35.956502], [-83.196339, 35.956634], [-83.196255, 35.956804], [-83.196137, 35.957168], [-83.196059, 35.957494], [-83.195957, 35.957878], [-83.195512, 35.959611], [-83.195057, 35.961408], [-83.194923, 35.961909], [-83.194677, 35.962862], [-83.194474, 35.963373], [-83.194331, 35.963654], [-83.194123, 35.96402], [-83.194, 35.964219], [-83.193508, 35.965034], [-83.19324, 35.96559], [-83.19302, 35.966201], [-83.192639, 35.967252], [-83.192468, 35.967535], [-83.192225, 35.96809], [-83.192165, 35.968283], [-83.19115, 35.968102], [-83.190124, 35.96799], [-83.1894, 35.967923], [-83.188308, 35.967837], [-83.187374, 35.967767], [-83.187354, 35.967766]], "type": "LineString"}}], "metadata": {"attribution": "openrouteservice.org | OpenStreetMap contributors", "service": "routing", "timestamp": 1769468441060, "query": {"coordinates": [[-83.102272, 35.783068], [-83.1873541, 35.967766499999996]], "profile": "driving-car", "profileName": "driving-car", "format": "geojson"}, "engine": {"version": "9.5.0", "build_date": "2025-10-31T12:33:09Z", "graph_date": "2026-01-25T11:10:32Z", "osm_date": "2026-01-19T01:00:01Z"}}}