{"type": "FeatureCollection", "bbox": [-82.072825, 36.177477, -82.01167, 36.199828], "features": [{"bbox": [-82.072825, 36.177477, -82.01167, 36.199828], "type": "Feature", "properties": {"segments": [{"distance": 6138.1, "duration": 314.1, "steps": [{"distance": 6138.1, "duration": 314.1, "type": 11, "instruction": "Head northwest on US 19E", "name": "US 19E", "way_points": [0, 65]}, {"distance": 0.0, "duration": 0.0, "type": 10, "instruction": "Arrive at US 19E, straight ahead", "name": "-", "way_points": [65, 65]}]}], "way_points": [0, 65], "summary": {"distance": 6138.1, "duration": 314.1}}, "geometry": {"coordinates": [[-82.01167, 36.177477], [-82.011676, 36.177482], [-82.012292, 36.177954], [-82.012594, 36.178135], [-82.013129, 36.178401], [-82.013784, 36.178567], [-82.014767, 36.178683], [-82.016464, 36.17876], [-82.017279, 36.178807], [-82.018045, 36.178927], [-82.018607, 36.179043], [-82.019244, 36.179239], [-82.019679, 36.179404], [-82.020109, 36.179592], [-82.020726, 36.179922], [-82.021307, 36.180283], [-82.022901, 36.181371], [-82.024206, 36.182288], [-82.024726, 36.182637], [-82.026176, 36.183667], [-82.026879, 36.184106], [-82.027587, 36.18447], [-82.028485, 36.184861], [-82.03041, 36.185584], [-82.034248, 36.186976], [-82.035144, 36.187249], [-82.035657, 36.187369], [-82.036309, 36.187479], [-82.037076, 36.187572], [-82.037735, 36.187628], [-82.03832, 36.187697], [-82.039331, 36.187895], [-82.039888, 36.188061], [-82.044817, 36.189923], [-82.046301, 36.190491], [-82.046464, 36.190552], [-82.047944, 36.191092], [-82.049226, 36.191592], [-82.052736, 36.19278], [-82.053278, 36.192928], [-82.054795, 36.193297], [-82.054918, 36.193323], [-82.056209, 36.193619], [-82.057131, 36.19383], [-82.057346, 36.193874], [-82.057964, 36.194005], [-82.0587, 36.194194], [-82.059427, 36.194353], [-82.060851, 36.194653], [-82.061721, 36.194848], [-82.063094, 36.195263], [-82.063485, 36.195421], [-82.063931, 36.195625], [-82.064478, 36.19595], [-82.065346, 36.196549], [-82.066261, 36.197289], [-82.067373, 36.198187], [-82.06783, 36.19847], [-82.068326, 36.198689], [-82.068836, 36.198865], [-82.069448, 36.199018], [-82.070182, 36.199182], [-82.070603, 36.199273], [-82.071606, 36.19949], [-82.072341, 36.199681], [-82.072825, 36.199828]], "type": "LineString"}}], "metadata": {"attribution": "openrouteservice.org | OpenStreetMap contributors", "service": "routing", "timestamp": 1769468441202, "query": {"coordinates": [[-82.011679, 36.177471], [-82.0728244, 36.199829]], "profile": "driving-car", "profileName": "driving-car", "format": "geojson"}, "engine": {"version": "9.5.0", "build_date": "2025-10-31T12:33:09Z", "graph_date": "2026-01-25T11:10:32Z", "osm_date": "2026-01-19T01:00:01Z"}}}