{"type": "FeatureCollection", "bbox": [-82.011997, 36.157073, -81.978267, 36.177728], "features": [{"bbox": [-82.011997, 36.157073, -81.978267, 36.177728], "type": "Feature", "properties": {"segments": [{"distance": 3917.9, "duration": 213.5, "steps": [{"distance": 3917.9, "duration": 213.5, "type": 11, "instruction": "Head southeast on US 19E", "name": "US 19E", "way_points": [0, 48]}, {"distance": 0.0, "duration": 0.0, "type": 10, "instruction": "Arrive at US 19E, on the left", "name": "-", "way_points": [48, 48]}]}], "way_points": [0, 48], "summary": {"distance": 3917.9, "duration": 213.5}}, "geometry": {"coordinates": [[-82.011997, 36.177728], [-82.011676, 36.177482], [-82.010513, 36.176455], [-82.010047, 36.176096], [-82.009555, 36.175754], [-82.008661, 36.175279], [-82.007848, 36.174889], [-82.004815, 36.173632], [-82.003044, 36.172786], [-82.002269, 36.172396], [-82.001566, 36.171993], [-82.001027, 36.171643], [-82.000172, 36.170813], [-81.999776, 36.17046], [-81.999348, 36.170157], [-81.998681, 36.169775], [-81.998195, 36.16953], [-81.997433, 36.169273], [-81.996464, 36.168909], [-81.995887, 36.16856], [-81.995337, 36.168048], [-81.995029, 36.167496], [-81.9946, 36.166475], [-81.994328, 36.166016], [-81.993958, 36.165649], [-81.993425, 36.16526], [-81.991961, 36.164689], [-81.991344, 36.164485], [-81.990918, 36.164318], [-81.989417, 36.163809], [-81.989249, 36.163752], [-81.988323, 36.163438], [-81.988155, 36.163381], [-81.987026, 36.162967], [-81.98599, 36.162454], [-81.985259, 36.162018], [-81.984675, 36.161574], [-81.984216, 36.161177], [-81.983527, 36.16046], [-81.98326, 36.160127], [-81.982868, 36.159574], [-81.982228, 36.158735], [-81.981975, 36.158478], [-81.981594, 36.158163], [-81.981299, 36.157981], [-81.980985, 36.157817], [-81.980284, 36.157549], [-81.978968, 36.157232], [-81.978267, 36.157073]], "type": "LineString"}}], "metadata": {"attribution": "openrouteservice.org | OpenStreetMap contributors", "service": "routing", "timestamp": 1769468441341, "query": {"coordinates": [[-82.011679, 36.177999], [-81.9781722, 36.1573464]], "profile": "driving-car", "profileName": "driving-car", "format": "geojson"}, "engine": {"version": "9.5.0", "build_date": "2025-10-31T12:33:09Z", "graph_date": "2026-01-25T11:10:32Z", "osm_date": "2026-01-19T01:00:01Z"}}}