{"type": "FeatureCollection", "bbox": [-81.97736, 36.633937, -81.783619, 36.714909], "features": [{"bbox": [-81.97736, 36.633937, -81.783619, 36.714909], "type": "Feature", "properties": {"segments": [{"distance": 22777.4, "duration": 1459.9, "steps": [{"distance": 3.1, "duration": 0.8, "type": 11, "instruction": "Head west on East 3rd Street", "name": "East 3rd Street", "way_points": [0, 1]}, {"distance": 15327.3, "duration": 906.4, "type": 6, "instruction": "Continue straight onto East 3rd Street, US 58", "name": "East 3rd Street, US 58", "way_points": [1, 201]}, {"distance": 1884.4, "duration": 186.8, "type": 5, "instruction": "Turn slight right onto Jeb Stuart Highway, US 58", "name": "Jeb Stuart Highway, US 58", "way_points": [201, 241]}, {"distance": 4146.8, "duration": 183.0, "type": 13, "instruction": "Keep right onto US 58", "name": "US 58", "way_points": [241, 292]}, {"distance": 270.6, "duration": 19.5, "type": 13, "instruction": "Keep right onto US 58 ALT", "name": "US 58 ALT", "way_points": [292, 296]}, {"distance": 1138.7, "duration": 162.8, "type": 1, "instruction": "Turn right onto Cummings Street, US 58 ALT, VA 75", "name": "Cummings Street, US 58 ALT, VA 75", "way_points": [296, 330]}, {"distance": 6.4, "duration": 0.7, "type": 6, "instruction": "Continue straight onto Cummings Street, VA 75", "name": "Cummings Street, VA 75", "way_points": [330, 331]}, {"distance": 0.0, "duration": 0.0, "type": 10, "instruction": "Arrive at Cummings Street, VA 75, on the right", "name": "-", "way_points": [331, 331]}]}], "way_points": [0, 331], "summary": {"distance": 22777.4, "duration": 1459.9}}, "geometry": {"coordinates": [[-81.783619, 36.634008], [-81.78365, 36.634005], [-81.783878, 36.63399], [-81.784089, 36.633977], [-81.784249, 36.633966], [-81.78471, 36.633937], [-81.78485, 36.633948], [-81.785024, 36.633984], [-81.785881, 36.634195], [-81.786197, 36.63428], [-81.786989, 36.634485], [-81.787297, 36.634566], [-81.78824, 36.634812], [-81.788625, 36.634913], [-81.789183, 36.635061], [-81.789917, 36.635256], [-81.790214, 36.635336], [-81.790411, 36.635389], [-81.790638, 36.63545], [-81.79096, 36.635536], [-81.791346, 36.635594], [-81.791627, 36.635564], [-81.792034, 36.635521], [-81.792171, 36.635554], [-81.792255, 36.635606], [-81.792323, 36.635722], [-81.792403, 36.636054], [-81.792635, 36.636869], [-81.792645, 36.6369], [-81.792734, 36.637127], [-81.792834, 36.637274], [-81.793032, 36.637487], [-81.793261, 36.637685], [-81.795779, 36.63976], [-81.796075, 36.639984], [-81.796212, 36.64007], [-81.796471, 36.640191], [-81.796646, 36.640255], [-81.79699, 36.640342], [-81.797587, 36.640439], [-81.798004, 36.640497], [-81.79824, 36.640522], [-81.798643, 36.640529], [-81.799626, 36.640485], [-81.801106, 36.640419], [-81.801404, 36.640444], [-81.801617, 36.640482], [-81.80202, 36.640599], [-81.802195, 36.640672], [-81.802546, 36.640852], [-81.802923, 36.641132], [-81.803174, 36.641297], [-81.803458, 36.641423], [-81.803855, 36.641514], [-81.805065, 36.641642], [-81.807167, 36.64186], [-81.807616, 36.641895], [-81.808238, 36.641906], [-81.808662, 36.641888], [-81.80937, 36.641807], [-81.809741, 36.641743], [-81.810481, 36.641584], [-81.810987, 36.64147], [-81.812691, 36.641088], [-81.813472, 36.640922], [-81.81405, 36.640842], [-81.814504, 36.640813], [-81.814851, 36.640812], [-81.815474, 36.640862], [-81.815764, 36.640904], [-81.816145, 36.640982], [-81.816761, 36.641149], [-81.81969, 36.642093], [-81.820046, 36.642212], [-81.821193, 36.642597], [-81.821528, 36.642724], [-81.822206, 36.643021], [-81.822781, 36.643313], [-81.823425, 36.643701], [-81.826005, 36.645411], [-81.828089, 36.646871], [-81.828929, 36.647507], [-81.829664, 36.64803], [-81.829938, 36.648193], [-81.830248, 36.648354], [-81.830839, 36.648603], [-81.83118, 36.648714], [-81.831644, 36.64884], [-81.841105, 36.651028], [-81.842739, 36.651406], [-81.844401, 36.651798], [-81.845217, 36.652003], [-81.845605, 36.652116], [-81.846089, 36.652303], [-81.846583, 36.652535], [-81.847076, 36.652814], [-81.847558, 36.653165], [-81.847767, 36.65336], [-81.848075, 36.653733], [-81.850744, 36.656983], [-81.851681, 36.658116], [-81.852367, 36.658999], [-81.852558, 36.659216], [-81.852917, 36.659506], [-81.854181, 36.660415], [-81.854614, 36.660781], [-81.855024, 36.661182], [-81.856511, 36.662705], [-81.857226, 36.66342], [-81.858423, 36.664404], [-81.858738, 36.664639], [-81.858885, 36.664751], [-81.859182, 36.664992], [-81.860043, 36.665678], [-81.860475, 36.666077], [-81.860751, 36.666422], [-81.860855, 36.66659], [-81.861025, 36.666953], [-81.861155, 36.667363], [-81.861242, 36.667813], [-81.861302, 36.668357], [-81.861397, 36.670091], [-81.86147, 36.670896], [-81.861557, 36.671382], [-81.86171, 36.671891], [-81.861934, 36.672451], [-81.862246, 36.672963], [-81.862502, 36.673322], [-81.862701, 36.673567], [-81.863197, 36.674085], [-81.863455, 36.6743], [-81.863756, 36.674523], [-81.864279, 36.674872], [-81.868666, 36.677714], [-81.869641, 36.67834], [-81.871682, 36.679659], [-81.871988, 36.679843], [-81.872585, 36.680172], [-81.872974, 36.680342], [-81.87331, 36.68046], [-81.873796, 36.680593], [-81.874448, 36.680709], [-81.874669, 36.680736], [-81.87699, 36.680909], [-81.87767, 36.681005], [-81.878242, 36.681137], [-81.878495, 36.681209], [-81.878873, 36.681344], [-81.879219, 36.681482], [-81.879732, 36.681725], [-81.881262, 36.682581], [-81.882188, 36.683103], [-81.882334, 36.683185], [-81.882492, 36.683273], [-81.883213, 36.683688], [-81.883407, 36.683801], [-81.886257, 36.685407], [-81.887405, 36.686055], [-81.888439, 36.686644], [-81.888809, 36.686876], [-81.889318, 36.687245], [-81.889811, 36.687686], [-81.890242, 36.688171], [-81.890507, 36.688519], [-81.892248, 36.690919], [-81.892687, 36.691516], [-81.892992, 36.691941], [-81.893404, 36.692471], [-81.893648, 36.692791], [-81.893847, 36.693007], [-81.894083, 36.693225], [-81.894274, 36.693385], [-81.894589, 36.693602], [-81.894848, 36.693748], [-81.895095, 36.693864], [-81.8955, 36.694014], [-81.89579, 36.694101], [-81.896334, 36.694199], [-81.896605, 36.694221], [-81.897232, 36.694236], [-81.898166, 36.694265], [-81.899318, 36.694328], [-81.89999, 36.694412], [-81.900427, 36.694494], [-81.901097, 36.69465], [-81.901864, 36.694885], [-81.902621, 36.695222], [-81.903375, 36.6956], [-81.904692, 36.696442], [-81.905581, 36.697032], [-81.905832, 36.697193], [-81.908005, 36.698587], [-81.908789, 36.699102], [-81.909279, 36.699423], [-81.910432, 36.700214], [-81.912013, 36.70121], [-81.913425, 36.702011], [-81.914285, 36.702548], [-81.916775, 36.704167], [-81.917509, 36.704581], [-81.917582, 36.704605], [-81.917662, 36.704597], [-81.917694, 36.704616], [-81.919365, 36.705475], [-81.920124, 36.705864], [-81.921237, 36.706447], [-81.921558, 36.70664], [-81.922086, 36.707014], [-81.92308, 36.707841], [-81.924866, 36.709352], [-81.925023, 36.709488], [-81.925266, 36.709741], [-81.925573, 36.710115], [-81.92571, 36.710278], [-81.925781, 36.710369], [-81.926114, 36.710797], [-81.926173, 36.710865], [-81.926309, 36.711028], [-81.926357, 36.711087], [-81.926492, 36.711257], [-81.926875, 36.711737], [-81.926914, 36.711862], [-81.926997, 36.71195], [-81.927406, 36.712271], [-81.927814, 36.712474], [-81.928062, 36.712561], [-81.928162, 36.712593], [-81.928348, 36.712593], [-81.928379, 36.712597], [-81.928629, 36.712626], [-81.928674, 36.712632], [-81.929743, 36.712765], [-81.930394, 36.71285], [-81.930837, 36.712937], [-81.931088, 36.71299], [-81.931183, 36.71301], [-81.931302, 36.713035], [-81.931523, 36.713083], [-81.931738, 36.713201], [-81.932854, 36.71345], [-81.933626, 36.713624], [-81.93438, 36.713792], [-81.934722, 36.713946], [-81.934862, 36.714051], [-81.934981, 36.714227], [-81.935004, 36.714303], [-81.934996, 36.714459], [-81.934907, 36.714639], [-81.934827, 36.714727], [-81.934657, 36.714839], [-81.93456, 36.714876], [-81.934371, 36.714909], [-81.934174, 36.714901], [-81.93396, 36.714843], [-81.933818, 36.714772], [-81.933747, 36.71472], [-81.933654, 36.714603], [-81.933618, 36.714517], [-81.933598, 36.714337], [-81.93362, 36.714229], [-81.933707, 36.714053], [-81.933774, 36.713974], [-81.933893, 36.713883], [-81.933995, 36.713821], [-81.934068, 36.713738], [-81.934659, 36.713525], [-81.935382, 36.713256], [-81.936338, 36.71293], [-81.939545, 36.711752], [-81.940657, 36.711326], [-81.946806, 36.709077], [-81.948026, 36.708586], [-81.949579, 36.707899], [-81.951174, 36.707112], [-81.95253, 36.706398], [-81.952681, 36.706306], [-81.954072, 36.705448], [-81.958254, 36.702759], [-81.958977, 36.702325], [-81.959612, 36.701995], [-81.960174, 36.701701], [-81.961415, 36.701145], [-81.96246, 36.700749], [-81.963193, 36.700507], [-81.964048, 36.700254], [-81.964781, 36.700065], [-81.965536, 36.699902], [-81.966245, 36.699772], [-81.966901, 36.699671], [-81.968479, 36.699495], [-81.96994, 36.699437], [-81.970798, 36.699442], [-81.971764, 36.699483], [-81.97249, 36.69959], [-81.974339, 36.700038], [-81.974485, 36.700064], [-81.974701, 36.700064], [-81.974687, 36.700355], [-81.974637, 36.700575], [-81.974454, 36.701112], [-81.974391, 36.701313], [-81.974298, 36.701632], [-81.974263, 36.701756], [-81.974223, 36.701951], [-81.974211, 36.702021], [-81.974203, 36.702081], [-81.974173, 36.70234], [-81.974171, 36.702636], [-81.974186, 36.702998], [-81.974266, 36.703482], [-81.974352, 36.703799], [-81.974357, 36.703823], [-81.974609, 36.70446], [-81.974808, 36.704939], [-81.97488, 36.705104], [-81.974934, 36.705231], [-81.975262, 36.705949], [-81.975614, 36.706556], [-81.975754, 36.706809], [-81.975859, 36.707007], [-81.976052, 36.707373], [-81.976093, 36.707448], [-81.976115, 36.707481], [-81.976186, 36.707629], [-81.976355, 36.707948], [-81.976468, 36.70815], [-81.9767, 36.708585], [-81.97682, 36.708809], [-81.976936, 36.709026], [-81.976974, 36.709097], [-81.977336, 36.70978], [-81.97736, 36.70983]], "type": "LineString"}}], "metadata": {"attribution": "openrouteservice.org | OpenStreetMap contributors", "service": "routing", "timestamp": 1769468441480, "query": {"coordinates": [[-81.783623, 36.634032], [-81.9773482, 36.709833499999995]], "profile": "driving-car", "profileName": "driving-car", "format": "geojson"}, "engine": {"version": "9.5.0", "build_date": "2025-10-31T12:33:09Z", "graph_date": "2026-01-25T11:10:32Z", "osm_date": "2026-01-19T01:00:01Z"}}}