{"type": "FeatureCollection", "bbox": [-81.461972, 36.720127, -81.412387, 36.775717], "features": [{"bbox": [-81.461972, 36.720127, -81.412387, 36.775717], "type": "Feature", "properties": {"segments": [{"distance": 8505.7, "duration": 487.5, "steps": [{"distance": 88.5, "duration": 10.6, "type": 11, "instruction": "Head southeast on Comers Creek Road, SR 650", "name": "Comers Creek Road, SR 650", "way_points": [0, 2]}, {"distance": 8417.2, "duration": 476.9, "type": 0, "instruction": "Turn left onto Sugar Grove Highway, VA 16", "name": "Sugar Grove Highway, VA 16", "way_points": [2, 127]}, {"distance": 0.0, "duration": 0.0, "type": 10, "instruction": "Arrive at Sugar Grove Highway, VA 16, on the right", "name": "-", "way_points": [127, 127]}]}], "way_points": [0, 127], "summary": {"distance": 8505.7, "duration": 487.5}}, "geometry": {"coordinates": [[-81.461972, 36.720588], [-81.461589, 36.720382], [-81.461169, 36.720127], [-81.460751, 36.720463], [-81.460576, 36.720581], [-81.460057, 36.720864], [-81.459814, 36.72098], [-81.455583, 36.722806], [-81.455236, 36.722973], [-81.454921, 36.723178], [-81.454619, 36.723445], [-81.454097, 36.724052], [-81.453761, 36.724391], [-81.453558, 36.724521], [-81.453118, 36.724744], [-81.452775, 36.72486], [-81.45256, 36.72491], [-81.450965, 36.725183], [-81.449912, 36.725379], [-81.449593, 36.725452], [-81.449033, 36.725619], [-81.448496, 36.725838], [-81.448149, 36.726004], [-81.446343, 36.727005], [-81.445867, 36.72722], [-81.44552, 36.727342], [-81.445414, 36.727376], [-81.445019, 36.727485], [-81.4444, 36.727622], [-81.443639, 36.727759], [-81.442372, 36.728026], [-81.442047, 36.728111], [-81.441142, 36.728414], [-81.440784, 36.728557], [-81.439298, 36.729208], [-81.438905, 36.729428], [-81.43869, 36.729582], [-81.438459, 36.72979], [-81.438142, 36.730195], [-81.437933, 36.730538], [-81.437069, 36.732821], [-81.436816, 36.733403], [-81.436694, 36.733636], [-81.436556, 36.733863], [-81.436305, 36.734206], [-81.436016, 36.734544], [-81.435515, 36.735038], [-81.43436, 36.73596], [-81.434074, 36.736159], [-81.433468, 36.736523], [-81.433087, 36.736699], [-81.432545, 36.736919], [-81.430426, 36.737702], [-81.429913, 36.737959], [-81.429648, 36.738141], [-81.429351, 36.738389], [-81.42918, 36.73857], [-81.428989, 36.738848], [-81.428886, 36.739029], [-81.428617, 36.739587], [-81.428517, 36.739751], [-81.428376, 36.739939], [-81.428214, 36.740115], [-81.428051, 36.740252], [-81.42773, 36.740474], [-81.427375, 36.740659], [-81.425712, 36.741329], [-81.425247, 36.741539], [-81.424839, 36.741789], [-81.424479, 36.742073], [-81.424269, 36.742288], [-81.42408, 36.742515], [-81.423837, 36.742875], [-81.423535, 36.743544], [-81.423419, 36.74395], [-81.423389, 36.744157], [-81.423377, 36.744517], [-81.423407, 36.744794], [-81.423502, 36.745313], [-81.423869, 36.747016], [-81.424008, 36.747791], [-81.424071, 36.748368], [-81.424136, 36.749113], [-81.42415, 36.750058], [-81.423811, 36.753931], [-81.423694, 36.755069], [-81.42361, 36.75526], [-81.423542, 36.755358], [-81.423459, 36.755449], [-81.423262, 36.755602], [-81.423085, 36.755678], [-81.422978, 36.755701], [-81.422533, 36.755739], [-81.422376, 36.755775], [-81.422159, 36.755864], [-81.422031, 36.755945], [-81.42192, 36.756041], [-81.421846, 36.756191], [-81.421821, 36.75629], [-81.421824, 36.756491], [-81.421931, 36.756776], [-81.422649, 36.758113], [-81.422987, 36.758745], [-81.423142, 36.759145], [-81.423179, 36.759302], [-81.423214, 36.759541], [-81.423215, 36.759909], [-81.423188, 36.760116], [-81.423099, 36.760424], [-81.4229, 36.760829], [-81.422719, 36.761104], [-81.420048, 36.764711], [-81.419637, 36.765265], [-81.41779, 36.767756], [-81.415941, 36.770259], [-81.415579, 36.770782], [-81.415034, 36.771665], [-81.414423, 36.772738], [-81.414387, 36.7728], [-81.414372, 36.772826], [-81.413819, 36.773789], [-81.413726, 36.773955], [-81.41344, 36.774466], [-81.413069, 36.775029], [-81.412866, 36.775271], [-81.412646, 36.775499], [-81.412489, 36.775634], [-81.412387, 36.775717]], "type": "LineString"}}], "metadata": {"attribution": "openrouteservice.org | OpenStreetMap contributors", "service": "routing", "timestamp": 1769468441625, "query": {"coordinates": [[-81.46198, 36.720578], [-81.4123313, 36.775673399999995]], "profile": "driving-car", "profileName": "driving-car", "format": "geojson"}, "engine": {"version": "9.5.0", "build_date": "2025-10-31T12:33:09Z", "graph_date": "2026-01-25T11:10:32Z", "osm_date": "2026-01-19T01:00:01Z"}}}