{"type": "FeatureCollection", "bbox": [-81.420883, 36.775717, -81.400638, 36.811476], "features": [{"bbox": [-81.420883, 36.775717, -81.400638, 36.811476], "type": "Feature", "properties": {"segments": [{"distance": 5694.6, "duration": 325.2, "steps": [{"distance": 5694.6, "duration": 325.2, "type": 11, "instruction": "Head east on State Highway 16, VA 16", "name": "State Highway 16, VA 16", "way_points": [0, 83]}, {"distance": 0.0, "duration": 0.0, "type": 10, "instruction": "Arrive at State Highway 16, VA 16, on the left", "name": "-", "way_points": [83, 83]}]}], "way_points": [0, 83], "summary": {"distance": 5694.6, "duration": 325.2}}, "geometry": {"coordinates": [[-81.420883, 36.811476], [-81.420628, 36.811464], [-81.420294, 36.811444], [-81.419885, 36.811383], [-81.419581, 36.811333], [-81.419214, 36.811248], [-81.418791, 36.811066], [-81.417885, 36.810533], [-81.417596, 36.81043], [-81.417311, 36.810379], [-81.417106, 36.810368], [-81.416744, 36.81039], [-81.416583, 36.810424], [-81.415244, 36.81083], [-81.414995, 36.810889], [-81.414515, 36.810952], [-81.41421, 36.810966], [-81.413589, 36.810959], [-81.408631, 36.810815], [-81.408289, 36.810785], [-81.407882, 36.810729], [-81.407396, 36.810634], [-81.407122, 36.810561], [-81.405226, 36.809924], [-81.404757, 36.809722], [-81.404534, 36.80957], [-81.404369, 36.809416], [-81.404261, 36.809283], [-81.404189, 36.809164], [-81.404092, 36.808945], [-81.404014, 36.808666], [-81.403753, 36.806811], [-81.40367, 36.805913], [-81.403652, 36.805503], [-81.403641, 36.804436], [-81.403685, 36.804111], [-81.403716, 36.804005], [-81.403781, 36.803837], [-81.403883, 36.803655], [-81.404367, 36.802974], [-81.404452, 36.802806], [-81.404514, 36.802585], [-81.404521, 36.802341], [-81.404355, 36.801398], [-81.404123, 36.80029], [-81.404031, 36.800046], [-81.403795, 36.799688], [-81.402984, 36.798622], [-81.402905, 36.79849], [-81.402126, 36.796621], [-81.401591, 36.795343], [-81.400867, 36.793629], [-81.400722, 36.793231], [-81.400639, 36.792852], [-81.400638, 36.792478], [-81.400683, 36.792187], [-81.400831, 36.791775], [-81.401342, 36.790834], [-81.403235, 36.787486], [-81.403939, 36.786203], [-81.40435, 36.785451], [-81.404561, 36.785099], [-81.40478, 36.784694], [-81.404927, 36.784475], [-81.405217, 36.783929], [-81.405632, 36.783203], [-81.405697, 36.783088], [-81.407496, 36.779884], [-81.407816, 36.779336], [-81.408014, 36.779041], [-81.408209, 36.778785], [-81.408582, 36.778374], [-81.408973, 36.778016], [-81.40924, 36.777803], [-81.409711, 36.777474], [-81.410126, 36.777211], [-81.410577, 36.776926], [-81.410894, 36.776717], [-81.411043, 36.776623], [-81.411532, 36.776309], [-81.411638, 36.776237], [-81.411801, 36.77613], [-81.412251, 36.775827], [-81.412387, 36.775717]], "type": "LineString"}}], "metadata": {"attribution": "openrouteservice.org | OpenStreetMap contributors", "service": "routing", "timestamp": 1769468441764, "query": {"coordinates": [[-81.420884, 36.811455], [-81.4123313, 36.775673399999995]], "profile": "driving-car", "profileName": "driving-car", "format": "geojson"}, "engine": {"version": "9.5.0", "build_date": "2025-10-31T12:33:09Z", "graph_date": "2026-01-25T11:10:32Z", "osm_date": "2026-01-19T01:00:01Z"}}}