{"type": "FeatureCollection", "bbox": [-81.423538, 36.866724, -81.373057, 36.885654], "features": [{"bbox": [-81.423538, 36.866724, -81.373057, 36.885654], "type": "Feature", "properties": {"segments": [{"distance": 5167.7, "duration": 304.3, "steps": [{"distance": 5100.0, "duration": 288.0, "type": 11, "instruction": "Head southwest on Lee Highway, US 11", "name": "Lee Highway, US 11", "way_points": [0, 77]}, {"distance": 67.7, "duration": 16.2, "type": 1, "instruction": "Turn right onto Atkins Tank Road, SR 686", "name": "Atkins Tank Road, SR 686", "way_points": [77, 79]}, {"distance": 0.0, "duration": 0.0, "type": 10, "instruction": "Arrive at Atkins Tank Road, SR 686, on the right", "name": "-", "way_points": [79, 79]}]}], "way_points": [0, 79], "summary": {"distance": 5167.7, "duration": 304.3}}, "geometry": {"coordinates": [[-81.373057, 36.885654], [-81.373146, 36.885618], [-81.37336, 36.885531], [-81.37368, 36.885404], [-81.373735, 36.88538], [-81.374934, 36.884897], [-81.375648, 36.884573], [-81.376156, 36.884392], [-81.376396, 36.884304], [-81.377124, 36.884007], [-81.377723, 36.88374], [-81.378069, 36.883562], [-81.378551, 36.883263], [-81.378807, 36.883077], [-81.37906, 36.882874], [-81.379621, 36.882379], [-81.382423, 36.879829], [-81.382565, 36.879699], [-81.382918, 36.879374], [-81.383391, 36.878971], [-81.384064, 36.87848], [-81.384569, 36.878178], [-81.384883, 36.878014], [-81.385271, 36.877835], [-81.385897, 36.877581], [-81.387305, 36.877032], [-81.391367, 36.87545], [-81.392376, 36.875084], [-81.394153, 36.874537], [-81.394497, 36.874445], [-81.394863, 36.874383], [-81.395441, 36.874339], [-81.395706, 36.874339], [-81.395999, 36.87436], [-81.39626, 36.874392], [-81.397033, 36.874548], [-81.397344, 36.874595], [-81.397864, 36.874631], [-81.398317, 36.874605], [-81.398633, 36.874566], [-81.399075, 36.874475], [-81.399336, 36.874399], [-81.399793, 36.874217], [-81.400045, 36.874093], [-81.400424, 36.873866], [-81.400848, 36.873527], [-81.401473, 36.872836], [-81.401846, 36.872504], [-81.402037, 36.872365], [-81.40254, 36.872059], [-81.402945, 36.871888], [-81.4032, 36.8718], [-81.405116, 36.871218], [-81.406057, 36.870933], [-81.407348, 36.870541], [-81.407782, 36.870413], [-81.4086, 36.870163], [-81.408776, 36.87011], [-81.409325, 36.869944], [-81.409708, 36.869829], [-81.409991, 36.869744], [-81.410467, 36.869602], [-81.411329, 36.869343], [-81.411608, 36.869253], [-81.413202, 36.868774], [-81.414163, 36.868525], [-81.414374, 36.868477], [-81.414925, 36.868364], [-81.41524, 36.868302], [-81.415688, 36.868214], [-81.41594, 36.868165], [-81.416072, 36.868139], [-81.416677, 36.868022], [-81.417515, 36.867861], [-81.419958, 36.867391], [-81.422459, 36.866909], [-81.422774, 36.866849], [-81.423435, 36.866724], [-81.423456, 36.866948], [-81.423538, 36.867326]], "type": "LineString"}}], "metadata": {"attribution": "openrouteservice.org | OpenStreetMap contributors", "service": "routing", "timestamp": 1769468441912, "query": {"coordinates": [[-81.372986, 36.885542], [-81.4234428, 36.8673392]], "profile": "driving-car", "profileName": "driving-car", "format": "geojson"}, "engine": {"version": "9.5.0", "build_date": "2025-10-31T12:33:09Z", "graph_date": "2026-01-25T11:10:32Z", "osm_date": "2026-01-19T01:00:01Z"}}}