{"type": "FeatureCollection", "bbox": [-80.811274, 37.33009, -80.756178, 37.343454], "features": [{"bbox": [-80.811274, 37.33009, -80.756178, 37.343454], "type": "Feature", "properties": {"segments": [{"distance": 5758.7, "duration": 329.6, "steps": [{"distance": 9.1, "duration": 2.2, "type": 11, "instruction": "Head southwest", "name": "-", "way_points": [0, 1]}, {"distance": 5749.6, "duration": 327.4, "type": 1, "instruction": "Turn right onto Narrows Road, VA 100", "name": "Narrows Road, VA 100", "way_points": [1, 90]}, {"distance": 0.0, "duration": 0.0, "type": 10, "instruction": "Arrive at Narrows Road, VA 100, on the right", "name": "-", "way_points": [90, 90]}]}], "way_points": [0, 90], "summary": {"distance": 5758.7, "duration": 329.6}}, "geometry": {"coordinates": [[-80.756178, 37.334415], [-80.756268, 37.334384], [-80.758074, 37.335661], [-80.760074, 37.337094], [-80.760349, 37.337227], [-80.760497, 37.337272], [-80.760887, 37.337355], [-80.76118, 37.337453], [-80.761371, 37.337582], [-80.761551, 37.337776], [-80.761715, 37.337911], [-80.761972, 37.338], [-80.762591, 37.338121], [-80.763225, 37.338273], [-80.76343, 37.338308], [-80.764269, 37.338385], [-80.765056, 37.338457], [-80.765159, 37.338486], [-80.765292, 37.338564], [-80.765353, 37.338636], [-80.765393, 37.338786], [-80.765385, 37.338864], [-80.765296, 37.339142], [-80.765303, 37.339289], [-80.765372, 37.33945], [-80.765506, 37.339587], [-80.766328, 37.340235], [-80.766596, 37.340414], [-80.767085, 37.340657], [-80.767426, 37.340797], [-80.767904, 37.340951], [-80.768403, 37.341066], [-80.76888, 37.341146], [-80.769141, 37.341207], [-80.769394, 37.341287], [-80.772973, 37.342768], [-80.773204, 37.342852], [-80.773732, 37.342992], [-80.776016, 37.343392], [-80.776399, 37.343432], [-80.777042, 37.343454], [-80.77737, 37.343443], [-80.778002, 37.343384], [-80.77867, 37.343271], [-80.779286, 37.343109], [-80.780422, 37.342707], [-80.782013, 37.34206], [-80.786131, 37.34033], [-80.786651, 37.340082], [-80.787064, 37.339862], [-80.787748, 37.339447], [-80.790112, 37.3377], [-80.793203, 37.33538], [-80.793648, 37.334964], [-80.794206, 37.334568], [-80.794523, 37.334237], [-80.794728, 37.334115], [-80.795117, 37.333983], [-80.795296, 37.333893], [-80.795514, 37.333728], [-80.795704, 37.333528], [-80.795824, 37.33343], [-80.795981, 37.33333], [-80.796865, 37.33291], [-80.797225, 37.332709], [-80.798643, 37.331855], [-80.799709, 37.331368], [-80.800266, 37.331191], [-80.800896, 37.33107], [-80.801442, 37.331004], [-80.801621, 37.331003], [-80.801936, 37.331027], [-80.802263, 37.331045], [-80.802457, 37.33104], [-80.80284, 37.330987], [-80.804571, 37.330564], [-80.805319, 37.330421], [-80.806181, 37.33027], [-80.807177, 37.330093], [-80.807345, 37.33009], [-80.807439, 37.330093], [-80.807662, 37.330114], [-80.808477, 37.330248], [-80.808821, 37.330257], [-80.809323, 37.330229], [-80.809602, 37.330256], [-80.80975, 37.330325], [-80.810119, 37.330657], [-80.810408, 37.330944], [-80.810606, 37.331094], [-80.811274, 37.331383]], "type": "LineString"}}], "metadata": {"attribution": "openrouteservice.org | OpenStreetMap contributors", "service": "routing", "timestamp": 1769468442051, "query": {"coordinates": [[-80.756164, 37.334389], [-80.8111866, 37.3315103]], "profile": "driving-car", "profileName": "driving-car", "format": "geojson"}, "engine": {"version": "9.5.0", "build_date": "2025-10-31T12:33:09Z", "graph_date": "2026-01-25T11:10:32Z", "osm_date": "2026-01-19T01:00:01Z"}}}