{"type": "FeatureCollection", "bbox": [-79.913691, 37.393657, -79.874936, 37.418187], "features": [{"bbox": [-79.913691, 37.393657, -79.874936, 37.418187], "type": "Feature", "properties": {"segments": [{"distance": 6171.0, "duration": 397.9, "steps": [{"distance": 1825.3, "duration": 77.3, "type": 11, "instruction": "Head north on Roanoke Road, US 220", "name": "Roanoke Road, US 220", "way_points": [0, 25]}, {"distance": 2581.7, "duration": 196.9, "type": 1, "instruction": "Turn right onto Valley Road, SR 779", "name": "Valley Road, SR 779", "way_points": [25, 92]}, {"distance": 1733.5, "duration": 121.5, "type": 0, "instruction": "Turn left onto Lee Highway, US 11", "name": "Lee Highway, US 11", "way_points": [92, 108]}, {"distance": 30.5, "duration": 2.2, "type": 1, "instruction": "Turn right onto Stoney Battery Road, SR 651", "name": "Stoney Battery Road, SR 651", "way_points": [108, 109]}, {"distance": 0.0, "duration": 0.0, "type": 10, "instruction": "Arrive at Stoney Battery Road, SR 651, on the left", "name": "-", "way_points": [109, 109]}]}], "way_points": [0, 109], "summary": {"distance": 6171.0, "duration": 397.9}}, "geometry": {"coordinates": [[-79.906273, 37.393657], [-79.906446, 37.394529], [-79.906526, 37.394791], [-79.906714, 37.395194], [-79.906888, 37.395469], [-79.907011, 37.395629], [-79.907221, 37.395861], [-79.907999, 37.396626], [-79.909105, 37.39771], [-79.90943, 37.398053], [-79.909578, 37.398233], [-79.910025, 37.398853], [-79.91129, 37.40075], [-79.911604, 37.401245], [-79.912096, 37.402101], [-79.912787, 37.403384], [-79.913218, 37.404192], [-79.913378, 37.404558], [-79.91351, 37.40502], [-79.913568, 37.405457], [-79.913617, 37.406112], [-79.913646, 37.406562], [-79.913691, 37.40734], [-79.913679, 37.407813], [-79.913641, 37.408065], [-79.913497, 37.408532], [-79.913251, 37.408496], [-79.91276, 37.408478], [-79.912541, 37.408492], [-79.912279, 37.408538], [-79.911598, 37.408719], [-79.911406, 37.408749], [-79.911148, 37.408753], [-79.910911, 37.408701], [-79.910553, 37.408519], [-79.910137, 37.408152], [-79.90967, 37.40772], [-79.909478, 37.40747], [-79.909134, 37.406942], [-79.909052, 37.406863], [-79.908938, 37.406805], [-79.908701, 37.406746], [-79.908179, 37.406702], [-79.907305, 37.406571], [-79.906487, 37.406473], [-79.90622, 37.406386], [-79.905794, 37.406193], [-79.905144, 37.406022], [-79.904333, 37.405839], [-79.903702, 37.40571], [-79.903349, 37.405624], [-79.902905, 37.405494], [-79.90264, 37.405437], [-79.902184, 37.405403], [-79.90189, 37.405315], [-79.901599, 37.40517], [-79.901475, 37.405074], [-79.901049, 37.404672], [-79.900733, 37.40445], [-79.900512, 37.404351], [-79.900189, 37.404283], [-79.89997, 37.404271], [-79.898094, 37.404359], [-79.897757, 37.404387], [-79.897549, 37.40442], [-79.897307, 37.40448], [-79.896835, 37.404654], [-79.89657, 37.404721], [-79.896284, 37.404748], [-79.895986, 37.404743], [-79.894788, 37.404723], [-79.89455, 37.404732], [-79.894273, 37.404782], [-79.894005, 37.404885], [-79.893866, 37.404962], [-79.893667, 37.405108], [-79.892943, 37.405909], [-79.892827, 37.406015], [-79.892503, 37.406253], [-79.891762, 37.406721], [-79.891621, 37.406793], [-79.890549, 37.407221], [-79.890215, 37.407339], [-79.890067, 37.407375], [-79.88981, 37.407388], [-79.889719, 37.407377], [-79.889598, 37.407333], [-79.889471, 37.407271], [-79.889322, 37.407173], [-79.889087, 37.406981], [-79.888781, 37.406796], [-79.888261, 37.406555], [-79.887973, 37.406441], [-79.886324, 37.40869], [-79.886174, 37.408865], [-79.885914, 37.409119], [-79.883115, 37.41118], [-79.88246, 37.411676], [-79.882382, 37.411731], [-79.881964, 37.412039], [-79.881552, 37.41237], [-79.881277, 37.412622], [-79.880364, 37.41346], [-79.878903, 37.414797], [-79.877181, 37.416378], [-79.876521, 37.416982], [-79.875715, 37.417725], [-79.875489, 37.417929], [-79.875207, 37.418187], [-79.874936, 37.418016]], "type": "LineString"}}], "metadata": {"attribution": "openrouteservice.org | OpenStreetMap contributors", "service": "routing", "timestamp": 1769468442197, "query": {"coordinates": [[-79.90623, 37.393662], [-79.8747627, 37.4181897]], "profile": "driving-car", "profileName": "driving-car", "format": "geojson"}, "engine": {"version": "9.5.0", "build_date": "2025-10-31T12:33:09Z", "graph_date": "2026-01-25T11:10:32Z", "osm_date": "2026-01-19T01:00:01Z"}}}