{"type": "FeatureCollection", "bbox": [-79.679881, 37.485501, -79.658167, 37.529886], "features": [{"bbox": [-79.679881, 37.485501, -79.658167, 37.529886], "type": "Feature", "properties": {"segments": [{"distance": 7710.7, "duration": 475.5, "steps": [{"distance": 7433.4, "duration": 453.9, "type": 11, "instruction": "Head north on Parkway Drive, VA 43", "name": "Parkway Drive, VA 43", "way_points": [0, 200]}, {"distance": 243.6, "duration": 13.5, "type": 12, "instruction": "Keep left onto Main Street, US 11", "name": "Main Street, US 11", "way_points": [200, 206]}, {"distance": 33.7, "duration": 8.1, "type": 0, "instruction": "Turn left", "name": "-", "way_points": [206, 207]}, {"distance": 0.0, "duration": 0.0, "type": 10, "instruction": "Arrive at your destination, on the right", "name": "-", "way_points": [207, 207]}]}], "way_points": [0, 207], "summary": {"distance": 7710.7, "duration": 475.5}}, "geometry": {"coordinates": [[-79.668531, 37.485501], [-79.668531, 37.48562], [-79.668478, 37.485803], [-79.668383, 37.486018], [-79.667829, 37.486961], [-79.667638, 37.487219], [-79.667378, 37.487453], [-79.666915, 37.48781], [-79.666524, 37.488022], [-79.665903, 37.488299], [-79.665622, 37.48844], [-79.664709, 37.488989], [-79.664592, 37.489073], [-79.664467, 37.489191], [-79.664169, 37.489577], [-79.663946, 37.489773], [-79.6638, 37.489864], [-79.66353, 37.489997], [-79.663056, 37.490209], [-79.662614, 37.490456], [-79.661347, 37.491264], [-79.660791, 37.491658], [-79.660448, 37.491853], [-79.660281, 37.491985], [-79.659867, 37.492422], [-79.659422, 37.492785], [-79.659307, 37.492915], [-79.658712, 37.493734], [-79.658512, 37.494106], [-79.658194, 37.495024], [-79.658167, 37.495223], [-79.658196, 37.495396], [-79.658296, 37.495568], [-79.658686, 37.495867], [-79.658858, 37.495979], [-79.659272, 37.496196], [-79.659402, 37.496284], [-79.659882, 37.496724], [-79.660218, 37.497121], [-79.660355, 37.497224], [-79.660541, 37.497304], [-79.661309, 37.49747], [-79.661563, 37.497464], [-79.66196, 37.497366], [-79.662079, 37.497358], [-79.662227, 37.497382], [-79.662352, 37.497441], [-79.662418, 37.497493], [-79.662689, 37.497821], [-79.662779, 37.497904], [-79.662973, 37.498027], [-79.663094, 37.498079], [-79.663621, 37.498205], [-79.663822, 37.49829], [-79.663993, 37.498435], [-79.66411, 37.498695], [-79.664168, 37.498924], [-79.664249, 37.499071], [-79.664301, 37.499117], [-79.664424, 37.499171], [-79.6647, 37.499191], [-79.664836, 37.499224], [-79.664936, 37.499301], [-79.664974, 37.499359], [-79.664995, 37.499423], [-79.66503, 37.499948], [-79.665065, 37.500121], [-79.665195, 37.500436], [-79.66536, 37.500652], [-79.665486, 37.500738], [-79.66566, 37.500784], [-79.666216, 37.500791], [-79.666306, 37.500816], [-79.666376, 37.500854], [-79.666448, 37.500939], [-79.666467, 37.501039], [-79.666419, 37.501193], [-79.666168, 37.501603], [-79.666012, 37.501959], [-79.665955, 37.502061], [-79.665855, 37.502185], [-79.665612, 37.50245], [-79.665482, 37.502688], [-79.665446, 37.502875], [-79.665452, 37.50298], [-79.665528, 37.503378], [-79.665489, 37.503534], [-79.665374, 37.503693], [-79.665031, 37.504], [-79.664921, 37.504124], [-79.664711, 37.504474], [-79.664386, 37.505144], [-79.663269, 37.506743], [-79.663064, 37.507137], [-79.66298, 37.507352], [-79.662912, 37.507572], [-79.662888, 37.50778], [-79.662902, 37.507901], [-79.662985, 37.508145], [-79.663092, 37.508277], [-79.663171, 37.508338], [-79.663422, 37.508461], [-79.663557, 37.508499], [-79.663686, 37.508522], [-79.66391, 37.508526], [-79.664511, 37.508434], [-79.664938, 37.50846], [-79.665179, 37.508435], [-79.665449, 37.508335], [-79.66599, 37.508019], [-79.666166, 37.507973], [-79.666465, 37.507952], [-79.666633, 37.507899], [-79.666785, 37.50777], [-79.666865, 37.507656], [-79.666991, 37.507526], [-79.667102, 37.507498], [-79.667192, 37.507527], [-79.667234, 37.507567], [-79.667264, 37.50768], [-79.667269, 37.507801], [-79.667223, 37.508307], [-79.667104, 37.508714], [-79.666848, 37.50934], [-79.666794, 37.509544], [-79.666836, 37.509614], [-79.666938, 37.509668], [-79.667113, 37.509677], [-79.667267, 37.509664], [-79.667326, 37.509676], [-79.667405, 37.509727], [-79.667431, 37.509801], [-79.667423, 37.509829], [-79.667338, 37.50992], [-79.666529, 37.510241], [-79.666236, 37.51041], [-79.666088, 37.510522], [-79.665871, 37.510735], [-79.665772, 37.510924], [-79.665754, 37.51102], [-79.665765, 37.511173], [-79.665794, 37.511266], [-79.666232, 37.512051], [-79.666338, 37.512353], [-79.666416, 37.512676], [-79.6667, 37.514172], [-79.666692, 37.514549], [-79.665858, 37.51835], [-79.66581, 37.518638], [-79.665808, 37.518792], [-79.665823, 37.518929], [-79.666051, 37.519988], [-79.666191, 37.520266], [-79.666527, 37.520643], [-79.666595, 37.52076], [-79.666635, 37.520874], [-79.666681, 37.521181], [-79.666644, 37.521944], [-79.666694, 37.522145], [-79.666745, 37.522252], [-79.666918, 37.522485], [-79.667143, 37.5227], [-79.667324, 37.522834], [-79.667636, 37.52301], [-79.667866, 37.523109], [-79.668104, 37.523194], [-79.669206, 37.523526], [-79.669335, 37.523579], [-79.669543, 37.523706], [-79.669705, 37.523864], [-79.669765, 37.523955], [-79.669836, 37.524153], [-79.669836, 37.524421], [-79.669785, 37.524909], [-79.669755, 37.525039], [-79.66967, 37.52524], [-79.669448, 37.525505], [-79.668681, 37.526108], [-79.668451, 37.526335], [-79.668332, 37.526522], [-79.668272, 37.526669], [-79.668189, 37.527064], [-79.668156, 37.527339], [-79.668135, 37.527467], [-79.668127, 37.527568], [-79.668174, 37.527754], [-79.668307, 37.52795], [-79.668492, 37.528105], [-79.668602, 37.528166], [-79.670515, 37.528993], [-79.671433, 37.529344], [-79.671842, 37.529451], [-79.672188, 37.529524], [-79.673425, 37.529717], [-79.674374, 37.529847], [-79.674823, 37.529886], [-79.675279, 37.529877], [-79.676388, 37.529729], [-79.676849, 37.529649], [-79.6778, 37.52945], [-79.678128, 37.529408], [-79.678879, 37.528682], [-79.679246, 37.528327], [-79.67933, 37.528245], [-79.679412, 37.528166], [-79.679592, 37.527992], [-79.679881, 37.527715], [-79.679588, 37.527521]], "type": "LineString"}}], "metadata": {"attribution": "openrouteservice.org | OpenStreetMap contributors", "service": "routing", "timestamp": 1769468442334, "query": {"coordinates": [[-79.668517, 37.485501], [-79.6797614, 37.5273566]], "profile": "driving-car", "profileName": "driving-car", "format": "geojson"}, "engine": {"version": "9.5.0", "build_date": "2025-10-31T12:33:09Z", "graph_date": "2026-01-25T11:10:32Z", "osm_date": "2026-01-19T01:00:01Z"}}}