{"type": "FeatureCollection", "bbox": [-79.624744, 37.522005, -79.607561, 37.529651], "features": [{"bbox": [-79.624744, 37.522005, -79.607561, 37.529651], "type": "Feature", "properties": {"segments": [{"distance": 2339.7, "duration": 510.2, "steps": [{"distance": 476.5, "duration": 63.1, "type": 11, "instruction": "Head southwest on Jennings Creek Road, SR 614", "name": "Jennings Creek Road, SR 614", "way_points": [0, 19]}, {"distance": 1863.2, "duration": 447.2, "type": 0, "instruction": "Turn left onto Middle Creek Road, SR 618", "name": "Middle Creek Road, SR 618", "way_points": [19, 85]}, {"distance": 0.0, "duration": 0.0, "type": 10, "instruction": "Arrive at Middle Creek Road, SR 618, on the right", "name": "-", "way_points": [85, 85]}]}], "way_points": [0, 85], "summary": {"distance": 2339.7, "duration": 510.2}}, "geometry": {"coordinates": [[-79.621982, 37.529651], [-79.622029, 37.529612], [-79.622235, 37.529481], [-79.62248, 37.529377], [-79.622928, 37.529292], [-79.623304, 37.52928], [-79.623669, 37.529296], [-79.623931, 37.529252], [-79.624055, 37.529211], [-79.624237, 37.529119], [-79.624547, 37.528864], [-79.624677, 37.528672], [-79.624717, 37.528567], [-79.624744, 37.52835], [-79.62473, 37.528241], [-79.624639, 37.528026], [-79.6243, 37.527488], [-79.6243, 37.527355], [-79.624347, 37.527213], [-79.624477, 37.526997], [-79.624329, 37.526856], [-79.624236, 37.526801], [-79.624017, 37.526716], [-79.6238, 37.526684], [-79.623428, 37.526712], [-79.62294, 37.526842], [-79.622563, 37.526923], [-79.622365, 37.526915], [-79.622244, 37.526893], [-79.622115, 37.526856], [-79.621923, 37.526774], [-79.621542, 37.526549], [-79.621128, 37.526267], [-79.620939, 37.526186], [-79.620539, 37.526064], [-79.620058, 37.525961], [-79.619684, 37.525825], [-79.619387, 37.525648], [-79.619129, 37.525436], [-79.618883, 37.52513], [-79.618764, 37.524918], [-79.618677, 37.524714], [-79.618616, 37.524638], [-79.61854, 37.524571], [-79.618369, 37.524465], [-79.618205, 37.524324], [-79.618097, 37.52416], [-79.617811, 37.523429], [-79.61772, 37.523352], [-79.61764, 37.52332], [-79.617553, 37.523308], [-79.617241, 37.523365], [-79.617043, 37.523418], [-79.616754, 37.523553], [-79.616422, 37.523649], [-79.616178, 37.523699], [-79.615902, 37.523811], [-79.615451, 37.524099], [-79.615286, 37.524186], [-79.614964, 37.524314], [-79.614741, 37.524373], [-79.614677, 37.524393], [-79.614309, 37.524541], [-79.614033, 37.524594], [-79.612919, 37.524601], [-79.61264, 37.524615], [-79.612018, 37.524689], [-79.611903, 37.524689], [-79.611737, 37.52465], [-79.611597, 37.524571], [-79.611502, 37.52444], [-79.611437, 37.524313], [-79.611344, 37.52406], [-79.611151, 37.52377], [-79.61104, 37.52365], [-79.610835, 37.523482], [-79.610568, 37.52333], [-79.60958, 37.522958], [-79.609388, 37.522872], [-79.609171, 37.522753], [-79.608794, 37.522478], [-79.608466, 37.522281], [-79.608105, 37.522095], [-79.607986, 37.522051], [-79.607758, 37.522007], [-79.607561, 37.522005]], "type": "LineString"}}], "metadata": {"attribution": "openrouteservice.org | OpenStreetMap contributors", "service": "routing", "timestamp": 1769468442475, "query": {"coordinates": [[-79.621962, 37.529636], [-79.6075618, 37.5219716]], "profile": "driving-car", "profileName": "driving-car", "format": "geojson"}, "engine": {"version": "9.5.0", "build_date": "2025-10-31T12:33:09Z", "graph_date": "2026-01-25T11:10:32Z", "osm_date": "2026-01-19T01:00:01Z"}}}