{"type": "FeatureCollection", "bbox": [-78.868044, 38.032433, -78.857087, 38.03348], "features": [{"bbox": [-78.868044, 38.032433, -78.857087, 38.03348], "type": "Feature", "properties": {"segments": [{"distance": 1801.7, "duration": 74.7, "steps": [{"distance": 806.4, "duration": 30.6, "type": 11, "instruction": "Head west on I 64", "name": "I 64", "way_points": [0, 13]}, {"distance": 995.3, "duration": 44.2, "type": 6, "instruction": "Continue straight onto I 64", "name": "I 64", "way_points": [13, 28]}, {"distance": 0.0, "duration": 0.0, "type": 10, "instruction": "Arrive at I 64, on the left", "name": "-", "way_points": [28, 28]}]}], "way_points": [0, 28], "summary": {"distance": 1801.7, "duration": 74.7}}, "geometry": {"coordinates": [[-78.858888, 38.032631], [-78.859261, 38.032641], [-78.859302, 38.03264], [-78.860036, 38.032663], [-78.861737, 38.032705], [-78.862317, 38.032722], [-78.864775, 38.032802], [-78.865359, 38.032836], [-78.865847, 38.032885], [-78.866211, 38.032935], [-78.866644, 38.033022], [-78.866899, 38.033078], [-78.867368, 38.033233], [-78.867928, 38.03348], [-78.868044, 38.033324], [-78.867663, 38.033152], [-78.867357, 38.033033], [-78.866671, 38.032829], [-78.866087, 38.032705], [-78.865762, 38.032659], [-78.865229, 38.032619], [-78.864398, 38.032607], [-78.862328, 38.032545], [-78.861733, 38.032524], [-78.859939, 38.032475], [-78.859176, 38.032454], [-78.85826, 38.032433], [-78.857312, 38.032449], [-78.857087, 38.032468]], "type": "LineString"}}], "metadata": {"attribution": "openrouteservice.org | OpenStreetMap contributors", "service": "routing", "timestamp": 1769468442613, "query": {"coordinates": [[-78.858887, 38.032662], [-78.8570978, 38.032548899999995]], "profile": "driving-car", "profileName": "driving-car", "format": "geojson"}, "engine": {"version": "9.5.0", "build_date": "2025-10-31T12:33:09Z", "graph_date": "2026-01-25T11:10:32Z", "osm_date": "2026-01-19T01:00:01Z"}}}