{"type": "FeatureCollection", "bbox": [-78.623991, 38.356929, -78.545197, 38.407826], "features": [{"bbox": [-78.623991, 38.356929, -78.545197, 38.407826], "type": "Feature", "properties": {"segments": [{"distance": 10824.5, "duration": 611.1, "steps": [{"distance": 103.7, "duration": 10.7, "type": 11, "instruction": "Head north on Skyline Drive", "name": "Skyline Drive", "way_points": [0, 3]}, {"distance": 466.4, "duration": 35.3, "type": 0, "instruction": "Turn left onto Swift Run Gap Entrance", "name": "Swift Run Gap Entrance", "way_points": [3, 20]}, {"distance": 9381.2, "duration": 479.5, "type": 13, "instruction": "Keep right", "name": "-", "way_points": [20, 166]}, {"distance": 249.3, "duration": 17.9, "type": 13, "instruction": "Keep right onto US 33 BUS", "name": "US 33 BUS", "way_points": [166, 168]}, {"distance": 110.6, "duration": 19.9, "type": 6, "instruction": "Continue straight onto US 33 BUS", "name": "US 33 BUS", "way_points": [168, 173]}, {"distance": 475.3, "duration": 44.8, "type": 12, "instruction": "Keep left onto Blue & Gold Drive, US 33 BUS", "name": "Blue & Gold Drive, US 33 BUS", "way_points": [173, 190]}, {"distance": 38.2, "duration": 3.1, "type": 3, "instruction": "Turn sharp right onto West Spottswood Avenue", "name": "West Spottswood Avenue", "way_points": [190, 191]}, {"distance": 0.0, "duration": 0.0, "type": 10, "instruction": "Arrive at West Spottswood Avenue, on the left", "name": "-", "way_points": [191, 191]}]}], "way_points": [0, 191], "summary": {"distance": 10824.5, "duration": 611.1}}, "geometry": {"coordinates": [[-78.545197, 38.356929], [-78.545236, 38.357198], [-78.54533, 38.357509], [-78.545483, 38.357804], [-78.545825, 38.357678], [-78.545951, 38.357665], [-78.546153, 38.35768], [-78.546256, 38.357707], [-78.546423, 38.357788], [-78.546595, 38.357951], [-78.546684, 38.358086], [-78.547076, 38.358807], [-78.5471, 38.358901], [-78.547212, 38.359071], [-78.547462, 38.359389], [-78.547837, 38.359772], [-78.548218, 38.36008], [-78.548445, 38.360219], [-78.5486, 38.360265], [-78.548846, 38.360277], [-78.54901, 38.36025], [-78.549268, 38.360304], [-78.549522, 38.360413], [-78.54976, 38.360691], [-78.550106, 38.361043], [-78.550284, 38.361172], [-78.551025, 38.361977], [-78.551551, 38.362601], [-78.551748, 38.362785], [-78.551866, 38.362861], [-78.552105, 38.362966], [-78.552391, 38.36304], [-78.552547, 38.363053], [-78.552966, 38.363009], [-78.553318, 38.362941], [-78.55363, 38.362955], [-78.553789, 38.362982], [-78.554007, 38.363056], [-78.554101, 38.363099], [-78.554309, 38.363241], [-78.55445, 38.363364], [-78.554565, 38.363498], [-78.55482, 38.363938], [-78.555179, 38.364613], [-78.555468, 38.365047], [-78.555686, 38.365272], [-78.555967, 38.365473], [-78.556124, 38.365544], [-78.55646, 38.365647], [-78.556697, 38.365668], [-78.556847, 38.365663], [-78.557137, 38.36561], [-78.557767, 38.365389], [-78.557891, 38.365354], [-78.558013, 38.365343], [-78.558263, 38.365366], [-78.55836, 38.365409], [-78.558576, 38.36557], [-78.558806, 38.365701], [-78.558948, 38.365757], [-78.559174, 38.365795], [-78.559496, 38.365781], [-78.559653, 38.365751], [-78.559967, 38.36566], [-78.560591, 38.365446], [-78.560768, 38.365399], [-78.560903, 38.365383], [-78.561177, 38.36538], [-78.561313, 38.3654], [-78.561444, 38.365433], [-78.56168, 38.365535], [-78.561778, 38.365598], [-78.562572, 38.366262], [-78.564185, 38.367682], [-78.564318, 38.367815], [-78.564518, 38.368076], [-78.564607, 38.36823], [-78.565064, 38.369303], [-78.565282, 38.369683], [-78.565601, 38.370149], [-78.565875, 38.370457], [-78.566103, 38.37063], [-78.5664, 38.370779], [-78.566688, 38.370868], [-78.566855, 38.370898], [-78.567198, 38.370919], [-78.567543, 38.37088], [-78.567709, 38.370838], [-78.568121, 38.370694], [-78.569423, 38.370162], [-78.569758, 38.370007], [-78.570206, 38.369749], [-78.570514, 38.369538], [-78.570816, 38.369303], [-78.571294, 38.368867], [-78.571521, 38.368627], [-78.57191, 38.368166], [-78.573335, 38.366014], [-78.573561, 38.365752], [-78.57381, 38.365521], [-78.573977, 38.365394], [-78.574432, 38.365144], [-78.574739, 38.365013], [-78.575085, 38.364931], [-78.575335, 38.364889], [-78.575842, 38.36485], [-78.576235, 38.364867], [-78.57644, 38.364896], [-78.576922, 38.365019], [-78.577327, 38.365183], [-78.577711, 38.365407], [-78.577885, 38.365535], [-78.578329, 38.365918], [-78.578554, 38.366136], [-78.578989, 38.366555], [-78.5794, 38.366948], [-78.579785, 38.367313], [-78.580039, 38.367554], [-78.580668, 38.36816], [-78.580757, 38.368245], [-78.58117, 38.368642], [-78.582369, 38.369794], [-78.582983, 38.370385], [-78.583893, 38.371259], [-78.58665, 38.3739], [-78.586848, 38.374092], [-78.587063, 38.374298], [-78.587189, 38.374419], [-78.587858, 38.375062], [-78.591726, 38.378791], [-78.591956, 38.379039], [-78.592343, 38.379512], [-78.593595, 38.381323], [-78.595059, 38.383461], [-78.595411, 38.384046], [-78.595559, 38.384387], [-78.595722, 38.38485], [-78.595794, 38.385155], [-78.595855, 38.385536], [-78.596029, 38.387495], [-78.596139, 38.388756], [-78.596253, 38.390078], [-78.59641, 38.391884], [-78.596429, 38.392106], [-78.596702, 38.395146], [-78.596791, 38.395613], [-78.596864, 38.395862], [-78.597008, 38.396228], [-78.597282, 38.396708], [-78.597435, 38.396921], [-78.597668, 38.39719], [-78.59796, 38.397476], [-78.59828, 38.39774], [-78.599125, 38.398371], [-78.602006, 38.400518], [-78.602396, 38.400809], [-78.602969, 38.401193], [-78.603254, 38.401353], [-78.603897, 38.401657], [-78.604149, 38.401754], [-78.605282, 38.402131], [-78.609307, 38.403436], [-78.609931, 38.403641], [-78.613065, 38.404654], [-78.613725, 38.404836], [-78.614549, 38.405003], [-78.61544, 38.405119], [-78.617547, 38.405626], [-78.618191, 38.405726], [-78.618377, 38.405768], [-78.618468, 38.405812], [-78.618639, 38.405953], [-78.618695, 38.406361], [-78.618772, 38.406503], [-78.619242, 38.406656], [-78.619335, 38.406686], [-78.619632, 38.406782], [-78.619853, 38.406855], [-78.620213, 38.406973], [-78.620721, 38.40712], [-78.620911, 38.407166], [-78.621478, 38.407284], [-78.621936, 38.407359], [-78.62235, 38.407426], [-78.622746, 38.407489], [-78.623107, 38.407547], [-78.623245, 38.407569], [-78.623423, 38.4076], [-78.6235, 38.407613], [-78.623715, 38.407649], [-78.623991, 38.407694], [-78.623586, 38.407826]], "type": "LineString"}}], "metadata": {"attribution": "openrouteservice.org | OpenStreetMap contributors", "service": "routing", "timestamp": 1769468442757, "query": {"coordinates": [[-78.545122, 38.356936], [-78.6236277, 38.4079042]], "profile": "driving-car", "profileName": "driving-car", "format": "geojson"}, "engine": {"version": "9.5.0", "build_date": "2025-10-31T12:33:09Z", "graph_date": "2026-01-25T11:10:32Z", "osm_date": "2026-01-19T01:00:01Z"}}}