{"type": "FeatureCollection", "bbox": [-78.870797, 38.356929, -78.545197, 38.445948], "features": [{"bbox": [-78.870797, 38.356929, -78.545197, 38.445948], "type": "Feature", "properties": {"segments": [{"distance": 37921.8, "duration": 2078.9, "steps": [{"distance": 103.7, "duration": 10.7, "type": 11, "instruction": "Head north on Skyline Drive", "name": "Skyline Drive", "way_points": [0, 3]}, {"distance": 466.4, "duration": 35.3, "type": 0, "instruction": "Turn left onto Swift Run Gap Entrance", "name": "Swift Run Gap Entrance", "way_points": [3, 20]}, {"distance": 35257.4, "duration": 1848.8, "type": 13, "instruction": "Keep right", "name": "-", "way_points": [20, 399]}, {"distance": 882.1, "duration": 90.7, "type": 0, "instruction": "Turn left onto Martin Luther King Jr. Way", "name": "Martin Luther King Jr. Way", "way_points": [399, 416]}, {"distance": 1011.8, "duration": 72.8, "type": 1, "instruction": "Turn right onto Paul Street", "name": "Paul Street", "way_points": [416, 426]}, {"distance": 200.4, "duration": 20.6, "type": 1, "instruction": "Turn right onto South Main Street, US 11", "name": "South Main Street, US 11", "way_points": [426, 431]}, {"distance": 0.0, "duration": 0.0, "type": 10, "instruction": "Arrive at South Main Street, US 11, on the left", "name": "-", "way_points": [431, 431]}]}], "way_points": [0, 431], "summary": {"distance": 37921.8, "duration": 2078.9}}, "geometry": {"coordinates": [[-78.545197, 38.356929], [-78.545236, 38.357198], [-78.54533, 38.357509], [-78.545483, 38.357804], [-78.545825, 38.357678], [-78.545951, 38.357665], [-78.546153, 38.35768], [-78.546256, 38.357707], [-78.546423, 38.357788], [-78.546595, 38.357951], [-78.546684, 38.358086], [-78.547076, 38.358807], [-78.5471, 38.358901], [-78.547212, 38.359071], [-78.547462, 38.359389], [-78.547837, 38.359772], [-78.548218, 38.36008], [-78.548445, 38.360219], [-78.5486, 38.360265], [-78.548846, 38.360277], [-78.54901, 38.36025], [-78.549268, 38.360304], [-78.549522, 38.360413], [-78.54976, 38.360691], [-78.550106, 38.361043], [-78.550284, 38.361172], [-78.551025, 38.361977], [-78.551551, 38.362601], [-78.551748, 38.362785], [-78.551866, 38.362861], [-78.552105, 38.362966], [-78.552391, 38.36304], [-78.552547, 38.363053], [-78.552966, 38.363009], [-78.553318, 38.362941], [-78.55363, 38.362955], [-78.553789, 38.362982], [-78.554007, 38.363056], [-78.554101, 38.363099], [-78.554309, 38.363241], [-78.55445, 38.363364], [-78.554565, 38.363498], [-78.55482, 38.363938], [-78.555179, 38.364613], [-78.555468, 38.365047], [-78.555686, 38.365272], [-78.555967, 38.365473], [-78.556124, 38.365544], [-78.55646, 38.365647], [-78.556697, 38.365668], [-78.556847, 38.365663], [-78.557137, 38.36561], [-78.557767, 38.365389], [-78.557891, 38.365354], [-78.558013, 38.365343], [-78.558263, 38.365366], [-78.55836, 38.365409], [-78.558576, 38.36557], [-78.558806, 38.365701], [-78.558948, 38.365757], [-78.559174, 38.365795], [-78.559496, 38.365781], [-78.559653, 38.365751], [-78.559967, 38.36566], [-78.560591, 38.365446], [-78.560768, 38.365399], [-78.560903, 38.365383], [-78.561177, 38.36538], [-78.561313, 38.3654], [-78.561444, 38.365433], [-78.56168, 38.365535], [-78.561778, 38.365598], [-78.562572, 38.366262], [-78.564185, 38.367682], [-78.564318, 38.367815], [-78.564518, 38.368076], [-78.564607, 38.36823], [-78.565064, 38.369303], [-78.565282, 38.369683], [-78.565601, 38.370149], [-78.565875, 38.370457], [-78.566103, 38.37063], [-78.5664, 38.370779], [-78.566688, 38.370868], [-78.566855, 38.370898], [-78.567198, 38.370919], [-78.567543, 38.37088], [-78.567709, 38.370838], [-78.568121, 38.370694], [-78.569423, 38.370162], [-78.569758, 38.370007], [-78.570206, 38.369749], [-78.570514, 38.369538], [-78.570816, 38.369303], [-78.571294, 38.368867], [-78.571521, 38.368627], [-78.57191, 38.368166], [-78.573335, 38.366014], [-78.573561, 38.365752], [-78.57381, 38.365521], [-78.573977, 38.365394], [-78.574432, 38.365144], [-78.574739, 38.365013], [-78.575085, 38.364931], [-78.575335, 38.364889], [-78.575842, 38.36485], [-78.576235, 38.364867], [-78.57644, 38.364896], [-78.576922, 38.365019], [-78.577327, 38.365183], [-78.577711, 38.365407], [-78.577885, 38.365535], [-78.578329, 38.365918], [-78.578554, 38.366136], [-78.578989, 38.366555], [-78.5794, 38.366948], [-78.579785, 38.367313], [-78.580039, 38.367554], [-78.580668, 38.36816], [-78.580757, 38.368245], [-78.58117, 38.368642], [-78.582369, 38.369794], [-78.582983, 38.370385], [-78.583893, 38.371259], [-78.58665, 38.3739], [-78.586848, 38.374092], [-78.587063, 38.374298], [-78.587189, 38.374419], [-78.587858, 38.375062], [-78.591726, 38.378791], [-78.591956, 38.379039], [-78.592343, 38.379512], [-78.593595, 38.381323], [-78.595059, 38.383461], [-78.595411, 38.384046], [-78.595559, 38.384387], [-78.595722, 38.38485], [-78.595794, 38.385155], [-78.595855, 38.385536], [-78.596029, 38.387495], [-78.596139, 38.388756], [-78.596253, 38.390078], [-78.59641, 38.391884], [-78.596429, 38.392106], [-78.596702, 38.395146], [-78.596791, 38.395613], [-78.596864, 38.395862], [-78.597008, 38.396228], [-78.597282, 38.396708], [-78.597435, 38.396921], [-78.597668, 38.39719], [-78.59796, 38.397476], [-78.59828, 38.39774], [-78.599125, 38.398371], [-78.602006, 38.400518], [-78.602396, 38.400809], [-78.602969, 38.401193], [-78.603254, 38.401353], [-78.603897, 38.401657], [-78.604149, 38.401754], [-78.605282, 38.402131], [-78.609307, 38.403436], [-78.609931, 38.403641], [-78.613065, 38.404654], [-78.613725, 38.404836], [-78.614549, 38.405003], [-78.61544, 38.405119], [-78.615926, 38.405155], [-78.618331, 38.405274], [-78.619027, 38.405307], [-78.621613, 38.405436], [-78.623111, 38.405513], [-78.624022, 38.405559], [-78.625201, 38.405618], [-78.627783, 38.405715], [-78.632717, 38.405778], [-78.635034, 38.405861], [-78.636535, 38.405936], [-78.64281, 38.406249], [-78.645582, 38.406385], [-78.646537, 38.406388], [-78.646898, 38.406375], [-78.647273, 38.406353], [-78.647549, 38.406332], [-78.648301, 38.406248], [-78.649184, 38.406109], [-78.650283, 38.405864], [-78.650934, 38.405682], [-78.651505, 38.405502], [-78.651987, 38.405318], [-78.654499, 38.404259], [-78.656316, 38.403469], [-78.657188, 38.403131], [-78.658315, 38.402753], [-78.658923, 38.402572], [-78.660375, 38.402175], [-78.661161, 38.401964], [-78.662624, 38.401562], [-78.66379, 38.401259], [-78.664931, 38.40094], [-78.667203, 38.400308], [-78.668229, 38.399994], [-78.668793, 38.399813], [-78.669493, 38.399577], [-78.671488, 38.39886], [-78.677132, 38.396819], [-78.67726, 38.396772], [-78.6782, 38.396428], [-78.678794, 38.396215], [-78.679005, 38.396136], [-78.679448, 38.395974], [-78.681846, 38.395111], [-78.68192, 38.395084], [-78.683408, 38.394542], [-78.68384, 38.394384], [-78.685737, 38.393699], [-78.689188, 38.392449], [-78.697941, 38.389279], [-78.698699, 38.388987], [-78.699752, 38.388529], [-78.705648, 38.38589], [-78.706374, 38.385565], [-78.70693, 38.385338], [-78.707507, 38.385126], [-78.70821, 38.384902], [-78.708592, 38.384796], [-78.709456, 38.384586], [-78.709584, 38.384555], [-78.710367, 38.384367], [-78.713335, 38.383672], [-78.714299, 38.383418], [-78.715176, 38.383118], [-78.715762, 38.382869], [-78.723028, 38.379417], [-78.724323, 38.378782], [-78.725482, 38.378164], [-78.726154, 38.377784], [-78.727258, 38.377123], [-78.728866, 38.376138], [-78.72999, 38.375459], [-78.73066, 38.375109], [-78.731427, 38.374767], [-78.73249, 38.374363], [-78.732816, 38.374259], [-78.733689, 38.374008], [-78.734384, 38.373853], [-78.734921, 38.373753], [-78.735539, 38.373663], [-78.738453, 38.373335], [-78.739847, 38.373172], [-78.740674, 38.373038], [-78.741287, 38.372922], [-78.742236, 38.372709], [-78.74282, 38.372557], [-78.743929, 38.372227], [-78.744734, 38.371947], [-78.745446, 38.371672], [-78.747309, 38.370907], [-78.748051, 38.370644], [-78.74841, 38.370544], [-78.748988, 38.370409], [-78.749465, 38.370325], [-78.74986, 38.370274], [-78.750597, 38.370224], [-78.751521, 38.370234], [-78.760719, 38.370948], [-78.762119, 38.371046], [-78.763036, 38.371049], [-78.763354, 38.371036], [-78.764054, 38.370972], [-78.764669, 38.37088], [-78.765143, 38.370797], [-78.766741, 38.370441], [-78.767759, 38.370251], [-78.768717, 38.370114], [-78.769601, 38.370021], [-78.773519, 38.369674], [-78.77512, 38.36954], [-78.776105, 38.3695], [-78.77676, 38.369504], [-78.777386, 38.369525], [-78.778418, 38.369603], [-78.779371, 38.369721], [-78.779947, 38.369818], [-78.780741, 38.369982], [-78.781287, 38.370117], [-78.781801, 38.370263], [-78.782321, 38.370428], [-78.784048, 38.371085], [-78.788678, 38.37291], [-78.789059, 38.373088], [-78.78959, 38.373411], [-78.790829, 38.374363], [-78.792133, 38.375328], [-78.793496, 38.376274], [-78.793818, 38.376495], [-78.794746, 38.377126], [-78.796437, 38.378274], [-78.798015, 38.379362], [-78.798729, 38.379898], [-78.799103, 38.380216], [-78.799532, 38.38064], [-78.799838, 38.380982], [-78.800057, 38.38126], [-78.800454, 38.381831], [-78.802495, 38.385344], [-78.803379, 38.386877], [-78.803741, 38.387434], [-78.803901, 38.387625], [-78.804083, 38.387804], [-78.804445, 38.388098], [-78.804634, 38.38823], [-78.805926, 38.389141], [-78.808535, 38.391016], [-78.809116, 38.391448], [-78.809503, 38.391774], [-78.809899, 38.392143], [-78.810452, 38.392746], [-78.811444, 38.393929], [-78.812823, 38.395583], [-78.813392, 38.39627], [-78.813786, 38.396805], [-78.814494, 38.397782], [-78.814813, 38.398137], [-78.81542, 38.398722], [-78.816272, 38.399405], [-78.817923, 38.400676], [-78.819178, 38.401624], [-78.821977, 38.403804], [-78.822975, 38.404585], [-78.82435, 38.405669], [-78.825093, 38.406263], [-78.825497, 38.406564], [-78.825742, 38.406741], [-78.826315, 38.407102], [-78.826691, 38.407319], [-78.827044, 38.407545], [-78.827994, 38.408247], [-78.828676, 38.408767], [-78.829418, 38.409347], [-78.830121, 38.409942], [-78.830577, 38.410366], [-78.830816, 38.410622], [-78.831251, 38.411052], [-78.831657, 38.41151], [-78.832464, 38.412458], [-78.832575, 38.412588], [-78.834429, 38.414773], [-78.835036, 38.415488], [-78.836335, 38.41702], [-78.836583, 38.417343], [-78.836856, 38.417778], [-78.837053, 38.418179], [-78.837138, 38.418396], [-78.837282, 38.418861], [-78.837373, 38.419414], [-78.837396, 38.41991], [-78.83739, 38.420876], [-78.837428, 38.42134], [-78.837484, 38.421674], [-78.837563, 38.421983], [-78.837667, 38.422294], [-78.837854, 38.422743], [-78.838364, 38.42376], [-78.838713, 38.4244], [-78.839793, 38.42631], [-78.840623, 38.427689], [-78.84099, 38.428358], [-78.84112, 38.428562], [-78.841166, 38.428634], [-78.841518, 38.429256], [-78.841713, 38.429614], [-78.841861, 38.429911], [-78.842075, 38.430289], [-78.842299, 38.430641], [-78.842412, 38.430825], [-78.842596, 38.431129], [-78.842772, 38.431401], [-78.843179, 38.4319], [-78.843605, 38.432352], [-78.844075, 38.432777], [-78.844557, 38.433141], [-78.844998, 38.433457], [-78.845387, 38.433736], [-78.845575, 38.433871], [-78.845814, 38.434043], [-78.846349, 38.434426], [-78.846824, 38.434767], [-78.848396, 38.435898], [-78.849229, 38.436474], [-78.849575, 38.436731], [-78.850228, 38.437256], [-78.850527, 38.437524], [-78.851004, 38.437949], [-78.851301, 38.438226], [-78.851777, 38.438754], [-78.852084, 38.439033], [-78.853261, 38.440711], [-78.853518, 38.441172], [-78.853908, 38.441951], [-78.854116, 38.441908], [-78.855008, 38.441724], [-78.855533, 38.441618], [-78.856267, 38.441466], [-78.856473, 38.441407], [-78.856677, 38.441333], [-78.85687, 38.441243], [-78.857273, 38.440979], [-78.857572, 38.440767], [-78.857819, 38.440591], [-78.858076, 38.440409], [-78.858518, 38.440095], [-78.859223, 38.439653], [-78.860017, 38.439297], [-78.861427, 38.438875], [-78.862423, 38.438575], [-78.862831, 38.438498], [-78.863296, 38.439624], [-78.863539, 38.44049], [-78.863837, 38.44087], [-78.864201, 38.441142], [-78.865509, 38.442016], [-78.866058, 38.44235], [-78.8687, 38.443372], [-78.869241, 38.443635], [-78.869789, 38.443924], [-78.870797, 38.444495], [-78.870028, 38.445188], [-78.869775, 38.445437], [-78.869724, 38.445488], [-78.8695, 38.445864], [-78.869476, 38.445948]], "type": "LineString"}}], "metadata": {"attribution": "openrouteservice.org | OpenStreetMap contributors", "service": "routing", "timestamp": 1769468442896, "query": {"coordinates": [[-78.545122, 38.356936], [-78.8697826, 38.4460017]], "profile": "driving-car", "profileName": "driving-car", "format": "geojson"}, "engine": {"version": "9.5.0", "build_date": "2025-10-31T12:33:09Z", "graph_date": "2026-01-25T11:10:32Z", "osm_date": "2026-01-19T01:00:01Z"}}}