{"type": "FeatureCollection", "bbox": [-78.075762, 38.908355, -78.05344, 38.909455], "features": [{"bbox": [-78.075762, 38.908355, -78.05344, 38.909455], "type": "Feature", "properties": {"segments": [{"distance": 1956.0, "duration": 118.2, "steps": [{"distance": 1956.0, "duration": 118.2, "type": 11, "instruction": "Head west on John Marshall Highway, VA 55", "name": "John Marshall Highway, VA 55", "way_points": [0, 20]}, {"distance": 0.0, "duration": 0.0, "type": 10, "instruction": "Arrive at John Marshall Highway, VA 55, on the left", "name": "-", "way_points": [20, 20]}]}], "way_points": [0, 20], "summary": {"distance": 1956.0, "duration": 118.2}}, "geometry": {"coordinates": [[-78.05344, 38.909319], [-78.055647, 38.909355], [-78.056405, 38.909305], [-78.056584, 38.909287], [-78.057177, 38.90918], [-78.059661, 38.908619], [-78.060213, 38.908518], [-78.061144, 38.908403], [-78.061614, 38.908365], [-78.062358, 38.908355], [-78.065721, 38.908491], [-78.068038, 38.908607], [-78.068919, 38.908681], [-78.069426, 38.908767], [-78.071946, 38.909267], [-78.072519, 38.909365], [-78.073016, 38.909426], [-78.073982, 38.909455], [-78.0752, 38.909446], [-78.075679, 38.909429], [-78.075762, 38.909427]], "type": "LineString"}}], "metadata": {"attribution": "openrouteservice.org | OpenStreetMap contributors", "service": "routing", "timestamp": 1769468443038, "query": {"coordinates": [[-78.053441, 38.909285], [-78.0757616, 38.909400999999995]], "profile": "driving-car", "profileName": "driving-car", "format": "geojson"}, "engine": {"version": "9.5.0", "build_date": "2025-10-31T12:33:09Z", "graph_date": "2026-01-25T11:10:32Z", "osm_date": "2026-01-19T01:00:01Z"}}}