{"type": "FeatureCollection", "bbox": [-77.852729, 39.110754, -77.829375, 39.11655], "features": [{"bbox": [-77.852729, 39.110754, -77.829375, 39.11655], "type": "Feature", "properties": {"segments": [{"distance": 2824.4, "duration": 187.6, "steps": [{"distance": 60.8, "duration": 14.6, "type": 11, "instruction": "Head south on Pine Grove Road, SR 679", "name": "Pine Grove Road, SR 679", "way_points": [0, 3]}, {"distance": 2053.6, "duration": 100.0, "type": 0, "instruction": "Turn left onto Harry Byrd Highway, VA 7", "name": "Harry Byrd Highway, VA 7", "way_points": [3, 34]}, {"distance": 606.2, "duration": 62.4, "type": 1, "instruction": "Turn right onto Clayton Hall Road, SR 760", "name": "Clayton Hall Road, SR 760", "way_points": [34, 49]}, {"distance": 103.7, "duration": 10.7, "type": 0, "instruction": "Turn left onto Snickersville Turnpike, SR 734", "name": "Snickersville Turnpike, SR 734", "way_points": [49, 51]}, {"distance": 0.0, "duration": 0.0, "type": 10, "instruction": "Arrive at Snickersville Turnpike, SR 734, straight ahead", "name": "-", "way_points": [51, 51]}]}], "way_points": [0, 51], "summary": {"distance": 2824.4, "duration": 187.6}}, "geometry": {"coordinates": [[-77.852629, 39.11655], [-77.852617, 39.116496], [-77.852683, 39.116182], [-77.852729, 39.116012], [-77.851696, 39.115788], [-77.851415, 39.11574], [-77.851145, 39.115697], [-77.850442, 39.115627], [-77.849602, 39.115608], [-77.84871, 39.115652], [-77.846659, 39.115833], [-77.845805, 39.115889], [-77.845592, 39.115888], [-77.844886, 39.115878], [-77.844317, 39.115837], [-77.843842, 39.115789], [-77.843317, 39.115715], [-77.84279, 39.115619], [-77.842139, 39.115464], [-77.841619, 39.115312], [-77.839875, 39.114667], [-77.839325, 39.114502], [-77.838819, 39.114391], [-77.838487, 39.114334], [-77.837921, 39.114265], [-77.837116, 39.114208], [-77.836245, 39.114184], [-77.835185, 39.114172], [-77.833238, 39.114123], [-77.832364, 39.11413], [-77.831856, 39.114157], [-77.831119, 39.114227], [-77.830385, 39.114333], [-77.829851, 39.114448], [-77.829429, 39.114561], [-77.829375, 39.114393], [-77.829381, 39.114231], [-77.829444, 39.114088], [-77.829565, 39.113977], [-77.829792, 39.11387], [-77.829956, 39.113817], [-77.830761, 39.113616], [-77.831267, 39.113424], [-77.831763, 39.113191], [-77.832279, 39.112889], [-77.832787, 39.112549], [-77.833453, 39.112062], [-77.833869, 39.111773], [-77.834129, 39.111565], [-77.834455, 39.111159], [-77.834075, 39.111017], [-77.833372, 39.110754]], "type": "LineString"}}], "metadata": {"attribution": "openrouteservice.org | OpenStreetMap contributors", "service": "routing", "timestamp": 1769468443179, "query": {"coordinates": [[-77.852587, 39.116556], [-77.8333725, 39.110753599999995]], "profile": "driving-car", "profileName": "driving-car", "format": "geojson"}, "engine": {"version": "9.5.0", "build_date": "2025-10-31T12:33:09Z", "graph_date": "2026-01-25T11:10:32Z", "osm_date": "2026-01-19T01:00:01Z"}}}