{"type": "FeatureCollection", "bbox": [-78.163435, 39.114306, -77.852617, 39.188558], "features": [{"bbox": [-78.163435, 39.114306, -77.852617, 39.188558], "type": "Feature", "properties": {"segments": [{"distance": 29437.8, "duration": 1653.7, "steps": [{"distance": 41.5, "duration": 10.0, "type": 11, "instruction": "Head south on Pine Grove Road, SR 679", "name": "Pine Grove Road, SR 679", "way_points": [0, 2]}, {"distance": 29110.5, "duration": 1602.8, "type": 1, "instruction": "Turn right onto Harry Byrd Highway, VA 7", "name": "Harry Byrd Highway, VA 7", "way_points": [2, 307]}, {"distance": 247.5, "duration": 37.0, "type": 7, "instruction": "Enter the roundabout and take the 1st exit onto East Piccadilly Street, VA 7", "name": "East Piccadilly Street, VA 7", "exit_number": 1, "way_points": [307, 316]}, {"distance": 38.3, "duration": 3.9, "type": 0, "instruction": "Turn left onto North Cameron Street, US 11, US 522", "name": "North Cameron Street, US 11, US 522", "way_points": [316, 317]}, {"distance": 0.0, "duration": 0.0, "type": 10, "instruction": "Arrive at North Cameron Street, US 11, US 522, on the left", "name": "-", "way_points": [317, 317]}]}], "way_points": [0, 317], "summary": {"distance": 29437.8, "duration": 1653.7}}, "geometry": {"coordinates": [[-77.852629, 39.11655], [-77.852617, 39.116496], [-77.852683, 39.116182], [-77.854006, 39.116464], [-77.854636, 39.116552], [-77.855318, 39.116583], [-77.855613, 39.116575], [-77.855907, 39.116553], [-77.8564, 39.116484], [-77.856901, 39.11638], [-77.857237, 39.116287], [-77.857867, 39.116048], [-77.858491, 39.115732], [-77.859686, 39.115055], [-77.860116, 39.114841], [-77.860476, 39.114689], [-77.860797, 39.114578], [-77.861072, 39.114498], [-77.861657, 39.114378], [-77.862189, 39.114318], [-77.862524, 39.114306], [-77.863089, 39.114325], [-77.863394, 39.114355], [-77.863784, 39.114421], [-77.864084, 39.11449], [-77.864581, 39.114639], [-77.864834, 39.114736], [-77.865401, 39.115009], [-77.865977, 39.115375], [-77.869254, 39.117708], [-77.871777, 39.119513], [-77.872349, 39.119904], [-77.872731, 39.120144], [-77.873216, 39.12042], [-77.874043, 39.120813], [-77.874617, 39.121042], [-77.874956, 39.121161], [-77.87584, 39.121419], [-77.876973, 39.121705], [-77.878881, 39.122183], [-77.879683, 39.122367], [-77.880085, 39.122444], [-77.880959, 39.122561], [-77.881562, 39.122608], [-77.882284, 39.122625], [-77.883216, 39.122603], [-77.885358, 39.122515], [-77.885947, 39.122515], [-77.886246, 39.122529], [-77.886661, 39.122574], [-77.88735, 39.12269], [-77.887645, 39.122761], [-77.888156, 39.122921], [-77.888679, 39.12313], [-77.889245, 39.123398], [-77.89366, 39.125487], [-77.89474, 39.125993], [-77.895214, 39.126211], [-77.895912, 39.126494], [-77.896795, 39.12678], [-77.900209, 39.127705], [-77.905261, 39.129136], [-77.906717, 39.129497], [-77.908927, 39.13], [-77.910505, 39.130418], [-77.913673, 39.131327], [-77.914147, 39.131462], [-77.920481, 39.133248], [-77.926251, 39.134864], [-77.927063, 39.135106], [-77.927576, 39.13529], [-77.932517, 39.137263], [-77.935492, 39.138471], [-77.936761, 39.139065], [-77.937402, 39.139389], [-77.938921, 39.140172], [-77.939497, 39.140446], [-77.940484, 39.140873], [-77.940845, 39.141013], [-77.941394, 39.14121], [-77.942097, 39.141444], [-77.942537, 39.141582], [-77.943332, 39.141792], [-77.944005, 39.141943], [-77.94496, 39.142117], [-77.945668, 39.142214], [-77.95283, 39.143084], [-77.953538, 39.143181], [-77.954088, 39.14329], [-77.95462, 39.143424], [-77.955083, 39.143563], [-77.955492, 39.143711], [-77.956228, 39.144033], [-77.956758, 39.14432], [-77.957087, 39.144522], [-77.957664, 39.144932], [-77.958188, 39.14538], [-77.958442, 39.14563], [-77.958824, 39.146094], [-77.959039, 39.146366], [-77.959236, 39.146663], [-77.959417, 39.146974], [-77.95961, 39.147374], [-77.961367, 39.151764], [-77.961626, 39.152377], [-77.961928, 39.152974], [-77.962273, 39.153552], [-77.962819, 39.154315], [-77.963378, 39.154985], [-77.963909, 39.155522], [-77.964252, 39.155836], [-77.964933, 39.1564], [-77.965361, 39.156708], [-77.965865, 39.157038], [-77.966286, 39.157304], [-77.967073, 39.157734], [-77.968182, 39.158231], [-77.968812, 39.15847], [-77.971732, 39.159496], [-77.974028, 39.160303], [-77.976588, 39.161211], [-77.977279, 39.161453], [-77.980133, 39.162463], [-77.983811, 39.163723], [-77.9848, 39.164045], [-77.986602, 39.164603], [-77.98879, 39.165228], [-77.989813, 39.165501], [-77.991651, 39.165963], [-77.993237, 39.166333], [-77.994293, 39.166563], [-77.996289, 39.166965], [-77.99776, 39.167237], [-78.000653, 39.167704], [-78.003421, 39.168085], [-78.004645, 39.168307], [-78.00542, 39.168487], [-78.006354, 39.168739], [-78.007344, 39.169046], [-78.008194, 39.169351], [-78.008463, 39.169452], [-78.008752, 39.169561], [-78.010522, 39.170229], [-78.012247, 39.170875], [-78.014035, 39.171467], [-78.016406, 39.172183], [-78.019222, 39.173023], [-78.020107, 39.173258], [-78.020658, 39.173382], [-78.021898, 39.173609], [-78.023448, 39.173868], [-78.030719, 39.175074], [-78.033633, 39.175509], [-78.034832, 39.175666], [-78.036202, 39.175847], [-78.037382, 39.175967], [-78.038168, 39.175993], [-78.038769, 39.175986], [-78.039761, 39.175931], [-78.044154, 39.175378], [-78.044563, 39.175339], [-78.044942, 39.175323], [-78.045592, 39.17533], [-78.046643, 39.175403], [-78.048062, 39.17553], [-78.051695, 39.175842], [-78.05274, 39.175931], [-78.054822, 39.176107], [-78.059229, 39.176487], [-78.061798, 39.176697], [-78.063648, 39.17682], [-78.068474, 39.177146], [-78.069362, 39.177254], [-78.070016, 39.177371], [-78.070519, 39.177484], [-78.071473, 39.177752], [-78.071883, 39.17789], [-78.072516, 39.178135], [-78.073275, 39.178432], [-78.075509, 39.179298], [-78.075681, 39.179365], [-78.077468, 39.180061], [-78.07832, 39.180384], [-78.078912, 39.180564], [-78.07943, 39.180699], [-78.080243, 39.180876], [-78.081614, 39.18111], [-78.082232, 39.181273], [-78.082808, 39.181465], [-78.083283, 39.181678], [-78.083876, 39.181993], [-78.084718, 39.18247], [-78.085355, 39.182853], [-78.085936, 39.183194], [-78.086644, 39.183592], [-78.087064, 39.183794], [-78.087591, 39.184004], [-78.088107, 39.184165], [-78.088762, 39.184344], [-78.090076, 39.184668], [-78.090479, 39.184747], [-78.091219, 39.184845], [-78.091705, 39.18487], [-78.094044, 39.184908], [-78.095289, 39.184975], [-78.096252, 39.185064], [-78.097326, 39.185211], [-78.098297, 39.185384], [-78.101108, 39.185894], [-78.107777, 39.187138], [-78.108538, 39.187319], [-78.109286, 39.187532], [-78.11077, 39.188057], [-78.111187, 39.188188], [-78.111803, 39.188352], [-78.112252, 39.188441], [-78.112854, 39.188514], [-78.113592, 39.188558], [-78.114153, 39.188545], [-78.114445, 39.188524], [-78.115065, 39.188453], [-78.115461, 39.18838], [-78.11609, 39.188225], [-78.117162, 39.187852], [-78.117832, 39.187651], [-78.118257, 39.18756], [-78.118552, 39.187514], [-78.119265, 39.187388], [-78.119768, 39.187316], [-78.120114, 39.187271], [-78.120721, 39.187192], [-78.122049, 39.187108], [-78.125379, 39.186943], [-78.126386, 39.186894], [-78.127069, 39.186852], [-78.127939, 39.186722], [-78.128703, 39.186556], [-78.129136, 39.186431], [-78.129864, 39.186173], [-78.129997, 39.186125], [-78.130607, 39.185901], [-78.132579, 39.185179], [-78.133021, 39.18504], [-78.133343, 39.184964], [-78.133731, 39.18489], [-78.134386, 39.184802], [-78.13449, 39.184795], [-78.135055, 39.184773], [-78.136694, 39.184827], [-78.137779, 39.184863], [-78.138917, 39.184893], [-78.139057, 39.184895], [-78.139158, 39.184904], [-78.139416, 39.184931], [-78.139927, 39.185021], [-78.140127, 39.18506], [-78.140238, 39.185081], [-78.140765, 39.185184], [-78.141538, 39.185327], [-78.141786, 39.185374], [-78.142, 39.185414], [-78.142214, 39.185455], [-78.142432, 39.185496], [-78.142796, 39.185564], [-78.142981, 39.185599], [-78.143476, 39.185693], [-78.144181, 39.185803], [-78.144578, 39.185828], [-78.144964, 39.185828], [-78.145577, 39.185892], [-78.146084, 39.185934], [-78.146226, 39.185945], [-78.146895, 39.185997], [-78.147015, 39.186006], [-78.147532, 39.186046], [-78.147929, 39.186075], [-78.1487, 39.186104], [-78.149008, 39.186116], [-78.149389, 39.186103], [-78.149819, 39.186034], [-78.150343, 39.185867], [-78.150879, 39.185629], [-78.151551, 39.185333], [-78.15245, 39.184911], [-78.152727, 39.184777], [-78.152986, 39.184657], [-78.153156, 39.184595], [-78.153392, 39.18455], [-78.153522, 39.184547], [-78.153905, 39.184582], [-78.154355, 39.184688], [-78.154983, 39.184836], [-78.15557, 39.184973], [-78.155805, 39.185029], [-78.156219, 39.185128], [-78.156273, 39.185141], [-78.15686, 39.185282], [-78.157363, 39.185402], [-78.157714, 39.185486], [-78.158105, 39.185581], [-78.158609, 39.185702], [-78.159321, 39.185873], [-78.159914, 39.186015], [-78.160023, 39.186028], [-78.160145, 39.186011], [-78.160251, 39.185957], [-78.160382, 39.185858], [-78.160647, 39.185751], [-78.160734, 39.185736], [-78.16077, 39.185714], [-78.160812, 39.185654], [-78.160878, 39.185599], [-78.160973, 39.185552], [-78.161125, 39.185522], [-78.161297, 39.185525], [-78.161839, 39.185663], [-78.163311, 39.186013], [-78.163435, 39.185683]], "type": "LineString"}}], "metadata": {"attribution": "openrouteservice.org | OpenStreetMap contributors", "service": "routing", "timestamp": 1769468443317, "query": {"coordinates": [[-77.852587, 39.116556], [-78.1633341, 39.185659699999995]], "profile": "driving-car", "profileName": "driving-car", "format": "geojson"}, "engine": {"version": "9.5.0", "build_date": "2025-10-31T12:33:09Z", "graph_date": "2026-01-25T11:10:32Z", "osm_date": "2026-01-19T01:00:01Z"}}}