{"type": "FeatureCollection", "bbox": [-77.607933, 39.397767, -77.403614, 39.537874], "features": [{"bbox": [-77.607933, 39.397767, -77.403614, 39.537874], "type": "Feature", "properties": {"segments": [{"distance": 28554.5, "duration": 1452.5, "steps": [{"distance": 400.7, "duration": 36.1, "type": 11, "instruction": "Head north on Boonsboro Mountain Road", "name": "Boonsboro Mountain Road", "way_points": [0, 9]}, {"distance": 4428.6, "duration": 260.2, "type": 1, "instruction": "Turn right onto National Pike, US 40", "name": "National Pike, US 40", "way_points": [9, 47]}, {"distance": 367.5, "duration": 29.4, "type": 3, "instruction": "Turn sharp right onto Church Hill Road", "name": "Church Hill Road", "way_points": [47, 55]}, {"distance": 609.9, "duration": 48.8, "type": 0, "instruction": "Turn left onto Main Street", "name": "Main Street", "way_points": [55, 67]}, {"distance": 1304.2, "duration": 110.4, "type": 6, "instruction": "Continue straight onto Main Street, MD 17", "name": "Main Street, MD 17", "way_points": [67, 95]}, {"distance": 19087.3, "duration": 719.2, "type": 0, "instruction": "Turn left", "name": "-", "way_points": [95, 264]}, {"distance": 314.8, "duration": 22.7, "type": 13, "instruction": "Keep right", "name": "-", "way_points": [264, 267]}, {"distance": 667.3, "duration": 75.2, "type": 12, "instruction": "Keep left", "name": "-", "way_points": [267, 284]}, {"distance": 536.6, "duration": 39.3, "type": 7, "instruction": "Enter the roundabout and take the 1st exit onto East Street", "name": "East Street", "exit_number": 1, "way_points": [284, 299]}, {"distance": 165.2, "duration": 25.6, "type": 5, "instruction": "Turn slight right onto South East Street", "name": "South East Street", "way_points": [299, 302]}, {"distance": 176.8, "duration": 31.8, "type": 0, "instruction": "Turn left onto East All Saints Street", "name": "East All Saints Street", "way_points": [302, 306]}, {"distance": 248.4, "duration": 30.2, "type": 1, "instruction": "Turn right onto South Carroll Street", "name": "South Carroll Street", "way_points": [306, 312]}, {"distance": 247.1, "duration": 23.8, "type": 0, "instruction": "Turn left onto East Patrick Street, MD 144", "name": "East Patrick Street, MD 144", "way_points": [312, 317]}, {"distance": 0.0, "duration": 0.0, "type": 10, "instruction": "Arrive at East Patrick Street, MD 144, on the right", "name": "-", "way_points": [317, 317]}]}], "way_points": [0, 317], "summary": {"distance": 28554.5, "duration": 1452.5}}, "geometry": {"coordinates": [[-77.607776, 39.534622], [-77.60778, 39.534675], [-77.607933, 39.536733], [-77.607925, 39.536994], [-77.607902, 39.53709], [-77.607819, 39.537303], [-77.607715, 39.537446], [-77.60758, 39.537572], [-77.607287, 39.537753], [-77.60698, 39.537874], [-77.606752, 39.53748], [-77.60662, 39.537302], [-77.60621, 39.536874], [-77.605747, 39.536464], [-77.605339, 39.536215], [-77.604823, 39.535949], [-77.60451, 39.535824], [-77.604033, 39.53566], [-77.60371, 39.535576], [-77.603482, 39.535523], [-77.60307, 39.535463], [-77.602652, 39.535424], [-77.601307, 39.535304], [-77.600456, 39.535224], [-77.599746, 39.535129], [-77.598823, 39.534927], [-77.598083, 39.534687], [-77.597557, 39.534477], [-77.597007, 39.53421], [-77.596351, 39.533813], [-77.595188, 39.533052], [-77.590919, 39.530296], [-77.590149, 39.529776], [-77.588714, 39.528812], [-77.588254, 39.528542], [-77.587173, 39.527858], [-77.584838, 39.526351], [-77.583671, 39.525554], [-77.579673, 39.522949], [-77.576907, 39.521154], [-77.573524, 39.518968], [-77.5724, 39.518191], [-77.571513, 39.517644], [-77.570972, 39.517248], [-77.570165, 39.516746], [-77.568997, 39.51602], [-77.56771, 39.515122], [-77.566413, 39.514289], [-77.567643, 39.513838], [-77.567991, 39.513696], [-77.568238, 39.51356], [-77.568403, 39.513421], [-77.568515, 39.513295], [-77.56871, 39.512991], [-77.568882, 39.512705], [-77.569262, 39.512047], [-77.568917, 39.511684], [-77.568622, 39.511375], [-77.568237, 39.510969], [-77.567963, 39.510678], [-77.567867, 39.510565], [-77.56764, 39.510188], [-77.567353, 39.509625], [-77.567142, 39.509029], [-77.567029, 39.508549], [-77.566998, 39.508415], [-77.566745, 39.507342], [-77.566676, 39.507046], [-77.566571, 39.506409], [-77.566564, 39.506374], [-77.566588, 39.506262], [-77.566597, 39.506016], [-77.566607, 39.505784], [-77.566614, 39.505624], [-77.566619, 39.505532], [-77.566635, 39.505348], [-77.566657, 39.50507], [-77.566685, 39.504758], [-77.566698, 39.504621], [-77.566703, 39.504525], [-77.566749, 39.503857], [-77.566837, 39.503231], [-77.566955, 39.502746], [-77.567756, 39.500217], [-77.567771, 39.500045], [-77.567774, 39.500017], [-77.567789, 39.499859], [-77.567814, 39.499601], [-77.56782, 39.499538], [-77.567839, 39.49934], [-77.567864, 39.498941], [-77.567943, 39.498409], [-77.568057, 39.497013], [-77.568082, 39.496739], [-77.568151, 39.495857], [-77.56819, 39.495426], [-77.568044, 39.495378], [-77.566875, 39.494723], [-77.565342, 39.493853], [-77.565139, 39.493713], [-77.564167, 39.492965], [-77.563283, 39.492328], [-77.560434, 39.490044], [-77.559972, 39.489674], [-77.557751, 39.487899], [-77.55725, 39.487537], [-77.556831, 39.487264], [-77.555966, 39.486786], [-77.55558, 39.486592], [-77.554682, 39.486243], [-77.553799, 39.485974], [-77.553323, 39.485862], [-77.552281, 39.485674], [-77.547661, 39.484989], [-77.54665, 39.484826], [-77.546029, 39.484705], [-77.545549, 39.48459], [-77.54474, 39.484349], [-77.544301, 39.484193], [-77.54344, 39.483825], [-77.542554, 39.483345], [-77.541789, 39.482843], [-77.541413, 39.482548], [-77.54103, 39.482219], [-77.539432, 39.480764], [-77.538665, 39.480072], [-77.535405, 39.47711], [-77.534865, 39.476602], [-77.534297, 39.476106], [-77.533027, 39.475079], [-77.532313, 39.47454], [-77.531474, 39.473943], [-77.514663, 39.462345], [-77.514009, 39.461877], [-77.512611, 39.460801], [-77.509472, 39.458145], [-77.509112, 39.457843], [-77.506803, 39.455878], [-77.506258, 39.455338], [-77.505816, 39.454791], [-77.505568, 39.454415], [-77.50536, 39.454045], [-77.505189, 39.453688], [-77.505068, 39.453375], [-77.504964, 39.45303], [-77.503717, 39.448089], [-77.503602, 39.447664], [-77.503468, 39.447279], [-77.50327, 39.44684], [-77.503081, 39.446502], [-77.502824, 39.446108], [-77.502598, 39.445808], [-77.502285, 39.445452], [-77.501955, 39.445125], [-77.501555, 39.444791], [-77.501027, 39.444406], [-77.500674, 39.444175], [-77.500298, 39.443958], [-77.493499, 39.440651], [-77.493125, 39.44044], [-77.492767, 39.440211], [-77.492378, 39.439931], [-77.492061, 39.439676], [-77.491735, 39.43938], [-77.491214, 39.43881], [-77.490982, 39.438505], [-77.490697, 39.438064], [-77.490325, 39.437343], [-77.49015, 39.436929], [-77.489995, 39.436481], [-77.489871, 39.436063], [-77.489776, 39.435608], [-77.48971, 39.435188], [-77.489669, 39.434752], [-77.489651, 39.434227], [-77.489671, 39.432694], [-77.489696, 39.430702], [-77.489685, 39.430082], [-77.489646, 39.429534], [-77.489533, 39.428694], [-77.489442, 39.428217], [-77.48915, 39.427135], [-77.488791, 39.426172], [-77.488565, 39.425677], [-77.488325, 39.425209], [-77.48787, 39.424404], [-77.487537, 39.423902], [-77.487208, 39.423446], [-77.48678, 39.422904], [-77.48637, 39.422429], [-77.486064, 39.422114], [-77.485569, 39.421632], [-77.484978, 39.421091], [-77.484562, 39.420742], [-77.483652, 39.420063], [-77.482714, 39.419464], [-77.481602, 39.41881], [-77.479729, 39.41771], [-77.47924, 39.417401], [-77.47869, 39.417029], [-77.478081, 39.416577], [-77.477607, 39.4162], [-77.476677, 39.41538], [-77.4758, 39.41449], [-77.475344, 39.413965], [-77.474813, 39.413289], [-77.47413, 39.412301], [-77.473116, 39.410702], [-77.472739, 39.410136], [-77.472384, 39.409667], [-77.472023, 39.409226], [-77.471322, 39.408473], [-77.470915, 39.408082], [-77.470471, 39.407692], [-77.469643, 39.40704], [-77.46914, 39.406687], [-77.468664, 39.406378], [-77.467702, 39.405819], [-77.466738, 39.405335], [-77.465729, 39.404912], [-77.465229, 39.404727], [-77.464638, 39.404526], [-77.464049, 39.404349], [-77.462841, 39.404044], [-77.461727, 39.403834], [-77.460475, 39.40367], [-77.457152, 39.403305], [-77.450846, 39.402609], [-77.450253, 39.402528], [-77.449612, 39.402419], [-77.448714, 39.402236], [-77.448147, 39.402109], [-77.44744, 39.401918], [-77.446654, 39.401691], [-77.445853, 39.401412], [-77.44559, 39.401336], [-77.444697, 39.400994], [-77.444117, 39.400746], [-77.44239, 39.399956], [-77.442062, 39.399804], [-77.441583, 39.399591], [-77.44108, 39.399373], [-77.440374, 39.399098], [-77.440265, 39.399057], [-77.439424, 39.39879], [-77.438395, 39.398506], [-77.437441, 39.398306], [-77.437011, 39.398231], [-77.436501, 39.398152], [-77.435402, 39.398029], [-77.434738, 39.397984], [-77.433485, 39.397932], [-77.428615, 39.397932], [-77.424722, 39.397927], [-77.423852, 39.397927], [-77.422139, 39.397916], [-77.42092, 39.397867], [-77.419772, 39.397789], [-77.419257, 39.397767], [-77.41872, 39.397767], [-77.417827, 39.397816], [-77.417291, 39.39788], [-77.416456, 39.398029], [-77.412361, 39.399054], [-77.408786, 39.399955], [-77.406754, 39.40035], [-77.406115, 39.400428], [-77.405195, 39.400466], [-77.404914, 39.400508], [-77.404718, 39.400554], [-77.404512, 39.400625], [-77.404202, 39.400809], [-77.403956, 39.401084], [-77.403806, 39.401275], [-77.40376, 39.401365], [-77.40372, 39.401436], [-77.403614, 39.401625], [-77.403631, 39.402543], [-77.403631, 39.403141], [-77.403632, 39.403712], [-77.403632, 39.40384], [-77.403639, 39.404419], [-77.403641, 39.405006], [-77.403729, 39.405576], [-77.403706, 39.405828], [-77.403662, 39.405885], [-77.403647, 39.405963], [-77.403671, 39.40603], [-77.40377, 39.406111], [-77.40392, 39.406313], [-77.403999, 39.406535], [-77.404113, 39.406777], [-77.40436, 39.407176], [-77.404833, 39.407811], [-77.405754, 39.408943], [-77.40587, 39.409154], [-77.405947, 39.409371], [-77.405986, 39.409549], [-77.40599, 39.409981], [-77.406076, 39.410169], [-77.406043, 39.411175], [-77.405992, 39.411525], [-77.405973, 39.411652], [-77.40663, 39.411682], [-77.407114, 39.41171], [-77.407163, 39.411713], [-77.408026, 39.411766], [-77.407951, 39.412247], [-77.407896, 39.412601], [-77.407869, 39.412798], [-77.40785, 39.412935], [-77.407754, 39.413575], [-77.407686, 39.413984], [-77.408782, 39.414046], [-77.409077, 39.414061], [-77.40947, 39.414084], [-77.410143, 39.414127], [-77.410552, 39.414151]], "type": "LineString"}}], "metadata": {"attribution": "openrouteservice.org | OpenStreetMap contributors", "service": "routing", "timestamp": 1769468443459, "query": {"coordinates": [[-77.607765, 39.534622], [-77.4105409, 39.4142688]], "profile": "driving-car", "profileName": "driving-car", "format": "geojson"}, "engine": {"version": "9.5.0", "build_date": "2025-10-31T12:33:09Z", "graph_date": "2026-01-25T11:10:32Z", "osm_date": "2026-01-19T01:00:01Z"}}}