{"type": "FeatureCollection", "bbox": [-77.859929, 39.261503, -77.762395, 39.295739], "features": [{"bbox": [-77.859929, 39.261503, -77.762395, 39.295739], "type": "Feature", "properties": {"segments": [{"distance": 10967.4, "duration": 605.0, "steps": [{"distance": 38.3, "duration": 9.2, "type": 11, "instruction": "Head northwest", "name": "-", "way_points": [0, 2]}, {"distance": 7037.9, "duration": 319.7, "type": 1, "instruction": "Turn right onto WV 9", "name": "WV 9", "way_points": [2, 48]}, {"distance": 1261.5, "duration": 65.4, "type": 13, "instruction": "Keep right onto WV 9", "name": "WV 9", "way_points": [48, 65]}, {"distance": 507.1, "duration": 33.2, "type": 13, "instruction": "Keep right onto US 340", "name": "US 340", "way_points": [65, 70]}, {"distance": 121.0, "duration": 17.7, "type": 12, "instruction": "Keep left", "name": "-", "way_points": [70, 72]}, {"distance": 202.1, "duration": 27.4, "type": 0, "instruction": "Turn left onto East Washington Street, US 340", "name": "East Washington Street, US 340", "way_points": [72, 75]}, {"distance": 1784.7, "duration": 128.8, "type": 12, "instruction": "Keep left onto East Washington Street, WV 51", "name": "East Washington Street, WV 51", "way_points": [75, 116]}, {"distance": 14.9, "duration": 3.6, "type": 0, "instruction": "Turn left onto South George Street, WV 115", "name": "South George Street, WV 115", "way_points": [116, 117]}, {"distance": 0.0, "duration": 0.0, "type": 10, "instruction": "Arrive at South George Street, WV 115, on the left", "name": "-", "way_points": [117, 117]}]}], "way_points": [0, 117], "summary": {"distance": 10967.4, "duration": 605.0}}, "geometry": {"coordinates": [[-77.762395, 39.261564], [-77.762488, 39.261649], [-77.762722, 39.261503], [-77.763317, 39.261929], [-77.76444, 39.262685], [-77.764888, 39.262978], [-77.765301, 39.26331], [-77.765696, 39.263673], [-77.766214, 39.264256], [-77.766649, 39.264902], [-77.767954, 39.26696], [-77.768361, 39.267853], [-77.768572, 39.26825], [-77.768853, 39.26863], [-77.769283, 39.269055], [-77.769635, 39.269382], [-77.770074, 39.269751], [-77.770411, 39.270007], [-77.770912, 39.270335], [-77.771348, 39.27058], [-77.772224, 39.270973], [-77.772712, 39.271153], [-77.773246, 39.271308], [-77.773797, 39.271438], [-77.774364, 39.271542], [-77.775072, 39.271618], [-77.775786, 39.271653], [-77.776654, 39.271624], [-77.779469, 39.271303], [-77.785247, 39.270586], [-77.789993, 39.270016], [-77.790646, 39.26997], [-77.791214, 39.269948], [-77.792383, 39.269967], [-77.793326, 39.27004], [-77.794447, 39.270188], [-77.796216, 39.270459], [-77.80189, 39.271383], [-77.816783, 39.273671], [-77.819743, 39.27413], [-77.820847, 39.274319], [-77.823691, 39.274921], [-77.825002, 39.275256], [-77.826075, 39.275561], [-77.82703, 39.275868], [-77.828997, 39.276582], [-77.829777, 39.276874], [-77.831346, 39.277533], [-77.83584, 39.27943], [-77.836769, 39.280003], [-77.837173, 39.280322], [-77.837402, 39.280584], [-77.837538, 39.280786], [-77.837659, 39.280987], [-77.837775, 39.281236], [-77.837842, 39.281486], [-77.837882, 39.281691], [-77.8379, 39.281948], [-77.83789, 39.282478], [-77.83765, 39.283591], [-77.837578, 39.284277], [-77.837553, 39.284969], [-77.837591, 39.285522], [-77.837669, 39.286158], [-77.837914, 39.287459], [-77.8384, 39.290114], [-77.83855, 39.291663], [-77.838569, 39.292072], [-77.838397, 39.293894], [-77.838403, 39.29432], [-77.838446, 39.294664], [-77.838629, 39.295621], [-77.838655, 39.295739], [-77.839127, 39.295685], [-77.840001, 39.295582], [-77.84098, 39.295478], [-77.841452, 39.295421], [-77.841585, 39.295408], [-77.841928, 39.295338], [-77.842653, 39.295183], [-77.84315, 39.295036], [-77.843569, 39.294913], [-77.843859, 39.294798], [-77.844493, 39.29456], [-77.845884, 39.293958], [-77.846832, 39.293564], [-77.847782, 39.293223], [-77.847872, 39.293176], [-77.847992, 39.293114], [-77.848242, 39.292984], [-77.848498, 39.292908], [-77.848821, 39.292802], [-77.849043, 39.292729], [-77.849158, 39.292692], [-77.849347, 39.292629], [-77.849455, 39.292594], [-77.849635, 39.292534], [-77.849805, 39.292471], [-77.850035, 39.292387], [-77.850131, 39.292351], [-77.850264, 39.292302], [-77.850726, 39.292157], [-77.851067, 39.292051], [-77.851274, 39.291986], [-77.851628, 39.291866], [-77.851681, 39.291849], [-77.852211, 39.291673], [-77.852602, 39.291544], [-77.852664, 39.291525], [-77.853704, 39.291178], [-77.853901, 39.291113], [-77.85496, 39.290757], [-77.856165, 39.290348], [-77.857413, 39.289933], [-77.858659, 39.289522], [-77.859008, 39.289396], [-77.859929, 39.289066], [-77.85986, 39.288943]], "type": "LineString"}}], "metadata": {"attribution": "openrouteservice.org | OpenStreetMap contributors", "service": "routing", "timestamp": 1769468443602, "query": {"coordinates": [[-77.762089, 39.261766], [-77.8597175, 39.288990299999995]], "profile": "driving-car", "profileName": "driving-car", "format": "geojson"}, "engine": {"version": "9.5.0", "build_date": "2025-10-31T12:33:09Z", "graph_date": "2026-01-25T11:10:32Z", "osm_date": "2026-01-19T01:00:01Z"}}}