{"type": "FeatureCollection", "bbox": [-77.684789, 39.327232, -77.665183, 39.330925], "features": [{"bbox": [-77.684789, 39.327232, -77.665183, 39.330925], "type": "Feature", "properties": {"segments": [{"distance": 2089.0, "duration": 133.2, "steps": [{"distance": 301.3, "duration": 27.2, "type": 11, "instruction": "Head northeast on Keep Tryst Road", "name": "Keep Tryst Road", "way_points": [0, 13]}, {"distance": 1095.4, "duration": 49.0, "type": 1, "instruction": "Turn right onto Jefferson Pike, US 340", "name": "Jefferson Pike, US 340", "way_points": [13, 22]}, {"distance": 292.3, "duration": 21.0, "type": 13, "instruction": "Keep right onto Jefferson Pike", "name": "Jefferson Pike", "way_points": [22, 30]}, {"distance": 400.0, "duration": 36.0, "type": 6, "instruction": "Continue straight onto Jefferson Pike, MD 180", "name": "Jefferson Pike, MD 180", "way_points": [30, 39]}, {"distance": 0.0, "duration": 0.0, "type": 10, "instruction": "Arrive at Jefferson Pike, MD 180, on the left", "name": "-", "way_points": [39, 39]}]}], "way_points": [0, 39], "summary": {"distance": 2089.0, "duration": 133.2}}, "geometry": {"coordinates": [[-77.682363, 39.329663], [-77.682342, 39.329671], [-77.682289, 39.329741], [-77.682291, 39.329807], [-77.682369, 39.32988], [-77.682447, 39.329895], [-77.683137, 39.329912], [-77.683415, 39.329966], [-77.683724, 39.330071], [-77.684665, 39.330473], [-77.684765, 39.330552], [-77.684789, 39.330638], [-77.684743, 39.330754], [-77.684605, 39.330925], [-77.683949, 39.330649], [-77.683392, 39.330485], [-77.683092, 39.330409], [-77.682719, 39.330343], [-77.68202, 39.33025], [-77.680255, 39.330202], [-77.676592, 39.330152], [-77.67476, 39.330177], [-77.672038, 39.330238], [-77.671405, 39.330135], [-77.670843, 39.330014], [-77.670482, 39.329922], [-77.670197, 39.329818], [-77.669928, 39.329669], [-77.669373, 39.329257], [-77.669207, 39.329149], [-77.669072, 39.329087], [-77.667534, 39.328273], [-77.667337, 39.328152], [-77.666173, 39.327455], [-77.665941, 39.327351], [-77.665719, 39.327282], [-77.665511, 39.327237], [-77.665389, 39.327232], [-77.665219, 39.327255], [-77.665183, 39.327276]], "type": "LineString"}}], "metadata": {"attribution": "openrouteservice.org | OpenStreetMap contributors", "service": "routing", "timestamp": 1769468443742, "query": {"coordinates": [[-77.682341, 39.329625], [-77.6651943, 39.3272878]], "profile": "driving-car", "profileName": "driving-car", "format": "geojson"}, "engine": {"version": "9.5.0", "build_date": "2025-10-31T12:33:09Z", "graph_date": "2026-01-25T11:10:32Z", "osm_date": "2026-01-19T01:00:01Z"}}}