{"type": "FeatureCollection", "bbox": [-77.684789, 39.313146, -77.627641, 39.330925], "features": [{"bbox": [-77.684789, 39.313146, -77.627641, 39.330925], "type": "Feature", "properties": {"segments": [{"distance": 5869.2, "duration": 452.0, "steps": [{"distance": 301.3, "duration": 27.2, "type": 11, "instruction": "Head northeast on Keep Tryst Road", "name": "Keep Tryst Road", "way_points": [0, 13]}, {"distance": 1095.4, "duration": 49.0, "type": 1, "instruction": "Turn right onto Jefferson Pike, US 340", "name": "Jefferson Pike, US 340", "way_points": [13, 22]}, {"distance": 292.3, "duration": 21.0, "type": 13, "instruction": "Keep right onto Jefferson Pike", "name": "Jefferson Pike", "way_points": [22, 30]}, {"distance": 396.1, "duration": 35.6, "type": 6, "instruction": "Continue straight onto Jefferson Pike, MD 180", "name": "Jefferson Pike, MD 180", "way_points": [30, 38]}, {"distance": 3613.6, "duration": 284.8, "type": 1, "instruction": "Turn right onto Knoxville Road, MD 478", "name": "Knoxville Road, MD 478", "way_points": [38, 90]}, {"distance": 121.4, "duration": 19.3, "type": 0, "instruction": "Turn left onto North Maryland Avenue", "name": "North Maryland Avenue", "way_points": [90, 96]}, {"distance": 27.3, "duration": 9.8, "type": 1, "instruction": "Turn right onto Petersville Road", "name": "Petersville Road", "way_points": [96, 98]}, {"distance": 21.8, "duration": 5.2, "type": 2, "instruction": "Turn sharp left onto Petersville Road", "name": "Petersville Road", "way_points": [98, 101]}, {"distance": 0.0, "duration": 0.0, "type": 10, "instruction": "Arrive at Petersville Road, straight ahead", "name": "-", "way_points": [101, 101]}]}], "way_points": [0, 101], "summary": {"distance": 5869.2, "duration": 452.0}}, "geometry": {"coordinates": [[-77.682363, 39.329663], [-77.682342, 39.329671], [-77.682289, 39.329741], [-77.682291, 39.329807], [-77.682369, 39.32988], [-77.682447, 39.329895], [-77.683137, 39.329912], [-77.683415, 39.329966], [-77.683724, 39.330071], [-77.684665, 39.330473], [-77.684765, 39.330552], [-77.684789, 39.330638], [-77.684743, 39.330754], [-77.684605, 39.330925], [-77.683949, 39.330649], [-77.683392, 39.330485], [-77.683092, 39.330409], [-77.682719, 39.330343], [-77.68202, 39.33025], [-77.680255, 39.330202], [-77.676592, 39.330152], [-77.67476, 39.330177], [-77.672038, 39.330238], [-77.671405, 39.330135], [-77.670843, 39.330014], [-77.670482, 39.329922], [-77.670197, 39.329818], [-77.669928, 39.329669], [-77.669373, 39.329257], [-77.669207, 39.329149], [-77.669072, 39.329087], [-77.667534, 39.328273], [-77.667337, 39.328152], [-77.666173, 39.327455], [-77.665941, 39.327351], [-77.665719, 39.327282], [-77.665511, 39.327237], [-77.665389, 39.327232], [-77.665219, 39.327255], [-77.665052, 39.327106], [-77.663781, 39.326146], [-77.663528, 39.325913], [-77.66295, 39.325209], [-77.662898, 39.32516], [-77.662783, 39.325101], [-77.662593, 39.325079], [-77.662121, 39.325074], [-77.662029, 39.325062], [-77.661872, 39.325011], [-77.660192, 39.324018], [-77.657492, 39.322408], [-77.656922, 39.322079], [-77.656452, 39.321838], [-77.653565, 39.320521], [-77.65075, 39.319299], [-77.650024, 39.319008], [-77.649124, 39.31869], [-77.647125, 39.317979], [-77.646119, 39.317706], [-77.645105, 39.317396], [-77.643756, 39.317008], [-77.643032, 39.316818], [-77.642842, 39.316768], [-77.642088, 39.316572], [-77.64096, 39.316268], [-77.640576, 39.316167], [-77.640335, 39.316102], [-77.640144, 39.31605], [-77.64, 39.316011], [-77.639789, 39.315958], [-77.639494, 39.315878], [-77.63888, 39.315716], [-77.637555, 39.315365], [-77.636902, 39.315121], [-77.636716, 39.315041], [-77.636304, 39.314866], [-77.635841, 39.314672], [-77.635196, 39.314526], [-77.635068, 39.3145], [-77.634123, 39.314306], [-77.633194, 39.314113], [-77.632163, 39.313909], [-77.630718, 39.313619], [-77.630214, 39.313512], [-77.629688, 39.313405], [-77.629536, 39.313373], [-77.629096, 39.313304], [-77.62896, 39.31328], [-77.628887, 39.313267], [-77.628513, 39.3132], [-77.628206, 39.313146], [-77.628132, 39.31341], [-77.628114, 39.313478], [-77.628084, 39.313583], [-77.628029, 39.313728], [-77.627949, 39.314141], [-77.62791, 39.31421], [-77.627784, 39.314201], [-77.627641, 39.314103], [-77.627686, 39.314199], [-77.627729, 39.314239], [-77.627768, 39.314268]], "type": "LineString"}}], "metadata": {"attribution": "openrouteservice.org | OpenStreetMap contributors", "service": "routing", "timestamp": 1769468443882, "query": {"coordinates": [[-77.682341, 39.329625], [-77.6277679, 39.3142682]], "profile": "driving-car", "profileName": "driving-car", "format": "geojson"}, "engine": {"version": "9.5.0", "build_date": "2025-10-31T12:33:09Z", "graph_date": "2026-01-25T11:10:32Z", "osm_date": "2026-01-19T01:00:01Z"}}}