{"type": "FeatureCollection", "bbox": [-77.652537, 39.484421, -77.619975, 39.506422], "features": [{"bbox": [-77.652537, 39.484421, -77.619975, 39.506422], "type": "Feature", "properties": {"segments": [{"distance": 3960.0, "duration": 256.7, "steps": [{"distance": 27.7, "duration": 6.6, "type": 11, "instruction": "Head northwest", "name": "-", "way_points": [0, 2]}, {"distance": 2696.8, "duration": 159.8, "type": 0, "instruction": "Turn left onto Old National Pike, US 40 ALT", "name": "Old National Pike, US 40 ALT", "way_points": [2, 62]}, {"distance": 1199.0, "duration": 88.0, "type": 7, "instruction": "Enter the roundabout and take the 2nd exit onto South Main Street, US 40 ALT", "name": "South Main Street, US 40 ALT", "exit_number": 2, "way_points": [62, 95]}, {"distance": 36.5, "duration": 2.2, "type": 0, "instruction": "Turn left onto Potomac Street, MD 34", "name": "Potomac Street, MD 34", "way_points": [95, 96]}, {"distance": 0.0, "duration": 0.0, "type": 10, "instruction": "Arrive at Potomac Street, MD 34, on the left", "name": "-", "way_points": [96, 96]}]}], "extras": {"roadaccessrestrictions": {"values": [[0, 2, 2], [2, 96, 0]], "summary": [{"value": 0.0, "distance": 3932.3, "amount": 99.3}, {"value": 2.0, "distance": 27.7, "amount": 0.7}]}}, "warnings": [{"code": 1, "message": "There may be restrictions on some roads"}], "way_points": [0, 96], "summary": {"distance": 3960.0, "duration": 256.7}}, "geometry": {"coordinates": [[-77.620158, 39.484421], [-77.62016, 39.484422], [-77.619975, 39.4846], [-77.620154, 39.484695], [-77.620277, 39.484757], [-77.620699, 39.484965], [-77.620861, 39.485005], [-77.620974, 39.485014], [-77.62145, 39.484991], [-77.621838, 39.484973], [-77.622268, 39.485031], [-77.62252, 39.485083], [-77.623493, 39.48535], [-77.623811, 39.485413], [-77.624594, 39.485554], [-77.624828, 39.48567], [-77.624948, 39.48576], [-77.625422, 39.48619], [-77.625875, 39.486638], [-77.626031, 39.486711], [-77.626604, 39.486889], [-77.626996, 39.486982], [-77.627844, 39.48709], [-77.628667, 39.487154], [-77.629303, 39.487188], [-77.62946, 39.487197], [-77.629893, 39.487241], [-77.630199, 39.487328], [-77.630719, 39.487449], [-77.630933, 39.487516], [-77.631285, 39.487655], [-77.631509, 39.487762], [-77.631746, 39.487915], [-77.632205, 39.488286], [-77.632638, 39.488585], [-77.634131, 39.489501], [-77.634349, 39.489668], [-77.634957, 39.490263], [-77.635086, 39.49035], [-77.635251, 39.49042], [-77.635386, 39.490451], [-77.636154, 39.490532], [-77.636369, 39.490568], [-77.637114, 39.49078], [-77.637623, 39.490955], [-77.637809, 39.491057], [-77.638038, 39.491222], [-77.63806, 39.49124], [-77.638087, 39.491261], [-77.638457, 39.491551], [-77.638628, 39.491688], [-77.638786, 39.491815], [-77.639457, 39.492354], [-77.639829, 39.492657], [-77.641371, 39.493923], [-77.641829, 39.494337], [-77.643646, 39.496074], [-77.644497, 39.496899], [-77.644565, 39.497003], [-77.644681, 39.497118], [-77.644844, 39.497282], [-77.644879, 39.49735], [-77.644892, 39.497435], [-77.644889, 39.497487], [-77.644909, 39.497537], [-77.64495, 39.497578], [-77.645006, 39.497606], [-77.645072, 39.497618], [-77.645139, 39.497611], [-77.645291, 39.49771], [-77.645548, 39.497956], [-77.645688, 39.498023], [-77.645735, 39.498068], [-77.645924, 39.498248], [-77.64644, 39.498738], [-77.646542, 39.498834], [-77.647064, 39.49933], [-77.64737, 39.499621], [-77.647755, 39.499991], [-77.647993, 39.500216], [-77.648234, 39.500444], [-77.648328, 39.500532], [-77.648482, 39.500677], [-77.64867, 39.500856], [-77.648853, 39.501028], [-77.649416, 39.501559], [-77.649796, 39.501946], [-77.649911, 39.502107], [-77.650071, 39.502381], [-77.650086, 39.502408], [-77.650408, 39.503037], [-77.650487, 39.503191], [-77.651101, 39.504392], [-77.651373, 39.504912], [-77.651807, 39.505763], [-77.652144, 39.506422], [-77.652537, 39.506296]], "type": "LineString"}}], "metadata": {"attribution": "openrouteservice.org | OpenStreetMap contributors", "service": "routing", "timestamp": 1769468444023, "query": {"coordinates": [[-77.620173, 39.484402], [-77.6524907, 39.5062108]], "profile": "driving-car", "profileName": "driving-car", "format": "geojson"}, "engine": {"version": "9.5.0", "build_date": "2025-10-31T12:33:09Z", "graph_date": "2026-01-25T11:10:32Z", "osm_date": "2026-01-19T01:00:01Z"}}}