{"type": "FeatureCollection", "bbox": [-77.62016, 39.397767, -77.403614, 39.4846], "features": [{"bbox": [-77.62016, 39.397767, -77.403614, 39.4846], "type": "Feature", "properties": {"segments": [{"distance": 24344.9, "duration": 1515.8, "steps": [{"distance": 27.7, "duration": 6.6, "type": 11, "instruction": "Head northwest", "name": "-", "way_points": [0, 2]}, {"distance": 14141.8, "duration": 949.4, "type": 1, "instruction": "Turn right onto Old National Pike, US 40 ALT", "name": "Old National Pike, US 40 ALT", "way_points": [2, 227]}, {"distance": 7819.2, "duration": 311.2, "type": 13, "instruction": "Keep right", "name": "-", "way_points": [227, 302]}, {"distance": 314.8, "duration": 22.7, "type": 13, "instruction": "Keep right", "name": "-", "way_points": [302, 305]}, {"distance": 667.3, "duration": 75.2, "type": 12, "instruction": "Keep left", "name": "-", "way_points": [305, 322]}, {"distance": 536.6, "duration": 39.3, "type": 7, "instruction": "Enter the roundabout and take the 1st exit onto East Street", "name": "East Street", "exit_number": 1, "way_points": [322, 337]}, {"distance": 165.2, "duration": 25.6, "type": 5, "instruction": "Turn slight right onto South East Street", "name": "South East Street", "way_points": [337, 340]}, {"distance": 176.8, "duration": 31.8, "type": 0, "instruction": "Turn left onto East All Saints Street", "name": "East All Saints Street", "way_points": [340, 344]}, {"distance": 248.4, "duration": 30.2, "type": 1, "instruction": "Turn right onto South Carroll Street", "name": "South Carroll Street", "way_points": [344, 350]}, {"distance": 247.1, "duration": 23.8, "type": 0, "instruction": "Turn left onto East Patrick Street, MD 144", "name": "East Patrick Street, MD 144", "way_points": [350, 355]}, {"distance": 0.0, "duration": 0.0, "type": 10, "instruction": "Arrive at East Patrick Street, MD 144, on the right", "name": "-", "way_points": [355, 355]}]}], "extras": {"roadaccessrestrictions": {"values": [[0, 2, 2], [2, 355, 0]], "summary": [{"value": 0.0, "distance": 24317.2, "amount": 99.89}, {"value": 2.0, "distance": 27.7, "amount": 0.11}]}}, "warnings": [{"code": 1, "message": "There may be restrictions on some roads"}], "way_points": [0, 355], "summary": {"distance": 24344.9, "duration": 1515.8}}, "geometry": {"coordinates": [[-77.620158, 39.484421], [-77.62016, 39.484422], [-77.619975, 39.4846], [-77.619763, 39.484494], [-77.619381, 39.484319], [-77.618882, 39.484116], [-77.618561, 39.484021], [-77.618241, 39.483973], [-77.617282, 39.483919], [-77.617035, 39.483936], [-77.616619, 39.483998], [-77.616428, 39.483977], [-77.616269, 39.483881], [-77.616065, 39.483627], [-77.615731, 39.483306], [-77.615696, 39.483245], [-77.615663, 39.483182], [-77.615626, 39.483014], [-77.615564, 39.482553], [-77.615338, 39.481649], [-77.615324, 39.481408], [-77.615432, 39.480821], [-77.61541, 39.480661], [-77.615359, 39.480499], [-77.615157, 39.480065], [-77.614987, 39.479793], [-77.614842, 39.479614], [-77.614674, 39.479449], [-77.614503, 39.479311], [-77.614317, 39.479191], [-77.614143, 39.479121], [-77.613744, 39.479018], [-77.613295, 39.47896], [-77.613104, 39.478957], [-77.612937, 39.478966], [-77.612344, 39.479062], [-77.612123, 39.479022], [-77.611963, 39.478918], [-77.611407, 39.478384], [-77.611084, 39.478116], [-77.610888, 39.477979], [-77.610534, 39.477786], [-77.610317, 39.477689], [-77.610123, 39.47763], [-77.609921, 39.477584], [-77.609226, 39.477492], [-77.608979, 39.477433], [-77.608546, 39.47727], [-77.608384, 39.477172], [-77.608295, 39.477107], [-77.607915, 39.476663], [-77.607636, 39.476389], [-77.606598, 39.475653], [-77.6062, 39.475381], [-77.605238, 39.474707], [-77.601012, 39.471792], [-77.600699, 39.471597], [-77.596259, 39.468942], [-77.594015, 39.4676], [-77.592655, 39.466795], [-77.592166, 39.466505], [-77.590592, 39.465578], [-77.58956, 39.464962], [-77.588424, 39.464244], [-77.587997, 39.46392], [-77.587243, 39.463266], [-77.587131, 39.463161], [-77.586235, 39.462322], [-77.585624, 39.461807], [-77.585479, 39.461681], [-77.585199, 39.461489], [-77.583457, 39.460296], [-77.58271, 39.459813], [-77.581771, 39.459205], [-77.580818, 39.458629], [-77.579505, 39.458091], [-77.57891, 39.45792], [-77.578407, 39.457729], [-77.577522, 39.457294], [-77.576507, 39.456897], [-77.575897, 39.456722], [-77.574485, 39.456432], [-77.573173, 39.45597], [-77.571739, 39.45544], [-77.57138, 39.455272], [-77.570175, 39.454452], [-77.569381, 39.453865], [-77.568931, 39.453571], [-77.566655, 39.45237], [-77.566417, 39.452244], [-77.563323, 39.450605], [-77.562721, 39.450299], [-77.562408, 39.450134], [-77.56233, 39.450092], [-77.562064, 39.44995], [-77.559907, 39.448808], [-77.55879, 39.448203], [-77.558446, 39.448001], [-77.558353, 39.447946], [-77.557585, 39.447457], [-77.556263, 39.446588], [-77.555474, 39.446081], [-77.554607, 39.445503], [-77.553303, 39.444641], [-77.552899, 39.444359], [-77.552797, 39.444294], [-77.552509, 39.444148], [-77.552285, 39.444101], [-77.551285, 39.44405], [-77.550747, 39.444033], [-77.550246, 39.444017], [-77.549747, 39.444001], [-77.549479, 39.443992], [-77.548798, 39.443971], [-77.547756, 39.443929], [-77.546755, 39.443888], [-77.54608, 39.443861], [-77.545993, 39.443858], [-77.545773, 39.443849], [-77.545513, 39.443839], [-77.545288, 39.44383], [-77.544854, 39.443812], [-77.544381, 39.443771], [-77.543443, 39.443552], [-77.543055, 39.443459], [-77.5417, 39.443135], [-77.541267, 39.443029], [-77.54086, 39.442925], [-77.54047, 39.442818], [-77.53993, 39.442617], [-77.539598, 39.442487], [-77.539288, 39.442371], [-77.539155, 39.442317], [-77.538892, 39.442217], [-77.538429, 39.442061], [-77.538117, 39.44194], [-77.537596, 39.441738], [-77.53682, 39.441447], [-77.535983, 39.44111], [-77.534526, 39.440564], [-77.534387, 39.44051], [-77.533857, 39.440299], [-77.53185, 39.43954], [-77.530166, 39.438889], [-77.528897, 39.438406], [-77.528043, 39.43808], [-77.527909, 39.438029], [-77.527821, 39.437995], [-77.526938, 39.437658], [-77.526825, 39.437614], [-77.525251, 39.437013], [-77.520925, 39.435416], [-77.520653, 39.43531], [-77.520565, 39.435277], [-77.519031, 39.434663], [-77.518109, 39.434306], [-77.517654, 39.434135], [-77.514682, 39.432992], [-77.514123, 39.432777], [-77.511622, 39.43182], [-77.509621, 39.431069], [-77.508745, 39.430703], [-77.5078, 39.430181], [-77.507106, 39.429772], [-77.506416, 39.429349], [-77.506186, 39.429174], [-77.505864, 39.428821], [-77.505762, 39.42867], [-77.505666, 39.428484], [-77.505548, 39.428144], [-77.505518, 39.427974], [-77.505506, 39.427812], [-77.505516, 39.427477], [-77.505634, 39.426545], [-77.505649, 39.426361], [-77.505639, 39.426114], [-77.505602, 39.425953], [-77.505532, 39.425774], [-77.505446, 39.425614], [-77.505321, 39.425453], [-77.505074, 39.425207], [-77.504676, 39.42489], [-77.504225, 39.424587], [-77.50388, 39.424411], [-77.50343, 39.424235], [-77.503256, 39.424185], [-77.503061, 39.424155], [-77.502716, 39.424163], [-77.50254, 39.424187], [-77.501882, 39.424314], [-77.501698, 39.424372], [-77.501142, 39.424462], [-77.500816, 39.424481], [-77.500585, 39.424451], [-77.500366, 39.424384], [-77.50004, 39.424243], [-77.499865, 39.424121], [-77.499711, 39.423968], [-77.499581, 39.423773], [-77.499056, 39.422833], [-77.498838, 39.422591], [-77.498585, 39.422417], [-77.498395, 39.422307], [-77.498207, 39.422199], [-77.497792, 39.422047], [-77.497362, 39.42199], [-77.496953, 39.422016], [-77.496307, 39.422129], [-77.495517, 39.422309], [-77.495141, 39.422492], [-77.494567, 39.422927], [-77.494277, 39.42308], [-77.493977, 39.423205], [-77.493812, 39.423244], [-77.493488, 39.423282], [-77.493207, 39.423267], [-77.492805, 39.423202], [-77.492308, 39.423107], [-77.49195, 39.42304], [-77.491139, 39.422865], [-77.490881, 39.422814], [-77.490818, 39.422802], [-77.49053, 39.422746], [-77.48903, 39.422453], [-77.488503, 39.42237], [-77.488149, 39.422322], [-77.488057, 39.422266], [-77.487766, 39.422208], [-77.486888, 39.421964], [-77.486521, 39.421812], [-77.48614, 39.421615], [-77.484886, 39.420767], [-77.483241, 39.419701], [-77.48276, 39.419408], [-77.481602, 39.41881], [-77.479729, 39.41771], [-77.47924, 39.417401], [-77.47869, 39.417029], [-77.478081, 39.416577], [-77.477607, 39.4162], [-77.476677, 39.41538], [-77.4758, 39.41449], [-77.475344, 39.413965], [-77.474813, 39.413289], [-77.47413, 39.412301], [-77.473116, 39.410702], [-77.472739, 39.410136], [-77.472384, 39.409667], [-77.472023, 39.409226], [-77.471322, 39.408473], [-77.470915, 39.408082], [-77.470471, 39.407692], [-77.469643, 39.40704], [-77.46914, 39.406687], [-77.468664, 39.406378], [-77.467702, 39.405819], [-77.466738, 39.405335], [-77.465729, 39.404912], [-77.465229, 39.404727], [-77.464638, 39.404526], [-77.464049, 39.404349], [-77.462841, 39.404044], [-77.461727, 39.403834], [-77.460475, 39.40367], [-77.457152, 39.403305], [-77.450846, 39.402609], [-77.450253, 39.402528], [-77.449612, 39.402419], [-77.448714, 39.402236], [-77.448147, 39.402109], [-77.44744, 39.401918], [-77.446654, 39.401691], [-77.445853, 39.401412], [-77.44559, 39.401336], [-77.444697, 39.400994], [-77.444117, 39.400746], [-77.44239, 39.399956], [-77.442062, 39.399804], [-77.441583, 39.399591], [-77.44108, 39.399373], [-77.440374, 39.399098], [-77.440265, 39.399057], [-77.439424, 39.39879], [-77.438395, 39.398506], [-77.437441, 39.398306], [-77.437011, 39.398231], [-77.436501, 39.398152], [-77.435402, 39.398029], [-77.434738, 39.397984], [-77.433485, 39.397932], [-77.428615, 39.397932], [-77.424722, 39.397927], [-77.423852, 39.397927], [-77.422139, 39.397916], [-77.42092, 39.397867], [-77.419772, 39.397789], [-77.419257, 39.397767], [-77.41872, 39.397767], [-77.417827, 39.397816], [-77.417291, 39.39788], [-77.416456, 39.398029], [-77.412361, 39.399054], [-77.408786, 39.399955], [-77.406754, 39.40035], [-77.406115, 39.400428], [-77.405195, 39.400466], [-77.404914, 39.400508], [-77.404718, 39.400554], [-77.404512, 39.400625], [-77.404202, 39.400809], [-77.403956, 39.401084], [-77.403806, 39.401275], [-77.40376, 39.401365], [-77.40372, 39.401436], [-77.403614, 39.401625], [-77.403631, 39.402543], [-77.403631, 39.403141], [-77.403632, 39.403712], [-77.403632, 39.40384], [-77.403639, 39.404419], [-77.403641, 39.405006], [-77.403729, 39.405576], [-77.403706, 39.405828], [-77.403662, 39.405885], [-77.403647, 39.405963], [-77.403671, 39.40603], [-77.40377, 39.406111], [-77.40392, 39.406313], [-77.403999, 39.406535], [-77.404113, 39.406777], [-77.40436, 39.407176], [-77.404833, 39.407811], [-77.405754, 39.408943], [-77.40587, 39.409154], [-77.405947, 39.409371], [-77.405986, 39.409549], [-77.40599, 39.409981], [-77.406076, 39.410169], [-77.406043, 39.411175], [-77.405992, 39.411525], [-77.405973, 39.411652], [-77.40663, 39.411682], [-77.407114, 39.41171], [-77.407163, 39.411713], [-77.408026, 39.411766], [-77.407951, 39.412247], [-77.407896, 39.412601], [-77.407869, 39.412798], [-77.40785, 39.412935], [-77.407754, 39.413575], [-77.407686, 39.413984], [-77.408782, 39.414046], [-77.409077, 39.414061], [-77.40947, 39.414084], [-77.410143, 39.414127], [-77.410552, 39.414151]], "type": "LineString"}}], "metadata": {"attribution": "openrouteservice.org | OpenStreetMap contributors", "service": "routing", "timestamp": 1769468444163, "query": {"coordinates": [[-77.620173, 39.484402], [-77.4105409, 39.4142688]], "profile": "driving-car", "profileName": "driving-car", "format": "geojson"}, "engine": {"version": "9.5.0", "build_date": "2025-10-31T12:33:09Z", "graph_date": "2026-01-25T11:10:32Z", "osm_date": "2026-01-19T01:00:01Z"}}}