{"type": "FeatureCollection", "bbox": [-77.506939, 39.712122, -77.490881, 39.72098], "features": [{"bbox": [-77.506939, 39.712122, -77.490881, 39.72098], "type": "Feature", "properties": {"segments": [{"distance": 2427.8, "duration": 209.0, "steps": [{"distance": 547.6, "duration": 49.4, "type": 11, "instruction": "Head south on Pen Mar Road", "name": "Pen Mar Road", "way_points": [0, 31]}, {"distance": 1880.2, "duration": 159.6, "type": 2, "instruction": "Turn sharp left onto Pen Mar Road", "name": "Pen Mar Road", "way_points": [31, 81]}, {"distance": 0.0, "duration": 0.0, "type": 10, "instruction": "Arrive at Pen Mar Road, on the right", "name": "-", "way_points": [81, 81]}]}], "way_points": [0, 81], "summary": {"distance": 2427.8, "duration": 209.0}}, "geometry": {"coordinates": [[-77.506939, 39.720753], [-77.506931, 39.72073], [-77.506884, 39.720664], [-77.506724, 39.720587], [-77.506616, 39.720574], [-77.506517, 39.72058], [-77.506388, 39.720614], [-77.506257, 39.720671], [-77.506053, 39.720801], [-77.505812, 39.720947], [-77.505741, 39.720972], [-77.50566, 39.72098], [-77.505574, 39.720967], [-77.505514, 39.720938], [-77.505455, 39.720893], [-77.505424, 39.720836], [-77.505411, 39.720736], [-77.505431, 39.720698], [-77.505518, 39.720617], [-77.505969, 39.720407], [-77.506439, 39.720164], [-77.506509, 39.720103], [-77.506553, 39.720036], [-77.506606, 39.719857], [-77.506603, 39.719761], [-77.50662, 39.719395], [-77.506657, 39.719248], [-77.506823, 39.718813], [-77.506836, 39.718631], [-77.506757, 39.718458], [-77.506402, 39.718096], [-77.506242, 39.717983], [-77.506198, 39.718069], [-77.506057, 39.718248], [-77.505891, 39.718388], [-77.505657, 39.718508], [-77.505498, 39.718562], [-77.504788, 39.718798], [-77.504682, 39.718815], [-77.504473, 39.718806], [-77.504256, 39.718729], [-77.503667, 39.718488], [-77.503475, 39.718383], [-77.503324, 39.718275], [-77.503152, 39.718123], [-77.502892, 39.717833], [-77.502724, 39.717642], [-77.502443, 39.717364], [-77.502264, 39.717164], [-77.501876, 39.716498], [-77.501476, 39.715994], [-77.501244, 39.71575], [-77.500921, 39.715458], [-77.500418, 39.715053], [-77.500186, 39.714894], [-77.49976, 39.714654], [-77.499411, 39.714453], [-77.498457, 39.713833], [-77.498438, 39.713821], [-77.498067, 39.71357], [-77.498001, 39.713476], [-77.497984, 39.713388], [-77.498075, 39.712938], [-77.498071, 39.71279], [-77.498005, 39.712593], [-77.497945, 39.71251], [-77.497855, 39.712458], [-77.497675, 39.712385], [-77.497145, 39.712234], [-77.496771, 39.712185], [-77.496361, 39.712165], [-77.49533, 39.712122], [-77.495108, 39.712139], [-77.494921, 39.712215], [-77.494801, 39.712297], [-77.494178, 39.712795], [-77.493286, 39.713475], [-77.492387, 39.714114], [-77.492023, 39.714386], [-77.491293, 39.714931], [-77.491026, 39.715163], [-77.490881, 39.715312]], "type": "LineString"}}], "metadata": {"attribution": "openrouteservice.org | OpenStreetMap contributors", "service": "routing", "timestamp": 1769468444307, "query": {"coordinates": [[-77.50685, 39.720771], [-77.4902726, 39.714960999999995]], "profile": "driving-car", "profileName": "driving-car", "format": "geojson"}, "engine": {"version": "9.5.0", "build_date": "2025-10-31T12:33:09Z", "graph_date": "2026-01-25T11:10:32Z", "osm_date": "2026-01-19T01:00:01Z"}}}