{"type": "FeatureCollection", "bbox": [-77.535101, 39.720753, -77.50693, 39.738887], "features": [{"bbox": [-77.535101, 39.720753, -77.50693, 39.738887], "type": "Feature", "properties": {"segments": [{"distance": 3666.5, "duration": 311.2, "steps": [{"distance": 396.4, "duration": 28.5, "type": 11, "instruction": "Head north on Pen Mar Road", "name": "Pen Mar Road", "way_points": [0, 13]}, {"distance": 2147.8, "duration": 162.8, "type": 6, "instruction": "Continue straight onto Pen Mar Road", "name": "Pen Mar Road", "way_points": [13, 52]}, {"distance": 609.5, "duration": 43.9, "type": 0, "instruction": "Turn left onto Old Route 16", "name": "Old Route 16", "way_points": [52, 58]}, {"distance": 13.5, "duration": 4.9, "type": 1, "instruction": "Turn right onto Old Route 16", "name": "Old Route 16", "way_points": [58, 59]}, {"distance": 183.0, "duration": 27.6, "type": 0, "instruction": "Turn left onto Buchanan Trail East, PA 16", "name": "Buchanan Trail East, PA 16", "way_points": [59, 63]}, {"distance": 230.5, "duration": 22.9, "type": 0, "instruction": "Turn left onto Midvale Road", "name": "Midvale Road", "way_points": [63, 65]}, {"distance": 58.0, "duration": 13.9, "type": 0, "instruction": "Turn left onto Airport Road", "name": "Airport Road", "way_points": [65, 66]}, {"distance": 27.8, "duration": 6.7, "type": 1, "instruction": "Turn right", "name": "-", "way_points": [66, 67]}, {"distance": 0.0, "duration": 0.0, "type": 10, "instruction": "Arrive at your destination, on the right", "name": "-", "way_points": [67, 67]}]}], "way_points": [0, 67], "summary": {"distance": 3666.5, "duration": 311.2}}, "geometry": {"coordinates": [[-77.506939, 39.720753], [-77.506986, 39.720894], [-77.506989, 39.721028], [-77.50693, 39.721592], [-77.506952, 39.721871], [-77.507068, 39.72231], [-77.507123, 39.722423], [-77.507225, 39.722555], [-77.507367, 39.722702], [-77.507575, 39.72287], [-77.507754, 39.722991], [-77.50838, 39.723351], [-77.508665, 39.723547], [-77.508864, 39.723683], [-77.509387, 39.724106], [-77.509973, 39.724593], [-77.51094, 39.725495], [-77.511326, 39.725825], [-77.511962, 39.726359], [-77.512592, 39.72693], [-77.51266, 39.727], [-77.513015, 39.727338], [-77.513546, 39.727723], [-77.513766, 39.72791], [-77.514022, 39.728161], [-77.514267, 39.72838], [-77.514376, 39.728443], [-77.514616, 39.728548], [-77.515063, 39.728699], [-77.515505, 39.728813], [-77.515755, 39.72886], [-77.516602, 39.729038], [-77.51734, 39.729212], [-77.517543, 39.72926], [-77.518969, 39.729618], [-77.520174, 39.729936], [-77.520437, 39.730018], [-77.521781, 39.730511], [-77.522098, 39.730667], [-77.522392, 39.730904], [-77.524112, 39.732599], [-77.52483, 39.733322], [-77.525075, 39.733529], [-77.525424, 39.733705], [-77.525564, 39.733778], [-77.525602, 39.733822], [-77.525634, 39.733932], [-77.525628, 39.734006], [-77.525554, 39.734226], [-77.525427, 39.734563], [-77.52529, 39.734927], [-77.525029, 39.735622], [-77.524837, 39.736134], [-77.525128, 39.736217], [-77.525526, 39.736332], [-77.527927, 39.737078], [-77.529172, 39.73747], [-77.529265, 39.7375], [-77.531439, 39.7382], [-77.531417, 39.738321], [-77.531752, 39.73838], [-77.532243, 39.738507], [-77.53259, 39.738619], [-77.533422, 39.738887], [-77.533905, 39.738381], [-77.535101, 39.737267], [-77.534658, 39.736871], [-77.534867, 39.736681]], "type": "LineString"}}], "metadata": {"attribution": "openrouteservice.org | OpenStreetMap contributors", "service": "routing", "timestamp": 1769468444444, "query": {"coordinates": [[-77.50685, 39.720771], [-77.5349906, 39.7367609]], "profile": "driving-car", "profileName": "driving-car", "format": "geojson"}, "engine": {"version": "9.5.0", "build_date": "2025-10-31T12:33:09Z", "graph_date": "2026-01-25T11:10:32Z", "osm_date": "2026-01-19T01:00:01Z"}}}