{"type": "FeatureCollection", "bbox": [-77.195426, 40.075656, -77.193299, 40.079262], "features": [{"bbox": [-77.195426, 40.075656, -77.193299, 40.079262], "type": "Feature", "properties": {"segments": [{"distance": 442.6, "duration": 21.2, "steps": [{"distance": 442.6, "duration": 21.2, "type": 11, "instruction": "Head southwest on Carlisle Road, PA 34", "name": "Carlisle Road, PA 34", "way_points": [0, 9]}, {"distance": 0.0, "duration": 0.0, "type": 10, "instruction": "Arrive at Carlisle Road, PA 34, on the right", "name": "-", "way_points": [9, 9]}]}], "way_points": [0, 9], "summary": {"distance": 442.6, "duration": 21.2}}, "geometry": {"coordinates": [[-77.193299, 40.079262], [-77.193783, 40.078674], [-77.194241, 40.078016], [-77.194645, 40.077356], [-77.194668, 40.077314], [-77.195029, 40.076712], [-77.19523, 40.076304], [-77.195307, 40.076096], [-77.195424, 40.075676], [-77.195426, 40.075656]], "type": "LineString"}}], "metadata": {"attribution": "openrouteservice.org | OpenStreetMap contributors", "service": "routing", "timestamp": 1769468445051, "query": {"coordinates": [[-77.193332, 40.079278], [-77.195796, 40.0756772]], "profile": "driving-car", "profileName": "driving-car", "format": "geojson"}, "engine": {"version": "9.5.0", "build_date": "2025-10-31T12:33:09Z", "graph_date": "2026-01-25T11:10:32Z", "osm_date": "2026-01-19T01:00:01Z"}}}