{"type": "FeatureCollection", "bbox": [-77.189988, 40.091889, -77.167739, 40.118485], "features": [{"bbox": [-77.189988, 40.091889, -77.167739, 40.118485], "type": "Feature", "properties": {"segments": [{"distance": 3854.8, "duration": 316.8, "steps": [{"distance": 3835.3, "duration": 312.1, "type": 11, "instruction": "Head north on Baltimore Pike, PA 94", "name": "Baltimore Pike, PA 94", "way_points": [0, 70]}, {"distance": 19.5, "duration": 4.7, "type": 0, "instruction": "Turn left onto West Butler Street", "name": "West Butler Street", "way_points": [70, 71]}, {"distance": 0.0, "duration": 0.0, "type": 10, "instruction": "Arrive at West Butler Street, on the left", "name": "-", "way_points": [71, 71]}]}], "way_points": [0, 71], "summary": {"distance": 3854.8, "duration": 316.8}}, "geometry": {"coordinates": [[-77.16782, 40.091889], [-77.167835, 40.091986], [-77.167848, 40.092307], [-77.16775, 40.093358], [-77.167739, 40.093759], [-77.167798, 40.094234], [-77.167948, 40.094777], [-77.168074, 40.095132], [-77.168137, 40.095251], [-77.168278, 40.09545], [-77.168471, 40.095628], [-77.168633, 40.09573], [-77.169813, 40.096375], [-77.170987, 40.096957], [-77.172434, 40.097613], [-77.174187, 40.098436], [-77.174522, 40.098556], [-77.174655, 40.098582], [-77.175015, 40.098584], [-77.17643, 40.098319], [-77.176586, 40.098307], [-77.176736, 40.098321], [-77.176889, 40.098353], [-77.177022, 40.098405], [-77.177122, 40.098467], [-77.177263, 40.098613], [-77.177348, 40.098756], [-77.177996, 40.100255], [-77.178634, 40.101603], [-77.178706, 40.10179], [-77.178754, 40.10202], [-77.178785, 40.102344], [-77.178848, 40.103288], [-77.178872, 40.103671], [-77.178912, 40.10387], [-77.179017, 40.104079], [-77.179138, 40.104213], [-77.17953, 40.104613], [-77.179633, 40.10477], [-77.179695, 40.104953], [-77.179753, 40.105439], [-77.179818, 40.105675], [-77.180145, 40.10632], [-77.180283, 40.10653], [-77.180632, 40.106935], [-77.180919, 40.107211], [-77.181546, 40.107751], [-77.181906, 40.10809], [-77.182511, 40.108754], [-77.182773, 40.108955], [-77.18304, 40.10911], [-77.183257, 40.10925], [-77.183563, 40.109483], [-77.183805, 40.109729], [-77.18414, 40.110116], [-77.186003, 40.112328], [-77.186107, 40.112429], [-77.186286, 40.112579], [-77.186469, 40.112702], [-77.186667, 40.112813], [-77.187394, 40.113155], [-77.187601, 40.113311], [-77.187941, 40.113539], [-77.188261, 40.113781], [-77.18891, 40.114276], [-77.18897, 40.114364], [-77.189012, 40.114483], [-77.189133, 40.115136], [-77.189281, 40.115891], [-77.18942, 40.116642], [-77.189761, 40.118485], [-77.189988, 40.118463]], "type": "LineString"}}], "metadata": {"attribution": "openrouteservice.org | OpenStreetMap contributors", "service": "routing", "timestamp": 1769468445191, "query": {"coordinates": [[-77.167851, 40.091886], [-77.1899817, 40.1184235]], "profile": "driving-car", "profileName": "driving-car", "format": "geojson"}, "engine": {"version": "9.5.0", "build_date": "2025-10-31T12:33:09Z", "graph_date": "2026-01-25T11:10:32Z", "osm_date": "2026-01-19T01:00:01Z"}}}