{"type": "FeatureCollection", "bbox": [-77.164436, 40.093137, -77.158016, 40.096783], "features": [{"bbox": [-77.164436, 40.093137, -77.158016, 40.096783], "type": "Feature", "properties": {"segments": [{"distance": 864.2, "duration": 115.0, "steps": [{"distance": 675.4, "duration": 81.0, "type": 11, "instruction": "Head northeast on Sheet Iron Roof Road", "name": "Sheet Iron Roof Road", "way_points": [0, 18]}, {"distance": 188.8, "duration": 34.0, "type": 1, "instruction": "Turn right", "name": "-", "way_points": [18, 28]}, {"distance": 0.0, "duration": 0.0, "type": 10, "instruction": "Arrive at your destination, on the left", "name": "-", "way_points": [28, 28]}]}], "way_points": [0, 28], "summary": {"distance": 864.2, "duration": 115.0}}, "geometry": {"coordinates": [[-77.164436, 40.093137], [-77.163995, 40.093795], [-77.163372, 40.094621], [-77.163017, 40.095068], [-77.162779, 40.095304], [-77.16264, 40.095394], [-77.162104, 40.09568], [-77.161749, 40.09591], [-77.161278, 40.096069], [-77.160439, 40.096259], [-77.160284, 40.096281], [-77.160107, 40.096277], [-77.159793, 40.096202], [-77.159737, 40.0962], [-77.159607, 40.096215], [-77.159412, 40.09627], [-77.159318, 40.096317], [-77.159199, 40.096405], [-77.15882, 40.096783], [-77.158557, 40.096758], [-77.158429, 40.096725], [-77.158368, 40.096692], [-77.158324, 40.096633], [-77.158144, 40.096252], [-77.158053, 40.096024], [-77.15803, 40.095915], [-77.158016, 40.095774], [-77.158078, 40.095583], [-77.158157, 40.095455]], "type": "LineString"}}], "metadata": {"attribution": "openrouteservice.org | OpenStreetMap contributors", "service": "routing", "timestamp": 1769468445329, "query": {"coordinates": [[-77.164493, 40.093159], [-77.158081, 40.095427]], "profile": "driving-car", "profileName": "driving-car", "format": "geojson"}, "engine": {"version": "9.5.0", "build_date": "2025-10-31T12:33:09Z", "graph_date": "2026-01-25T11:10:32Z", "osm_date": "2026-01-19T01:00:01Z"}}}