{"type": "FeatureCollection", "bbox": [-77.108358, 40.19486, -77.007082, 40.213267], "features": [{"bbox": [-77.108358, 40.19486, -77.007082, 40.213267], "type": "Feature", "properties": {"segments": [{"distance": 9107.4, "duration": 587.2, "steps": [{"distance": 7533.0, "duration": 469.8, "type": 11, "instruction": "Head east on Trindle Road, PA 641", "name": "Trindle Road, PA 641", "way_points": [0, 72]}, {"distance": 80.0, "duration": 11.5, "type": 13, "instruction": "Keep right", "name": "-", "way_points": [72, 74]}, {"distance": 1272.9, "duration": 88.2, "type": 5, "instruction": "Turn slight right onto West Simpson Street", "name": "West Simpson Street", "way_points": [74, 93]}, {"distance": 221.5, "duration": 17.7, "type": 0, "instruction": "Turn left onto South Market Street, PA 114", "name": "South Market Street, PA 114", "way_points": [93, 97]}, {"distance": 0.0, "duration": 0.0, "type": 10, "instruction": "Arrive at South Market Street, PA 114, straight ahead", "name": "-", "way_points": [97, 97]}]}], "way_points": [0, 97], "summary": {"distance": 9107.4, "duration": 587.2}}, "geometry": {"coordinates": [[-77.108358, 40.194916], [-77.106647, 40.194903], [-77.104492, 40.194867], [-77.103985, 40.19486], [-77.102817, 40.194883], [-77.09758, 40.195124], [-77.096905, 40.195165], [-77.094711, 40.195382], [-77.090431, 40.195894], [-77.08841, 40.196118], [-77.087583, 40.196177], [-77.081748, 40.196236], [-77.079743, 40.19627], [-77.078165, 40.196295], [-77.078061, 40.196297], [-77.076582, 40.196331], [-77.073092, 40.196685], [-77.07219, 40.196748], [-77.0717, 40.19677], [-77.068841, 40.19691], [-77.068688, 40.196917], [-77.068657, 40.196919], [-77.06793, 40.196965], [-77.066926, 40.197051], [-77.065518, 40.197164], [-77.064745, 40.197249], [-77.064145, 40.197316], [-77.062942, 40.197477], [-77.062156, 40.197645], [-77.061696, 40.19779], [-77.058955, 40.198732], [-77.058226, 40.198951], [-77.056418, 40.199417], [-77.054718, 40.199882], [-77.053748, 40.200115], [-77.052772, 40.200314], [-77.05091, 40.200646], [-77.050436, 40.200745], [-77.050139, 40.200816], [-77.049843, 40.200877], [-77.046825, 40.201683], [-77.044668, 40.202292], [-77.043008, 40.202789], [-77.042523, 40.202951], [-77.040211, 40.203742], [-77.039565, 40.203962], [-77.039528, 40.203975], [-77.039232, 40.204078], [-77.037963, 40.204522], [-77.037318, 40.204748], [-77.037048, 40.204842], [-77.036241, 40.205132], [-77.035988, 40.205214], [-77.035831, 40.205264], [-77.034018, 40.205889], [-77.033523, 40.206049], [-77.033021, 40.20622], [-77.030503, 40.206994], [-77.030203, 40.207071], [-77.029369, 40.207249], [-77.029242, 40.207272], [-77.029041, 40.207308], [-77.028933, 40.207328], [-77.028784, 40.207355], [-77.028735, 40.207364], [-77.02835, 40.207434], [-77.028087, 40.20748], [-77.027872, 40.207517], [-77.027663, 40.207572], [-77.026995, 40.207752], [-77.026615, 40.207864], [-77.026244, 40.207967], [-77.022662, 40.208973], [-77.021869, 40.209061], [-77.021737, 40.209097], [-77.021324, 40.209118], [-77.020514, 40.209166], [-77.019868, 40.209205], [-77.018886, 40.209294], [-77.017001, 40.209636], [-77.014568, 40.210093], [-77.014419, 40.210121], [-77.013826, 40.210224], [-77.013181, 40.210341], [-77.012488, 40.210469], [-77.011905, 40.210578], [-77.011287, 40.210694], [-77.010215, 40.210877], [-77.009757, 40.210958], [-77.009695, 40.210969], [-77.00829, 40.211205], [-77.007681, 40.211302], [-77.007537, 40.211328], [-77.007082, 40.211414], [-77.007589, 40.212383], [-77.00773, 40.212666], [-77.007815, 40.212829], [-77.008037, 40.213267]], "type": "LineString"}}], "metadata": {"attribution": "openrouteservice.org | OpenStreetMap contributors", "service": "routing", "timestamp": 1769468445470, "query": {"coordinates": [[-77.108359, 40.194864], [-77.0080309, 40.2132692]], "profile": "driving-car", "profileName": "driving-car", "format": "geojson"}, "engine": {"version": "9.5.0", "build_date": "2025-10-31T12:33:09Z", "graph_date": "2026-01-25T11:10:32Z", "osm_date": "2026-01-19T01:00:01Z"}}}