{"type": "FeatureCollection", "bbox": [-76.5324, 40.45009, -76.512243, 40.479999], "features": [{"bbox": [-76.5324, 40.45009, -76.512243, 40.479999], "type": "Feature", "properties": {"segments": [{"distance": 4080.5, "duration": 250.9, "steps": [{"distance": 4080.5, "duration": 250.9, "type": 11, "instruction": "Head southeast on PA 72", "name": "PA 72", "way_points": [0, 49]}, {"distance": 0.0, "duration": 0.0, "type": 10, "instruction": "Arrive at PA 72, on the left", "name": "-", "way_points": [49, 49]}]}], "way_points": [0, 49], "summary": {"distance": 4080.5, "duration": 250.9}}, "geometry": {"coordinates": [[-76.5324, 40.479999], [-76.532386, 40.479992], [-76.529833, 40.47831], [-76.529398, 40.478071], [-76.528921, 40.477887], [-76.528421, 40.477763], [-76.528152, 40.477719], [-76.526919, 40.477594], [-76.526524, 40.477542], [-76.525976, 40.477437], [-76.525664, 40.477355], [-76.523443, 40.476622], [-76.522985, 40.476457], [-76.522621, 40.476302], [-76.522386, 40.476188], [-76.52201, 40.475972], [-76.521745, 40.475794], [-76.52141, 40.475535], [-76.521219, 40.475358], [-76.520956, 40.475069], [-76.520561, 40.47452], [-76.519814, 40.47336], [-76.518944, 40.471978], [-76.517822, 40.470201], [-76.516153, 40.46762], [-76.515558, 40.466621], [-76.51512, 40.465874], [-76.514136, 40.464199], [-76.513621, 40.463333], [-76.513462, 40.463051], [-76.513063, 40.462362], [-76.512889, 40.461997], [-76.51276, 40.461616], [-76.512691, 40.461234], [-76.512654, 40.460664], [-76.512624, 40.459911], [-76.512593, 40.459249], [-76.512503, 40.457351], [-76.512405, 40.455255], [-76.512379, 40.454607], [-76.51236, 40.454269], [-76.512344, 40.453948], [-76.512312, 40.453198], [-76.512274, 40.452254], [-76.512265, 40.451928], [-76.512252, 40.451549], [-76.512243, 40.451246], [-76.512245, 40.450912], [-76.512248, 40.45057], [-76.512249, 40.45009]], "type": "LineString"}}], "metadata": {"attribution": "openrouteservice.org | OpenStreetMap contributors", "service": "routing", "timestamp": 1769468445610, "query": {"coordinates": [[-76.532393, 40.480006], [-76.5119083, 40.4500898]], "profile": "driving-car", "profileName": "driving-car", "format": "geojson"}, "engine": {"version": "9.5.0", "build_date": "2025-10-31T12:33:09Z", "graph_date": "2026-01-25T11:10:32Z", "osm_date": "2026-01-19T01:00:01Z"}}}