{"type": "FeatureCollection", "bbox": [-75.807405, 40.681011, -75.742994, 40.717793], "features": [{"bbox": [-75.807405, 40.681011, -75.742994, 40.717793], "type": "Feature", "properties": {"segments": [{"distance": 8651.2, "duration": 455.5, "steps": [{"distance": 7716.3, "duration": 392.0, "type": 11, "instruction": "Head east on PA 309", "name": "PA 309", "way_points": [0, 79]}, {"distance": 87.8, "duration": 12.6, "type": 13, "instruction": "Keep right", "name": "-", "way_points": [79, 83]}, {"distance": 847.2, "duration": 50.8, "type": 5, "instruction": "Turn slight right onto Decatur Street, PA 143", "name": "Decatur Street, PA 143", "way_points": [83, 100]}, {"distance": 0.0, "duration": 0.0, "type": 10, "instruction": "Arrive at Decatur Street, PA 143, straight ahead", "name": "-", "way_points": [100, 100]}]}], "way_points": [0, 100], "summary": {"distance": 8651.2, "duration": 455.5}}, "geometry": {"coordinates": [[-75.807405, 40.707403], [-75.806211, 40.707584], [-75.804053, 40.707951], [-75.801807, 40.708338], [-75.800887, 40.708572], [-75.800529, 40.708682], [-75.800025, 40.708859], [-75.799179, 40.709215], [-75.798829, 40.709383], [-75.79781, 40.70993], [-75.796267, 40.710782], [-75.794504, 40.711711], [-75.792915, 40.712459], [-75.791975, 40.712871], [-75.790235, 40.713568], [-75.788585, 40.714153], [-75.786055, 40.714962], [-75.779707, 40.717049], [-75.778965, 40.717272], [-75.778215, 40.717475], [-75.777263, 40.717645], [-75.776659, 40.717717], [-75.776049, 40.717769], [-75.775351, 40.717793], [-75.774581, 40.717771], [-75.77359, 40.717683], [-75.772907, 40.717576], [-75.771988, 40.717377], [-75.771333, 40.717191], [-75.77058, 40.716933], [-75.769964, 40.716674], [-75.769389, 40.716386], [-75.76881, 40.716045], [-75.768447, 40.715815], [-75.767954, 40.715462], [-75.767475, 40.715081], [-75.766966, 40.714605], [-75.766476, 40.714049], [-75.765709, 40.713081], [-75.765454, 40.712758], [-75.765368, 40.71265], [-75.763119, 40.709836], [-75.76305, 40.709751], [-75.761966, 40.708346], [-75.761578, 40.707842], [-75.760709, 40.706702], [-75.759262, 40.704861], [-75.757309, 40.702375], [-75.7572, 40.702236], [-75.755679, 40.7003], [-75.755197, 40.699688], [-75.754259, 40.698491], [-75.75374, 40.697819], [-75.752571, 40.696304], [-75.752204, 40.695828], [-75.751799, 40.695303], [-75.750955, 40.694231], [-75.750573, 40.693754], [-75.75049, 40.693651], [-75.749739, 40.692718], [-75.748886, 40.691631], [-75.748763, 40.691474], [-75.748252, 40.690827], [-75.747977, 40.690477], [-75.747338, 40.68966], [-75.747123, 40.689403], [-75.746938, 40.689167], [-75.746828, 40.689025], [-75.746607, 40.688742], [-75.746238, 40.688269], [-75.746101, 40.688086], [-75.745911, 40.687847], [-75.745408, 40.687212], [-75.745074, 40.68679], [-75.744958, 40.686643], [-75.744862, 40.686522], [-75.743792, 40.685152], [-75.743396, 40.684643], [-75.743211, 40.684405], [-75.743161, 40.684276], [-75.743017, 40.684013], [-75.742994, 40.683893], [-75.743015, 40.683796], [-75.743213, 40.683554], [-75.74346, 40.683453], [-75.743688, 40.683335], [-75.743984, 40.683144], [-75.745496, 40.681872], [-75.745861, 40.681611], [-75.746178, 40.681456], [-75.746525, 40.681343], [-75.746874, 40.68128], [-75.747102, 40.681264], [-75.749156, 40.681283], [-75.749632, 40.681271], [-75.750881, 40.681221], [-75.751324, 40.681202], [-75.751616, 40.681171], [-75.75177, 40.681133], [-75.752027, 40.68102], [-75.752043, 40.681011]], "type": "LineString"}}], "metadata": {"attribution": "openrouteservice.org | OpenStreetMap contributors", "service": "routing", "timestamp": 1769468446082, "query": {"coordinates": [[-75.807413, 40.707433], [-75.752039, 40.681007]], "profile": "driving-car", "profileName": "driving-car", "format": "geojson"}, "engine": {"version": "9.5.0", "build_date": "2025-10-31T12:33:09Z", "graph_date": "2026-01-25T11:10:32Z", "osm_date": "2026-01-19T01:00:01Z"}}}