{"type": "FeatureCollection", "bbox": [-75.608892, 40.75259, -75.606175, 40.781349], "features": [{"bbox": [-75.608892, 40.75259, -75.606175, 40.781349], "type": "Feature", "properties": {"segments": [{"distance": 3303.1, "duration": 269.5, "steps": [{"distance": 289.4, "duration": 69.5, "type": 11, "instruction": "Head south on Paint Mill Road", "name": "Paint Mill Road", "way_points": [0, 6]}, {"distance": 67.2, "duration": 16.1, "type": 1, "instruction": "Turn right", "name": "-", "way_points": [6, 7]}, {"distance": 2943.8, "duration": 183.5, "type": 2, "instruction": "Turn sharp left onto PA 873", "name": "PA 873", "way_points": [7, 39]}, {"distance": 2.7, "duration": 0.4, "type": 1, "instruction": "Turn right onto Main Street, PA 873", "name": "Main Street, PA 873", "way_points": [39, 40]}, {"distance": 0.0, "duration": 0.0, "type": 10, "instruction": "Arrive at Main Street, PA 873, on the right", "name": "-", "way_points": [40, 40]}]}], "way_points": [0, 40], "summary": {"distance": 3303.1, "duration": 269.5}}, "geometry": {"coordinates": [[-75.608268, 40.781349], [-75.608174, 40.780387], [-75.608096, 40.779902], [-75.608059, 40.779516], [-75.608073, 40.779189], [-75.608113, 40.778962], [-75.608111, 40.778757], [-75.608892, 40.778878], [-75.60832, 40.777064], [-75.608222, 40.77675], [-75.608147, 40.776408], [-75.608115, 40.77611], [-75.608063, 40.774599], [-75.608023, 40.773477], [-75.608013, 40.772974], [-75.608051, 40.772479], [-75.608101, 40.772112], [-75.60812, 40.771717], [-75.608023, 40.770264], [-75.60786, 40.767545], [-75.607839, 40.767182], [-75.607812, 40.766668], [-75.607771, 40.765899], [-75.607743, 40.76536], [-75.60755, 40.76197], [-75.607527, 40.761583], [-75.607515, 40.761368], [-75.607496, 40.761035], [-75.607445, 40.760146], [-75.607247, 40.756636], [-75.607238, 40.756471], [-75.607175, 40.75612], [-75.607059, 40.755785], [-75.606769, 40.755181], [-75.606729, 40.755101], [-75.606517, 40.754643], [-75.606371, 40.754134], [-75.606312, 40.753638], [-75.606251, 40.753136], [-75.606175, 40.752593], [-75.606207, 40.75259]], "type": "LineString"}}], "metadata": {"attribution": "openrouteservice.org | OpenStreetMap contributors", "service": "routing", "timestamp": 1769468555396, "query": {"coordinates": [[-75.608253, 40.78135], [-75.6062105, 40.752612299999996]], "profile": "driving-car", "profileName": "driving-car", "format": "geojson"}, "engine": {"version": "9.5.0", "build_date": "2025-10-31T12:33:09Z", "graph_date": "2026-01-25T11:10:32Z", "osm_date": "2026-01-19T01:00:01Z"}}}