{"type": "FeatureCollection", "bbox": [-75.609138, 40.754262, -75.593796, 40.783865], "features": [{"bbox": [-75.609138, 40.754262, -75.593796, 40.783865], "type": "Feature", "properties": {"segments": [{"distance": 4768.8, "duration": 354.9, "steps": [{"distance": 289.4, "duration": 69.5, "type": 11, "instruction": "Head south on Paint Mill Road", "name": "Paint Mill Road", "way_points": [0, 6]}, {"distance": 67.2, "duration": 16.1, "type": 1, "instruction": "Turn right", "name": "-", "way_points": [6, 7]}, {"distance": 649.7, "duration": 63.3, "type": 1, "instruction": "Turn right onto PA 873", "name": "PA 873", "way_points": [7, 17]}, {"distance": 266.2, "duration": 26.4, "type": 3, "instruction": "Turn sharp right onto Lehigh Drive, PA 248", "name": "Lehigh Drive, PA 248", "way_points": [17, 25]}, {"distance": 2956.9, "duration": 125.2, "type": 3, "instruction": "Turn sharp right onto Riverview Drive, PA 145", "name": "Riverview Drive, PA 145", "way_points": [25, 70]}, {"distance": 539.5, "duration": 54.4, "type": 1, "instruction": "Turn right onto Main Street", "name": "Main Street", "way_points": [70, 82]}, {"distance": 0.0, "duration": 0.0, "type": 10, "instruction": "Arrive at Main Street, straight ahead", "name": "-", "way_points": [82, 82]}]}], "way_points": [0, 82], "summary": {"distance": 4768.8, "duration": 354.9}}, "geometry": {"coordinates": [[-75.608268, 40.781349], [-75.608174, 40.780387], [-75.608096, 40.779902], [-75.608059, 40.779516], [-75.608073, 40.779189], [-75.608113, 40.778962], [-75.608111, 40.778757], [-75.608892, 40.778878], [-75.609067, 40.779453], [-75.609138, 40.779817], [-75.609125, 40.780185], [-75.609068, 40.780423], [-75.608977, 40.780658], [-75.608731, 40.781012], [-75.608582, 40.781175], [-75.608443, 40.781311], [-75.606012, 40.783632], [-75.605767, 40.783865], [-75.605588, 40.783672], [-75.605117, 40.783102], [-75.604844, 40.782805], [-75.604606, 40.782577], [-75.604416, 40.782421], [-75.604085, 40.782243], [-75.603866, 40.782153], [-75.603704, 40.782131], [-75.603803, 40.781975], [-75.603813, 40.781844], [-75.603177, 40.781253], [-75.602954, 40.780988], [-75.602756, 40.780699], [-75.601915, 40.779138], [-75.601667, 40.778764], [-75.60077, 40.777684], [-75.600552, 40.777369], [-75.600439, 40.777169], [-75.600339, 40.776972], [-75.600191, 40.776425], [-75.600155, 40.775966], [-75.600287, 40.773699], [-75.600241, 40.77328], [-75.599865, 40.771684], [-75.599794, 40.77148], [-75.599719, 40.771296], [-75.599601, 40.771083], [-75.599003, 40.770242], [-75.597948, 40.768842], [-75.597606, 40.768376], [-75.596966, 40.767574], [-75.596323, 40.766708], [-75.595913, 40.766081], [-75.595651, 40.765618], [-75.595474, 40.765199], [-75.595344, 40.764805], [-75.595251, 40.764493], [-75.595038, 40.763285], [-75.594802, 40.761923], [-75.594725, 40.761642], [-75.594678, 40.76137], [-75.594565, 40.760777], [-75.594457, 40.760194], [-75.594346, 40.759674], [-75.594315, 40.759542], [-75.594228, 40.75918], [-75.594124, 40.758704], [-75.594099, 40.758593], [-75.593989, 40.758013], [-75.593959, 40.757895], [-75.593937, 40.757806], [-75.593925, 40.757758], [-75.593796, 40.757221], [-75.594252, 40.757023], [-75.594307, 40.756995], [-75.594373, 40.756961], [-75.594804, 40.756741], [-75.595175, 40.75656], [-75.596232, 40.756091], [-75.596522, 40.755962], [-75.59734, 40.755477], [-75.597465, 40.755411], [-75.597619, 40.755303], [-75.598412, 40.754621], [-75.598797, 40.754262]], "type": "LineString"}}], "metadata": {"attribution": "openrouteservice.org | OpenStreetMap contributors", "service": "routing", "timestamp": 1769468555610, "query": {"coordinates": [[-75.608253, 40.78135], [-75.5987971, 40.754261899999996]], "profile": "driving-car", "profileName": "driving-car", "format": "geojson"}, "engine": {"version": "9.5.0", "build_date": "2025-10-31T12:33:09Z", "graph_date": "2026-01-25T11:10:32Z", "osm_date": "2026-01-19T01:00:01Z"}}}