{"type": "FeatureCollection", "bbox": [-75.542437, 40.794795, -75.532933, 40.807832], "features": [{"bbox": [-75.542437, 40.794795, -75.532933, 40.807832], "type": "Feature", "properties": {"segments": [{"distance": 2497.2, "duration": 177.9, "steps": [{"distance": 2497.2, "duration": 177.9, "type": 11, "instruction": "Head south on Blue Mountain Drive", "name": "Blue Mountain Drive", "way_points": [0, 51]}, {"distance": 0.0, "duration": 0.0, "type": 10, "instruction": "Arrive at Blue Mountain Drive, straight ahead", "name": "-", "way_points": [51, 51]}]}], "way_points": [0, 51], "summary": {"distance": 2497.2, "duration": 177.9}}, "geometry": {"coordinates": [[-75.53468, 40.807832], [-75.534729, 40.807498], [-75.534726, 40.807308], [-75.534655, 40.806839], [-75.534537, 40.806182], [-75.53448, 40.805871], [-75.534261, 40.804659], [-75.534274, 40.804356], [-75.534354, 40.804075], [-75.534516, 40.803798], [-75.534655, 40.803641], [-75.534869, 40.803449], [-75.535044, 40.803322], [-75.535435, 40.803078], [-75.535815, 40.802862], [-75.536248, 40.80269], [-75.537185, 40.802456], [-75.537653, 40.802214], [-75.538154, 40.801933], [-75.538513, 40.801669], [-75.539339, 40.800985], [-75.539868, 40.800656], [-75.54033, 40.800408], [-75.541278, 40.799994], [-75.541676, 40.799803], [-75.542089, 40.799496], [-75.542248, 40.79934], [-75.542377, 40.799144], [-75.542437, 40.798922], [-75.542423, 40.798687], [-75.542354, 40.798456], [-75.542148, 40.798198], [-75.541876, 40.797997], [-75.54153, 40.797872], [-75.541186, 40.797833], [-75.54078, 40.797856], [-75.540568, 40.797899], [-75.5381, 40.798398], [-75.536648, 40.798689], [-75.536148, 40.798761], [-75.535913, 40.798764], [-75.535795, 40.798743], [-75.535459, 40.798675], [-75.535236, 40.798571], [-75.535064, 40.79846], [-75.53494, 40.798355], [-75.534847, 40.798223], [-75.534738, 40.798071], [-75.534523, 40.797707], [-75.533331, 40.795608], [-75.532978, 40.794854], [-75.532933, 40.794795]], "type": "LineString"}}], "metadata": {"attribution": "openrouteservice.org | OpenStreetMap contributors", "service": "routing", "timestamp": 1769468555768, "query": {"coordinates": [[-75.534697, 40.807833], [-75.5329397, 40.794792199999996]], "profile": "driving-car", "profileName": "driving-car", "format": "geojson"}, "engine": {"version": "9.5.0", "build_date": "2025-10-31T12:33:09Z", "graph_date": "2026-01-25T11:10:32Z", "osm_date": "2026-01-19T01:00:01Z"}}}