{"type": "FeatureCollection", "bbox": [-75.004952, 41.032222, -75.001269, 41.034774], "features": [{"bbox": [-75.004952, 41.032222, -75.001269, 41.034774], "type": "Feature", "properties": {"segments": [{"distance": 428.6, "duration": 77.1, "steps": [{"distance": 428.6, "duration": 77.1, "type": 11, "instruction": "Head northeast on Camp Mohican Road", "name": "Camp Mohican Road", "way_points": [0, 13]}, {"distance": 0.0, "duration": 0.0, "type": 10, "instruction": "Arrive at Camp Mohican Road, on the left", "name": "-", "way_points": [13, 13]}]}], "way_points": [0, 13], "summary": {"distance": 428.6, "duration": 77.1}}, "geometry": {"coordinates": [[-75.004952, 41.032222], [-75.004887, 41.032314], [-75.004737, 41.032491], [-75.003964, 41.033182], [-75.00369, 41.033458], [-75.003507, 41.033608], [-75.003356, 41.033682], [-75.002873, 41.033823], [-75.002711, 41.033902], [-75.002165, 41.034334], [-75.001994, 41.034421], [-75.001491, 41.034624], [-75.001288, 41.034758], [-75.001269, 41.034774]], "type": "LineString"}}], "metadata": {"attribution": "openrouteservice.org | OpenStreetMap contributors", "service": "routing", "timestamp": 1769468556115, "query": {"coordinates": [[-75.00496, 41.032225], [-75.001586, 41.034995099999996]], "profile": "driving-car", "profileName": "driving-car", "format": "geojson"}, "engine": {"version": "9.5.0", "build_date": "2025-10-31T12:33:09Z", "graph_date": "2026-01-25T11:10:32Z", "osm_date": "2026-01-19T01:00:01Z"}}}