{"type": "FeatureCollection", "bbox": [-74.792114, 41.146488, -74.752403, 41.177251], "features": [{"bbox": [-74.792114, 41.146488, -74.752403, 41.177251], "type": "Feature", "properties": {"segments": [{"distance": 5483.7, "duration": 319.9, "steps": [{"distance": 12.2, "duration": 0.7, "type": 11, "instruction": "Head southwest on Upper North Shore Road, CR 636", "name": "Upper North Shore Road, CR 636", "way_points": [0, 2]}, {"distance": 4673.2, "duration": 253.6, "type": 0, "instruction": "Turn left onto US 206, CR 521", "name": "US 206, CR 521", "way_points": [2, 67]}, {"distance": 798.4, "duration": 65.6, "type": 0, "instruction": "Turn left onto Main Street, CR 630", "name": "Main Street, CR 630", "way_points": [67, 83]}, {"distance": 0.0, "duration": 0.0, "type": 10, "instruction": "Arrive at Main Street, CR 630, on the left", "name": "-", "way_points": [83, 83]}]}], "way_points": [0, 83], "summary": {"distance": 5483.7, "duration": 319.9}}, "geometry": {"coordinates": [[-74.791211, 41.177251], [-74.791228, 41.17724], [-74.791303, 41.177169], [-74.791129, 41.177059], [-74.790918, 41.176919], [-74.790506, 41.176593], [-74.790145, 41.176233], [-74.789732, 41.175704], [-74.789531, 41.175331], [-74.789374, 41.174903], [-74.78921, 41.174383], [-74.789153, 41.17381], [-74.789196, 41.17323], [-74.789331, 41.172762], [-74.789527, 41.172339], [-74.789884, 41.171798], [-74.791488, 41.170073], [-74.791698, 41.169792], [-74.791876, 41.169498], [-74.791993, 41.169246], [-74.792061, 41.169023], [-74.792114, 41.168692], [-74.792061, 41.168356], [-74.791974, 41.168147], [-74.79189, 41.167996], [-74.791306, 41.167149], [-74.790705, 41.166357], [-74.790541, 41.16613], [-74.790105, 41.165523], [-74.789439, 41.16458], [-74.78857, 41.163417], [-74.788409, 41.163159], [-74.78825, 41.16294], [-74.788099, 41.162733], [-74.787882, 41.162436], [-74.787265, 41.161589], [-74.786465, 41.160492], [-74.786348, 41.160362], [-74.786181, 41.160177], [-74.78564, 41.159637], [-74.785441, 41.159438], [-74.784622, 41.158619], [-74.783637, 41.15778], [-74.783196, 41.157452], [-74.782273, 41.156821], [-74.780961, 41.156125], [-74.780301, 41.155856], [-74.7792, 41.155437], [-74.778726, 41.155296], [-74.778477, 41.155222], [-74.777531, 41.15498], [-74.772134, 41.153822], [-74.770903, 41.153561], [-74.769717, 41.153269], [-74.768626, 41.152924], [-74.767417, 41.152426], [-74.766632, 41.152049], [-74.765911, 41.151611], [-74.765413, 41.151276], [-74.765049, 41.151032], [-74.764817, 41.150876], [-74.764017, 41.150352], [-74.763731, 41.150159], [-74.763396, 41.149921], [-74.763087, 41.149708], [-74.762802, 41.149511], [-74.761851, 41.148849], [-74.761113, 41.148353], [-74.760858, 41.148496], [-74.760764, 41.148511], [-74.760673, 41.148474], [-74.760043, 41.147992], [-74.759581, 41.147644], [-74.759297, 41.147483], [-74.759026, 41.147355], [-74.758661, 41.147232], [-74.758211, 41.147127], [-74.757768, 41.147055], [-74.757148, 41.147008], [-74.754324, 41.146937], [-74.753823, 41.146812], [-74.75261, 41.146507], [-74.752492, 41.146488], [-74.752403, 41.146491]], "type": "LineString"}}], "metadata": {"attribution": "openrouteservice.org | OpenStreetMap contributors", "service": "routing", "timestamp": 1769468556262, "query": {"coordinates": [[-74.791199, 41.177241], [-74.7524045, 41.1465171]], "profile": "driving-car", "profileName": "driving-car", "format": "geojson"}, "engine": {"version": "9.5.0", "build_date": "2025-10-31T12:33:09Z", "graph_date": "2026-01-25T11:10:32Z", "osm_date": "2026-01-19T01:00:01Z"}}}