{"type": "FeatureCollection", "bbox": [-74.497926, 41.248086, -74.48738, 41.251804], "features": [{"bbox": [-74.497926, 41.248086, -74.48738, 41.251804], "type": "Feature", "properties": {"segments": [{"distance": 1057.9, "duration": 80.9, "steps": [{"distance": 1045.6, "duration": 77.9, "type": 11, "instruction": "Head northeast on Glenwood Road, CR 565", "name": "Glenwood Road, CR 565", "way_points": [0, 27]}, {"distance": 12.3, "duration": 2.9, "type": 2, "instruction": "Turn sharp left", "name": "-", "way_points": [27, 28]}, {"distance": 0.0, "duration": 0.0, "type": 10, "instruction": "Arrive at your destination, on the right", "name": "-", "way_points": [28, 28]}]}], "way_points": [0, 28], "summary": {"distance": 1057.9, "duration": 80.9}}, "geometry": {"coordinates": [[-74.497926, 41.248086], [-74.497661, 41.248303], [-74.496936, 41.248892], [-74.496228, 41.249467], [-74.496141, 41.249537], [-74.495714, 41.24975], [-74.495431, 41.249848], [-74.49503, 41.249938], [-74.49429, 41.25003], [-74.493751, 41.250076], [-74.493239, 41.250102], [-74.492365, 41.250114], [-74.491585, 41.250078], [-74.491192, 41.250063], [-74.490952, 41.25009], [-74.490794, 41.250132], [-74.490714, 41.250173], [-74.490602, 41.250237], [-74.490141, 41.250759], [-74.489814, 41.251057], [-74.489744, 41.251121], [-74.489392, 41.25142], [-74.489116, 41.251593], [-74.48898, 41.251659], [-74.488754, 41.251728], [-74.488302, 41.251755], [-74.487655, 41.25174], [-74.48738, 41.251706], [-74.487445, 41.251804]], "type": "LineString"}}], "metadata": {"attribution": "openrouteservice.org | OpenStreetMap contributors", "service": "routing", "timestamp": 1769468556426, "query": {"coordinates": [[-74.498034, 41.24816], [-74.4873918, 41.251824]], "profile": "driving-car", "profileName": "driving-car", "format": "geojson"}, "engine": {"version": "9.5.0", "build_date": "2025-10-31T12:33:09Z", "graph_date": "2026-01-25T11:10:32Z", "osm_date": "2026-01-19T01:00:01Z"}}}