{"type": "FeatureCollection", "bbox": [-74.45544, 41.219175, -74.413816, 41.234595], "features": [{"bbox": [-74.45544, 41.219175, -74.413816, 41.234595], "type": "Feature", "properties": {"segments": [{"distance": 4157.7, "duration": 247.3, "steps": [{"distance": 4157.7, "duration": 247.3, "type": 11, "instruction": "Head northeast on Vernon Warwick Road, NJ 94, CR 515", "name": "Vernon Warwick Road, NJ 94, CR 515", "way_points": [0, 71]}, {"distance": 0.0, "duration": 0.0, "type": 10, "instruction": "Arrive at Vernon Warwick Road, NJ 94, CR 515, on the right", "name": "-", "way_points": [71, 71]}]}], "way_points": [0, 71], "summary": {"distance": 4157.7, "duration": 247.3}}, "geometry": {"coordinates": [[-74.45544, 41.219175], [-74.455051, 41.219734], [-74.454751, 41.220113], [-74.454534, 41.220258], [-74.454303, 41.220375], [-74.45418, 41.220438], [-74.453874, 41.220559], [-74.453399, 41.220708], [-74.451656, 41.221201], [-74.451406, 41.221304], [-74.450307, 41.221812], [-74.447772, 41.223087], [-74.447156, 41.223421], [-74.446837, 41.223535], [-74.44651, 41.22362], [-74.444043, 41.224213], [-74.443569, 41.224396], [-74.443179, 41.224594], [-74.442759, 41.224832], [-74.442302, 41.225023], [-74.441707, 41.225238], [-74.440343, 41.225767], [-74.43906, 41.226447], [-74.437971, 41.227064], [-74.436425, 41.228093], [-74.43612, 41.228341], [-74.435871, 41.228572], [-74.435487, 41.229058], [-74.435355, 41.229384], [-74.434756, 41.23128], [-74.434661, 41.231437], [-74.434492, 41.231588], [-74.434275, 41.23171], [-74.434144, 41.23176], [-74.433666, 41.231886], [-74.433404, 41.231916], [-74.433155, 41.231924], [-74.431751, 41.231882], [-74.431282, 41.231884], [-74.43089, 41.231907], [-74.429792, 41.232009], [-74.428701, 41.23216], [-74.427902, 41.232215], [-74.427631, 41.232212], [-74.427364, 41.23219], [-74.426154, 41.232028], [-74.425281, 41.231942], [-74.424925, 41.231907], [-74.424138, 41.23181], [-74.423457, 41.231747], [-74.423384, 41.231743], [-74.422468, 41.231734], [-74.421944, 41.231755], [-74.421675, 41.231783], [-74.421182, 41.231871], [-74.420417, 41.232056], [-74.419937, 41.232187], [-74.419629, 41.23229], [-74.419514, 41.232334], [-74.419387, 41.232382], [-74.418965, 41.232582], [-74.418773, 41.232716], [-74.418343, 41.232977], [-74.417782, 41.233316], [-74.417213, 41.233597], [-74.416529, 41.233839], [-74.416501, 41.233848], [-74.415814, 41.234041], [-74.414418, 41.234377], [-74.414288, 41.234413], [-74.414014, 41.234497], [-74.413816, 41.234595]], "type": "LineString"}}], "metadata": {"attribution": "openrouteservice.org | OpenStreetMap contributors", "service": "routing", "timestamp": 1769468556633, "query": {"coordinates": [[-74.455204, 41.219082], [-74.4137664, 41.234539]], "profile": "driving-car", "profileName": "driving-car", "format": "geojson"}, "engine": {"version": "9.5.0", "build_date": "2025-10-31T12:33:09Z", "graph_date": "2026-01-25T11:10:32Z", "osm_date": "2026-01-19T01:00:01Z"}}}