{"type": "FeatureCollection", "bbox": [-74.39164, 41.201281, -74.369754, 41.264763], "features": [{"bbox": [-74.39164, 41.201281, -74.369754, 41.264763], "type": "Feature", "properties": {"segments": [{"distance": 8875.2, "duration": 763.4, "steps": [{"distance": 4365.7, "duration": 314.3, "type": 11, "instruction": "Head north on Warwick Turnpike", "name": "Warwick Turnpike", "way_points": [0, 70]}, {"distance": 1331.3, "duration": 73.7, "type": 1, "instruction": "Turn right onto State Highway 94, NY 94", "name": "State Highway 94, NY 94", "way_points": [70, 83]}, {"distance": 2305.8, "duration": 166.0, "type": 0, "instruction": "Turn left onto County Road 1A, CR 1A", "name": "County Road 1A, CR 1A", "way_points": [83, 115]}, {"distance": 809.9, "duration": 194.4, "type": 1, "instruction": "Turn right onto Sanfordville Road", "name": "Sanfordville Road", "way_points": [115, 127]}, {"distance": 62.5, "duration": 15.0, "type": 3, "instruction": "Turn sharp right", "name": "-", "way_points": [127, 129]}, {"distance": 0.0, "duration": 0.0, "type": 10, "instruction": "Arrive at your destination, on the left", "name": "-", "way_points": [129, 129]}]}], "way_points": [0, 129], "summary": {"distance": 8875.2, "duration": 763.4}}, "geometry": {"coordinates": [[-74.39164, 41.201281], [-74.3915, 41.201556], [-74.389714, 41.203948], [-74.388621, 41.205478], [-74.388197, 41.206072], [-74.387831, 41.206585], [-74.38777, 41.20667], [-74.387188, 41.207485], [-74.387094, 41.207617], [-74.386438, 41.20831], [-74.385435, 41.209172], [-74.385066, 41.209648], [-74.384132, 41.210374], [-74.383371, 41.211085], [-74.382459, 41.211916], [-74.381582, 41.212711], [-74.381264, 41.213115], [-74.380782, 41.213974], [-74.380534, 41.214543], [-74.380474, 41.214739], [-74.380443, 41.215002], [-74.380457, 41.215442], [-74.380556, 41.216032], [-74.380647, 41.216579], [-74.380673, 41.216879], [-74.380645, 41.217156], [-74.380594, 41.217354], [-74.380405, 41.218095], [-74.380315, 41.218571], [-74.38008, 41.220081], [-74.37996, 41.220859], [-74.379814, 41.222235], [-74.379703, 41.222741], [-74.379584, 41.223043], [-74.379346, 41.223481], [-74.378998, 41.22396], [-74.378734, 41.224282], [-74.378499, 41.224616], [-74.378401, 41.224808], [-74.378353, 41.224974], [-74.37829, 41.225386], [-74.378286, 41.22562], [-74.378305, 41.225807], [-74.37839, 41.2261], [-74.378712, 41.227001], [-74.379443, 41.229112], [-74.379644, 41.229597], [-74.379982, 41.230437], [-74.380016, 41.230695], [-74.379984, 41.231087], [-74.379909, 41.231388], [-74.379824, 41.231618], [-74.379601, 41.232264], [-74.379568, 41.232469], [-74.379581, 41.232796], [-74.379639, 41.233133], [-74.3797, 41.233301], [-74.379781, 41.23345], [-74.380033, 41.233814], [-74.380355, 41.234164], [-74.380513, 41.234304], [-74.380796, 41.234514], [-74.38092, 41.234606], [-74.381316, 41.234899], [-74.381456, 41.235003], [-74.381642, 41.235176], [-74.381843, 41.235407], [-74.381915, 41.235505], [-74.381934, 41.235531], [-74.382368, 41.236126], [-74.382812, 41.236744], [-74.382263, 41.237087], [-74.381925, 41.237298], [-74.381833, 41.237356], [-74.381818, 41.237364], [-74.381015, 41.237798], [-74.380433, 41.238084], [-74.378687, 41.23885], [-74.376595, 41.24011], [-74.375609, 41.240644], [-74.374334, 41.241266], [-74.373911, 41.241487], [-74.37172, 41.242583], [-74.369754, 41.243569], [-74.370786, 41.244824], [-74.371356, 41.245491], [-74.371518, 41.245656], [-74.371729, 41.245839], [-74.372118, 41.246089], [-74.37243, 41.246254], [-74.372676, 41.246358], [-74.375822, 41.247364], [-74.376206, 41.247547], [-74.376456, 41.247704], [-74.377182, 41.248223], [-74.377431, 41.248382], [-74.378605, 41.249216], [-74.378962, 41.249501], [-74.379447, 41.249995], [-74.380041, 41.250819], [-74.380713, 41.251905], [-74.381078, 41.252499], [-74.381367, 41.252969], [-74.382751, 41.255455], [-74.383517, 41.256659], [-74.383646, 41.256833], [-74.383789, 41.256994], [-74.383957, 41.257134], [-74.384188, 41.257264], [-74.384481, 41.257381], [-74.384654, 41.257429], [-74.384913, 41.257463], [-74.38531, 41.257489], [-74.386596, 41.257518], [-74.387005, 41.257571], [-74.387586, 41.257721], [-74.387478, 41.257968], [-74.38737, 41.258291], [-74.387252, 41.258728], [-74.387111, 41.259244], [-74.386667, 41.260608], [-74.386518, 41.261014], [-74.386191, 41.261949], [-74.386128, 41.262144], [-74.385977, 41.262613], [-74.385687, 41.263362], [-74.385375, 41.26407], [-74.38513, 41.264763], [-74.384737, 41.264594], [-74.384501, 41.264461]], "type": "LineString"}}], "metadata": {"attribution": "openrouteservice.org | OpenStreetMap contributors", "service": "routing", "timestamp": 1769468556772, "query": {"coordinates": [[-74.391346, 41.201196], [-74.3822058, 41.2638494]], "profile": "driving-car", "profileName": "driving-car", "format": "geojson"}, "engine": {"version": "9.5.0", "build_date": "2025-10-31T12:33:09Z", "graph_date": "2026-01-25T11:10:32Z", "osm_date": "2026-01-19T01:00:01Z"}}}