{"type": "FeatureCollection", "bbox": [-74.310735, 41.241439, -74.285163, 41.250345], "features": [{"bbox": [-74.310735, 41.241439, -74.285163, 41.250345], "type": "Feature", "properties": {"segments": [{"distance": 2711.6, "duration": 150.2, "steps": [{"distance": 2711.6, "duration": 150.2, "type": 11, "instruction": "Head southwest on State Highway 17A, NY 17A", "name": "State Highway 17A, NY 17A", "way_points": [0, 54]}, {"distance": 0.0, "duration": 0.0, "type": 10, "instruction": "Arrive at State Highway 17A, NY 17A, on the right", "name": "-", "way_points": [54, 54]}]}], "way_points": [0, 54], "summary": {"distance": 2711.6, "duration": 150.2}}, "geometry": {"coordinates": [[-74.285163, 41.245721], [-74.286154, 41.244771], [-74.286405, 41.244601], [-74.286675, 41.244468], [-74.287168, 41.244302], [-74.28748, 41.244244], [-74.287665, 41.244224], [-74.288007, 41.244214], [-74.288299, 41.244232], [-74.288848, 41.244333], [-74.289112, 41.244411], [-74.289543, 41.244517], [-74.289859, 41.244556], [-74.290051, 41.24456], [-74.290337, 41.244538], [-74.290658, 41.244459], [-74.290988, 41.244311], [-74.291281, 41.24412], [-74.292191, 41.243455], [-74.292475, 41.243275], [-74.293735, 41.242702], [-74.29398, 41.242561], [-74.294673, 41.242106], [-74.294968, 41.241929], [-74.295124, 41.241855], [-74.295358, 41.24176], [-74.296007, 41.241587], [-74.296387, 41.241502], [-74.296678, 41.241455], [-74.296949, 41.241439], [-74.297304, 41.241454], [-74.297661, 41.241518], [-74.297922, 41.241605], [-74.298232, 41.241738], [-74.298407, 41.24184], [-74.298638, 41.242019], [-74.299258, 41.242617], [-74.300267, 41.243591], [-74.300308, 41.243631], [-74.300347, 41.243669], [-74.301388, 41.244673], [-74.301925, 41.245166], [-74.302198, 41.245387], [-74.302595, 41.245654], [-74.303733, 41.246319], [-74.304727, 41.246895], [-74.305181, 41.247156], [-74.30769, 41.248609], [-74.30832, 41.248964], [-74.308553, 41.249095], [-74.308845, 41.249262], [-74.30982, 41.24982], [-74.310561, 41.250245], [-74.310638, 41.250288], [-74.310735, 41.250345]], "type": "LineString"}}], "metadata": {"attribution": "openrouteservice.org | OpenStreetMap contributors", "service": "routing", "timestamp": 1769468556937, "query": {"coordinates": [[-74.285195, 41.24574], [-74.3107068, 41.250371699999995]], "profile": "driving-car", "profileName": "driving-car", "format": "geojson"}, "engine": {"version": "9.5.0", "build_date": "2025-10-31T12:33:09Z", "graph_date": "2026-01-25T11:10:32Z", "osm_date": "2026-01-19T01:00:01Z"}}}