{"type": "FeatureCollection", "bbox": [-74.294367, 41.222486, -74.280822, 41.24775], "features": [{"bbox": [-74.294367, 41.222486, -74.280822, 41.24775], "type": "Feature", "properties": {"segments": [{"distance": 3649.7, "duration": 224.4, "steps": [{"distance": 2806.7, "duration": 169.2, "type": 11, "instruction": "Head northeast on State Highway 17A, NY 17A", "name": "State Highway 17A, NY 17A", "way_points": [0, 46]}, {"distance": 833.2, "duration": 54.5, "type": 13, "instruction": "Keep right onto Windermere Avenue, NY 210", "name": "Windermere Avenue, NY 210", "way_points": [46, 62]}, {"distance": 9.8, "duration": 0.6, "type": 1, "instruction": "Turn right onto Jersey Avenue, NY 210", "name": "Jersey Avenue, NY 210", "way_points": [62, 63]}, {"distance": 0.0, "duration": 0.0, "type": 10, "instruction": "Arrive at Jersey Avenue, NY 210, on the right", "name": "-", "way_points": [63, 63]}]}], "way_points": [0, 63], "summary": {"distance": 3649.7, "duration": 224.4}}, "geometry": {"coordinates": [[-74.285163, 41.245721], [-74.28348, 41.247333], [-74.28335, 41.247435], [-74.283131, 41.247565], [-74.282851, 41.247671], [-74.282667, 41.247719], [-74.282256, 41.24775], [-74.282013, 41.247726], [-74.281745, 41.247659], [-74.281439, 41.247529], [-74.281228, 41.247391], [-74.28107, 41.247249], [-74.280939, 41.247055], [-74.280856, 41.246875], [-74.280822, 41.246717], [-74.280826, 41.246497], [-74.280869, 41.246324], [-74.280966, 41.246119], [-74.281032, 41.246022], [-74.281082, 41.245944], [-74.281575, 41.245173], [-74.282917, 41.242928], [-74.283142, 41.242629], [-74.283584, 41.24211], [-74.284147, 41.241491], [-74.285789, 41.239619], [-74.286649, 41.238559], [-74.28803, 41.23693], [-74.288266, 41.236697], [-74.28859, 41.23642], [-74.288937, 41.236169], [-74.289224, 41.235919], [-74.289338, 41.235797], [-74.289493, 41.235591], [-74.289902, 41.234903], [-74.290053, 41.2346], [-74.290154, 41.234325], [-74.290205, 41.233945], [-74.290201, 41.233712], [-74.290184, 41.233586], [-74.290106, 41.233314], [-74.289931, 41.232893], [-74.288702, 41.230247], [-74.288595, 41.230015], [-74.288212, 41.229206], [-74.288231, 41.229068], [-74.288305, 41.228427], [-74.288394, 41.22817], [-74.288481, 41.227995], [-74.288663, 41.227766], [-74.288829, 41.227617], [-74.28904, 41.22745], [-74.289672, 41.226947], [-74.290167, 41.226559], [-74.290635, 41.226192], [-74.290785, 41.226075], [-74.290984, 41.225911], [-74.291612, 41.225375], [-74.292157, 41.224811], [-74.292861, 41.224049], [-74.293376, 41.223479], [-74.293873, 41.222944], [-74.294266, 41.222486], [-74.294367, 41.22253]], "type": "LineString"}}], "metadata": {"attribution": "openrouteservice.org | OpenStreetMap contributors", "service": "routing", "timestamp": 1769468557084, "query": {"coordinates": [[-74.285195, 41.24574], [-74.294317, 41.222594199999996]], "profile": "driving-car", "profileName": "driving-car", "format": "geojson"}, "engine": {"version": "9.5.0", "build_date": "2025-10-31T12:33:09Z", "graph_date": "2026-01-25T11:10:32Z", "osm_date": "2026-01-19T01:00:01Z"}}}