{"type": "FeatureCollection", "bbox": [-73.989248, 41.312984, -73.98845, 41.316073], "features": [{"bbox": [-73.989248, 41.312984, -73.98845, 41.316073], "type": "Feature", "properties": {"segments": [{"distance": 445.3, "duration": 50.7, "steps": [{"distance": 171.4, "duration": 7.3, "type": 11, "instruction": "Head southeast on US 9W, US 202", "name": "US 9W, US 202", "way_points": [0, 5]}, {"distance": 128.4, "duration": 10.3, "type": 13, "instruction": "Keep right onto Seven Lakes Drive", "name": "Seven Lakes Drive", "way_points": [5, 8]}, {"distance": 25.8, "duration": 9.3, "type": 13, "instruction": "Keep right", "name": "-", "way_points": [8, 9]}, {"distance": 28.6, "duration": 5.2, "type": 1, "instruction": "Turn right", "name": "-", "way_points": [9, 11]}, {"distance": 38.5, "duration": 9.2, "type": 0, "instruction": "Turn left", "name": "-", "way_points": [11, 12]}, {"distance": 52.5, "duration": 9.5, "type": 0, "instruction": "Turn left", "name": "-", "way_points": [12, 19]}, {"distance": 0.0, "duration": 0.0, "type": 10, "instruction": "Arrive at your destination, on the right", "name": "-", "way_points": [19, 19]}]}], "way_points": [0, 19], "summary": {"distance": 445.3, "duration": 50.7}}, "geometry": {"coordinates": [[-73.989248, 41.316073], [-73.989131, 41.315902], [-73.988999, 41.315649], [-73.988791, 41.315038], [-73.988692, 41.314862], [-73.988517, 41.314643], [-73.98845, 41.314118], [-73.98847, 41.313865], [-73.988539, 41.313494], [-73.98877, 41.31334], [-73.988906, 41.313361], [-73.989103, 41.313321], [-73.989004, 41.312984], [-73.98895, 41.312996], [-73.988707, 41.313058], [-73.988655, 41.313079], [-73.988621, 41.313123], [-73.988618, 41.313162], [-73.988639, 41.313242], [-73.988653, 41.313261]], "type": "LineString"}}], "metadata": {"attribution": "openrouteservice.org | OpenStreetMap contributors", "service": "routing", "timestamp": 1769468557221, "query": {"coordinates": [[-73.989487, 41.315981], [-73.9886424, 41.313265099999995]], "profile": "driving-car", "profileName": "driving-car", "format": "geojson"}, "engine": {"version": "9.5.0", "build_date": "2025-10-31T12:33:09Z", "graph_date": "2026-01-25T11:10:32Z", "osm_date": "2026-01-19T01:00:01Z"}}}