{"type": "FeatureCollection", "bbox": [-73.920584, 41.349143, -73.919587, 41.352478], "features": [{"bbox": [-73.920584, 41.349143, -73.919587, 41.352478], "type": "Feature", "properties": {"segments": [{"distance": 513.2, "duration": 99.3, "steps": [{"distance": 94.5, "duration": 17.0, "type": 11, "instruction": "Head southwest on Graymoor Village Road", "name": "Graymoor Village Road", "way_points": [0, 5]}, {"distance": 302.3, "duration": 54.4, "type": 12, "instruction": "Keep left onto St Anthony Way", "name": "St Anthony Way", "way_points": [5, 14]}, {"distance": 116.3, "duration": 27.9, "type": 3, "instruction": "Turn sharp right", "name": "-", "way_points": [14, 18]}, {"distance": 0.0, "duration": 0.0, "type": 10, "instruction": "Arrive at your destination, on the left", "name": "-", "way_points": [18, 18]}]}], "way_points": [0, 18], "summary": {"distance": 513.2, "duration": 99.3}}, "geometry": {"coordinates": [[-73.919716, 41.352478], [-73.919767, 41.352453], [-73.919901, 41.352368], [-73.920024, 41.352264], [-73.920132, 41.352127], [-73.920277, 41.351768], [-73.920103, 41.350872], [-73.919951, 41.350617], [-73.91991, 41.350356], [-73.919915, 41.350166], [-73.919871, 41.350065], [-73.919698, 41.349795], [-73.919604, 41.349591], [-73.919587, 41.349377], [-73.919679, 41.349143], [-73.919963, 41.349406], [-73.920316, 41.349524], [-73.920431, 41.349735], [-73.920584, 41.349886]], "type": "LineString"}}], "metadata": {"attribution": "openrouteservice.org | OpenStreetMap contributors", "service": "routing", "timestamp": 1769468557360, "query": {"coordinates": [[-73.919728, 41.352491], [-73.920959, 41.3498679]], "profile": "driving-car", "profileName": "driving-car", "format": "geojson"}, "engine": {"version": "9.5.0", "build_date": "2025-10-31T12:33:09Z", "graph_date": "2026-01-25T11:10:32Z", "osm_date": "2026-01-19T01:00:01Z"}}}