{"type": "FeatureCollection", "bbox": [-73.745499, 41.540775, -73.731193, 41.570314], "features": [{"bbox": [-73.745499, 41.540775, -73.731193, 41.570314], "type": "Feature", "properties": {"segments": [{"distance": 3741.1, "duration": 232.7, "steps": [{"distance": 2762.2, "duration": 165.7, "type": 11, "instruction": "Head north on State Route 52, NY 52", "name": "State Route 52, NY 52", "way_points": [0, 39]}, {"distance": 978.9, "duration": 66.9, "type": 13, "instruction": "Keep right onto Old State Road", "name": "Old State Road", "way_points": [39, 59]}, {"distance": 0.0, "duration": 0.0, "type": 10, "instruction": "Arrive at Old State Road, on the right", "name": "-", "way_points": [59, 59]}]}], "way_points": [0, 59], "summary": {"distance": 3741.1, "duration": 232.7}}, "geometry": {"coordinates": [[-73.733074, 41.540775], [-73.733055, 41.540817], [-73.732904, 41.541177], [-73.732801, 41.541412], [-73.732733, 41.54168], [-73.732586, 41.542514], [-73.732498, 41.543383], [-73.73243, 41.544268], [-73.732413, 41.544722], [-73.732393, 41.545289], [-73.732318, 41.547924], [-73.73228, 41.548349], [-73.732243, 41.548564], [-73.732127, 41.548953], [-73.731959, 41.54932], [-73.731637, 41.549932], [-73.731441, 41.550317], [-73.731325, 41.55064], [-73.731259, 41.55084], [-73.731193, 41.551295], [-73.731229, 41.551946], [-73.731323, 41.552324], [-73.731577, 41.552882], [-73.731784, 41.553196], [-73.731913, 41.553355], [-73.732101, 41.553541], [-73.732453, 41.553839], [-73.733647, 41.554662], [-73.735239, 41.555763], [-73.736965, 41.557044], [-73.737213, 41.557196], [-73.738403, 41.558049], [-73.738959, 41.558432], [-73.739293, 41.558722], [-73.739509, 41.558965], [-73.739769, 41.55937], [-73.739918, 41.559689], [-73.7404, 41.56101], [-73.740924, 41.562628], [-73.740989, 41.562781], [-73.740866, 41.563261], [-73.740831, 41.563534], [-73.740758, 41.564098], [-73.740699, 41.564533], [-73.74059, 41.565036], [-73.740601, 41.565232], [-73.740611, 41.565403], [-73.740662, 41.565536], [-73.740799, 41.565739], [-73.74102, 41.566022], [-73.741092, 41.566087], [-73.741433, 41.56641], [-73.741704, 41.566673], [-73.742265, 41.567214], [-73.742854, 41.567734], [-73.743248, 41.567959], [-73.743534, 41.568191], [-73.744097, 41.568788], [-73.745145, 41.570001], [-73.745499, 41.570314]], "type": "LineString"}}], "metadata": {"attribution": "openrouteservice.org | OpenStreetMap contributors", "service": "routing", "timestamp": 1769468557910, "query": {"coordinates": [[-73.733025, 41.540763], [-73.7454088, 41.5703713]], "profile": "driving-car", "profileName": "driving-car", "format": "geojson"}, "engine": {"version": "9.5.0", "build_date": "2025-10-31T12:33:09Z", "graph_date": "2026-01-25T11:10:32Z", "osm_date": "2026-01-19T01:00:01Z"}}}