{"type": "FeatureCollection", "bbox": [-73.566749, 41.64414, -73.51662, 41.654939], "features": [{"bbox": [-73.566749, 41.64414, -73.51662, 41.654939], "type": "Feature", "properties": {"segments": [{"distance": 5568.9, "duration": 377.2, "steps": [{"distance": 4033.4, "duration": 252.5, "type": 11, "instruction": "Head southwest on Route 55 West, CT 55", "name": "Route 55 West, CT 55", "way_points": [0, 65]}, {"distance": 970.3, "duration": 58.2, "type": 0, "instruction": "Turn left onto State Highway 55, NY 55", "name": "State Highway 55, NY 55", "way_points": [65, 82]}, {"distance": 408.4, "duration": 28.9, "type": 1, "instruction": "Turn right onto Pleasant Ridge Road, CR 21", "name": "Pleasant Ridge Road, CR 21", "way_points": [82, 89]}, {"distance": 83.0, "duration": 19.9, "type": 0, "instruction": "Turn left onto Cottage Avenue", "name": "Cottage Avenue", "way_points": [89, 91]}, {"distance": 73.8, "duration": 17.7, "type": 1, "instruction": "Turn right onto Cottage Avenue", "name": "Cottage Avenue", "way_points": [91, 92]}, {"distance": 0.0, "duration": 0.0, "type": 10, "instruction": "Arrive at Cottage Avenue, on the right", "name": "-", "way_points": [92, 92]}]}], "way_points": [0, 92], "summary": {"distance": 5568.9, "duration": 377.2}}, "geometry": {"coordinates": [[-73.51662, 41.646846], [-73.516837, 41.646665], [-73.517061, 41.646449], [-73.518012, 41.645554], [-73.518315, 41.64528], [-73.518625, 41.645049], [-73.51894, 41.644872], [-73.519226, 41.644751], [-73.519527, 41.644651], [-73.520482, 41.644427], [-73.521246, 41.644267], [-73.521586, 41.644211], [-73.522019, 41.644163], [-73.522405, 41.64414], [-73.522934, 41.644143], [-73.52413, 41.644174], [-73.524284, 41.64418], [-73.524827, 41.644233], [-73.525395, 41.644355], [-73.525981, 41.644552], [-73.526277, 41.644684], [-73.526522, 41.644813], [-73.526818, 41.645002], [-73.527117, 41.645231], [-73.527239, 41.645339], [-73.527475, 41.645578], [-73.527703, 41.64587], [-73.527892, 41.646171], [-73.528191, 41.646913], [-73.528562, 41.647832], [-73.529067, 41.649065], [-73.529934, 41.651204], [-73.530064, 41.651514], [-73.530209, 41.651802], [-73.530407, 41.652052], [-73.530656, 41.652328], [-73.530831, 41.652473], [-73.53093, 41.652559], [-73.531325, 41.652809], [-73.531589, 41.652934], [-73.531729, 41.653002], [-73.532132, 41.653149], [-73.532561, 41.653264], [-73.533008, 41.653348], [-73.533557, 41.653386], [-73.533764, 41.653381], [-73.534295, 41.653367], [-73.537668, 41.653187], [-73.538419, 41.653178], [-73.538491, 41.653188], [-73.539222, 41.6533], [-73.540322, 41.65359], [-73.54086, 41.653698], [-73.541439, 41.653782], [-73.542331, 41.65387], [-73.544454, 41.654128], [-73.545301, 41.654198], [-73.547414, 41.65428], [-73.547728, 41.654318], [-73.549253, 41.654653], [-73.549928, 41.654724], [-73.550672, 41.65477], [-73.551394, 41.654793], [-73.555562, 41.654939], [-73.555812, 41.654929], [-73.55604, 41.654887], [-73.555865, 41.654607], [-73.555791, 41.654379], [-73.555783, 41.654017], [-73.555821, 41.653349], [-73.555844, 41.653204], [-73.555903, 41.653027], [-73.555998, 41.652848], [-73.556138, 41.652682], [-73.556679, 41.652203], [-73.55709, 41.651813], [-73.557633, 41.651205], [-73.558318, 41.6504], [-73.55858, 41.650109], [-73.559312, 41.649364], [-73.560555, 41.648085], [-73.560813, 41.647784], [-73.561078, 41.64742], [-73.562174, 41.647347], [-73.562875, 41.647297], [-73.563471, 41.647254], [-73.564615, 41.647175], [-73.564899, 41.647146], [-73.56523, 41.6471], [-73.565953, 41.646985], [-73.565949, 41.646768], [-73.565863, 41.646243], [-73.566749, 41.646206]], "type": "LineString"}}], "metadata": {"attribution": "openrouteservice.org | OpenStreetMap contributors", "service": "routing", "timestamp": 1769468558047, "query": {"coordinates": [[-73.516667, 41.646877], [-73.5667744, 41.6465446]], "profile": "driving-car", "profileName": "driving-car", "format": "geojson"}, "engine": {"version": "9.5.0", "build_date": "2025-10-31T12:33:09Z", "graph_date": "2026-01-25T11:10:32Z", "osm_date": "2026-01-19T01:00:01Z"}}}