{"type": "FeatureCollection", "bbox": [-73.51662, 41.638525, -73.483981, 41.64862], "features": [{"bbox": [-73.51662, 41.638525, -73.483981, 41.64862], "type": "Feature", "properties": {"segments": [{"distance": 3968.6, "duration": 277.5, "steps": [{"distance": 3871.9, "duration": 271.2, "type": 11, "instruction": "Head northeast on Route 55 West, CT 55", "name": "Route 55 West, CT 55", "way_points": [0, 86]}, {"distance": 96.8, "duration": 6.3, "type": 1, "instruction": "Turn right onto Kent Road, US 7", "name": "Kent Road, US 7", "way_points": [86, 89]}, {"distance": 0.0, "duration": 0.0, "type": 10, "instruction": "Arrive at Kent Road, US 7, on the right", "name": "-", "way_points": [89, 89]}]}], "way_points": [0, 89], "summary": {"distance": 3968.6, "duration": 277.5}}, "geometry": {"coordinates": [[-73.51662, 41.646846], [-73.516565, 41.646892], [-73.515995, 41.647208], [-73.515654, 41.647338], [-73.515361, 41.647413], [-73.513749, 41.647673], [-73.513526, 41.64772], [-73.513146, 41.647826], [-73.513131, 41.647831], [-73.512163, 41.648269], [-73.511916, 41.648359], [-73.511703, 41.648416], [-73.511356, 41.648475], [-73.511089, 41.648502], [-73.51058, 41.648527], [-73.510452, 41.648532], [-73.508514, 41.648619], [-73.50839, 41.64862], [-73.507888, 41.648578], [-73.507508, 41.648506], [-73.507081, 41.648356], [-73.506889, 41.648255], [-73.506477, 41.647973], [-73.505339, 41.647035], [-73.505029, 41.646803], [-73.504329, 41.646323], [-73.503839, 41.64601], [-73.503503, 41.645768], [-73.503251, 41.645554], [-73.503134, 41.64542], [-73.503016, 41.645231], [-73.502904, 41.644953], [-73.502648, 41.644025], [-73.502539, 41.643732], [-73.502391, 41.643335], [-73.502136, 41.642773], [-73.50196, 41.642461], [-73.501733, 41.642165], [-73.501494, 41.641909], [-73.500446, 41.640769], [-73.500293, 41.640608], [-73.500268, 41.640582], [-73.498674, 41.638887], [-73.498485, 41.638727], [-73.498357, 41.638648], [-73.498146, 41.63856], [-73.497885, 41.638525], [-73.497724, 41.638535], [-73.497522, 41.638578], [-73.497417, 41.638622], [-73.497177, 41.63878], [-73.496764, 41.639199], [-73.496519, 41.639559], [-73.496343, 41.639954], [-73.496277, 41.640218], [-73.496224, 41.6408], [-73.49621, 41.641053], [-73.496158, 41.641784], [-73.496112, 41.641988], [-73.496045, 41.642172], [-73.495847, 41.642554], [-73.495755, 41.642682], [-73.495519, 41.642966], [-73.495232, 41.643251], [-73.494713, 41.643736], [-73.494348, 41.644033], [-73.494014, 41.644246], [-73.493539, 41.644498], [-73.493145, 41.644656], [-73.492224, 41.644967], [-73.491941, 41.645045], [-73.491597, 41.645118], [-73.491235, 41.645156], [-73.490771, 41.645169], [-73.490253, 41.645113], [-73.488912, 41.644884], [-73.488589, 41.644876], [-73.488314, 41.644906], [-73.488128, 41.644953], [-73.487754, 41.645106], [-73.486052, 41.645967], [-73.485958, 41.646001], [-73.485917, 41.646016], [-73.48504, 41.646331], [-73.484681, 41.646434], [-73.484516, 41.646453], [-73.483981, 41.646451], [-73.484044, 41.645921], [-73.484069, 41.645693], [-73.484072, 41.645584]], "type": "LineString"}}], "metadata": {"attribution": "openrouteservice.org | OpenStreetMap contributors", "service": "routing", "timestamp": 1769468558187, "query": {"coordinates": [[-73.516667, 41.646877], [-73.4842711, 41.645586699999996]], "profile": "driving-car", "profileName": "driving-car", "format": "geojson"}, "engine": {"version": "9.5.0", "build_date": "2025-10-31T12:33:09Z", "graph_date": "2026-01-25T11:10:32Z", "osm_date": "2026-01-19T01:00:01Z"}}}