{"type": "FeatureCollection", "bbox": [-73.386791, 41.818759, -73.370771, 41.82307], "features": [{"bbox": [-73.386791, 41.818759, -73.370771, 41.82307], "type": "Feature", "properties": {"segments": [{"distance": 1469.9, "duration": 125.0, "steps": [{"distance": 1060.3, "duration": 72.1, "type": 11, "instruction": "Head east on Cornwall Bridge Road, CT 4", "name": "Cornwall Bridge Road, CT 4", "way_points": [0, 19]}, {"distance": 379.3, "duration": 49.3, "type": 5, "instruction": "Turn slight right onto Cornwall Bridge Road, US 7, CT 4", "name": "Cornwall Bridge Road, US 7, CT 4", "way_points": [19, 24]}, {"distance": 30.3, "duration": 3.6, "type": 12, "instruction": "Keep left onto Furnace Brook Road, CT 4", "name": "Furnace Brook Road, CT 4", "way_points": [24, 25]}, {"distance": 0.0, "duration": 0.0, "type": 10, "instruction": "Arrive at Furnace Brook Road, CT 4, on the left", "name": "-", "way_points": [25, 25]}]}], "way_points": [0, 25], "summary": {"distance": 1469.9, "duration": 125.0}}, "geometry": {"coordinates": [[-73.386791, 41.82307], [-73.386641, 41.823057], [-73.386461, 41.823018], [-73.386104, 41.822919], [-73.385806, 41.822815], [-73.385445, 41.822645], [-73.385116, 41.822431], [-73.384573, 41.822033], [-73.38409, 41.821702], [-73.383698, 41.82148], [-73.383044, 41.821223], [-73.38277, 41.82115], [-73.382508, 41.821098], [-73.381926, 41.821036], [-73.381353, 41.821034], [-73.378135, 41.821194], [-73.377175, 41.821161], [-73.376519, 41.821093], [-73.375677, 41.82093], [-73.374926, 41.820752], [-73.374571, 41.8206], [-73.373768, 41.82022], [-73.372905, 41.819793], [-73.371699, 41.819198], [-73.371088, 41.818895], [-73.370771, 41.818759]], "type": "LineString"}}], "metadata": {"attribution": "openrouteservice.org | OpenStreetMap contributors", "service": "routing", "timestamp": 1769468558321, "query": {"coordinates": [[-73.386784, 41.82311], [-73.3707551, 41.818779299999996]], "profile": "driving-car", "profileName": "driving-car", "format": "geojson"}, "engine": {"version": "9.5.0", "build_date": "2025-10-31T12:33:09Z", "graph_date": "2026-01-25T11:10:32Z", "osm_date": "2026-01-19T01:00:01Z"}}}