{"type": "FeatureCollection", "bbox": [-73.39112, 41.863736, -73.361629, 41.873425], "features": [{"bbox": [-73.39112, 41.863736, -73.361629, 41.873425], "type": "Feature", "properties": {"segments": [{"distance": 3653.1, "duration": 302.4, "steps": [{"distance": 3319.2, "duration": 239.0, "type": 11, "instruction": "Head southeast on West Cornwall Road", "name": "West Cornwall Road", "way_points": [0, 64]}, {"distance": 29.6, "duration": 1.9, "type": 5, "instruction": "Turn slight right onto Route 7, US 7", "name": "Route 7, US 7", "way_points": [64, 65]}, {"distance": 289.6, "duration": 58.0, "type": 12, "instruction": "Keep left onto Cornwall Sharon Turnpike, CT 128", "name": "Cornwall Sharon Turnpike, CT 128", "way_points": [65, 75]}, {"distance": 14.7, "duration": 3.5, "type": 1, "instruction": "Turn right onto Railroad Street", "name": "Railroad Street", "way_points": [75, 76]}, {"distance": 0.0, "duration": 0.0, "type": 10, "instruction": "Arrive at Railroad Street, on the right", "name": "-", "way_points": [76, 76]}]}], "way_points": [0, 76], "summary": {"distance": 3653.1, "duration": 302.4}}, "geometry": {"coordinates": [[-73.39112, 41.873425], [-73.3908, 41.873156], [-73.390064, 41.872637], [-73.388004, 41.871644], [-73.387653, 41.871464], [-73.387309, 41.871251], [-73.386969, 41.870989], [-73.386306, 41.87034], [-73.385992, 41.869988], [-73.384718, 41.868394], [-73.384329, 41.867973], [-73.383753, 41.867506], [-73.382447, 41.86657], [-73.382108, 41.866315], [-73.381584, 41.865968], [-73.380093, 41.86513], [-73.379292, 41.864703], [-73.378643, 41.864315], [-73.378486, 41.864231], [-73.37816, 41.864058], [-73.377853, 41.86393], [-73.377618, 41.86384], [-73.377323, 41.863772], [-73.377052, 41.863736], [-73.376633, 41.863807], [-73.376256, 41.863934], [-73.375746, 41.864298], [-73.37551, 41.864529], [-73.375278, 41.864842], [-73.375121, 41.865007], [-73.374932, 41.865162], [-73.373123, 41.866275], [-73.372879, 41.866449], [-73.372823, 41.866541], [-73.372766, 41.866695], [-73.372791, 41.867313], [-73.372778, 41.867374], [-73.372702, 41.86747], [-73.372632, 41.867512], [-73.372534, 41.867545], [-73.372423, 41.86756], [-73.372208, 41.867554], [-73.371254, 41.867448], [-73.371077, 41.86751], [-73.370975, 41.867605], [-73.370878, 41.867763], [-73.370039, 41.869795], [-73.369921, 41.869972], [-73.369636, 41.870202], [-73.368951, 41.870699], [-73.368518, 41.871233], [-73.368346, 41.871508], [-73.36828, 41.871718], [-73.368284, 41.871844], [-73.368328, 41.871944], [-73.368723, 41.872369], [-73.368799, 41.872544], [-73.368805, 41.872703], [-73.368775, 41.872838], [-73.368657, 41.872923], [-73.368534, 41.872944], [-73.36836, 41.872932], [-73.368176, 41.872893], [-73.366273, 41.872268], [-73.365303, 41.872003], [-73.365084, 41.871792], [-73.364494, 41.871588], [-73.364243, 41.87153], [-73.364106, 41.871548], [-73.36378, 41.871575], [-73.363454, 41.871601], [-73.363127, 41.871614], [-73.362799, 41.871606], [-73.361915, 41.871583], [-73.361762, 41.871579], [-73.361666, 41.871581], [-73.361629, 41.871452]], "type": "LineString"}}], "metadata": {"attribution": "openrouteservice.org | OpenStreetMap contributors", "service": "routing", "timestamp": 1769468558458, "query": {"coordinates": [[-73.391134, 41.873416], [-73.361796, 41.8714254]], "profile": "driving-car", "profileName": "driving-car", "format": "geojson"}, "engine": {"version": "9.5.0", "build_date": "2025-10-31T12:33:09Z", "graph_date": "2026-01-25T11:10:32Z", "osm_date": "2026-01-19T01:00:01Z"}}}