{"type": "FeatureCollection", "bbox": [-73.476856, 41.873162, -73.390808, 41.888128], "features": [{"bbox": [-73.476856, 41.873162, -73.390808, 41.888128], "type": "Feature", "properties": {"segments": [{"distance": 8403.4, "duration": 630.4, "steps": [{"distance": 7386.0, "duration": 538.9, "type": 11, "instruction": "Head northwest on West Cornwall Road", "name": "West Cornwall Road", "way_points": [0, 128]}, {"distance": 1017.4, "duration": 91.6, "type": 0, "instruction": "Turn left onto Gay Street, CT 41", "name": "Gay Street, CT 41", "way_points": [128, 142]}, {"distance": 0.0, "duration": 0.0, "type": 10, "instruction": "Arrive at Gay Street, CT 41, on the right", "name": "-", "way_points": [142, 142]}]}], "way_points": [0, 142], "summary": {"distance": 8403.4, "duration": 630.4}}, "geometry": {"coordinates": [[-73.390808, 41.873162], [-73.392116, 41.874267], [-73.393348, 41.875129], [-73.39542, 41.876509], [-73.395981, 41.876841], [-73.396876, 41.877325], [-73.397531, 41.877722], [-73.397899, 41.878013], [-73.398782, 41.878882], [-73.399245, 41.879271], [-73.399641, 41.879597], [-73.401261, 41.880842], [-73.402934, 41.882348], [-73.403758, 41.883028], [-73.403884, 41.883163], [-73.403959, 41.883231], [-73.404269, 41.883533], [-73.40496, 41.884367], [-73.405224, 41.884712], [-73.405504, 41.884995], [-73.405649, 41.885106], [-73.405819, 41.885194], [-73.406639, 41.885563], [-73.406911, 41.885663], [-73.408251, 41.886077], [-73.408956, 41.886352], [-73.409238, 41.886446], [-73.409762, 41.886596], [-73.410787, 41.886742], [-73.411012, 41.886792], [-73.411456, 41.88695], [-73.412717, 41.887517], [-73.412971, 41.887584], [-73.413171, 41.887606], [-73.413469, 41.887616], [-73.416567, 41.887545], [-73.416913, 41.887521], [-73.417675, 41.887435], [-73.418063, 41.887427], [-73.42072, 41.888025], [-73.42107, 41.888098], [-73.421312, 41.888125], [-73.421482, 41.888128], [-73.421883, 41.888098], [-73.4256, 41.887636], [-73.425928, 41.887586], [-73.426958, 41.887343], [-73.428248, 41.887015], [-73.43032, 41.886509], [-73.431401, 41.886271], [-73.431731, 41.886223], [-73.431944, 41.886212], [-73.432294, 41.886246], [-73.432735, 41.886323], [-73.433651, 41.88663], [-73.43529, 41.887233], [-73.435484, 41.887268], [-73.435648, 41.887264], [-73.435811, 41.88724], [-73.436268, 41.887082], [-73.436521, 41.886955], [-73.437214, 41.886563], [-73.438269, 41.885883], [-73.438574, 41.885722], [-73.438829, 41.88562], [-73.439038, 41.885568], [-73.43926, 41.885549], [-73.439422, 41.885556], [-73.440441, 41.885608], [-73.440772, 41.885622], [-73.441258, 41.885677], [-73.441417, 41.885679], [-73.441565, 41.885664], [-73.442112, 41.885557], [-73.442362, 41.885487], [-73.442592, 41.885399], [-73.442725, 41.885331], [-73.442862, 41.885236], [-73.442994, 41.885113], [-73.443279, 41.88466], [-73.44339, 41.884525], [-73.443538, 41.884405], [-73.443695, 41.884314], [-73.444301, 41.884173], [-73.44453, 41.884093], [-73.444771, 41.883983], [-73.445185, 41.883852], [-73.445554, 41.883849], [-73.446119, 41.883916], [-73.446267, 41.883914], [-73.447939, 41.883829], [-73.448163, 41.883837], [-73.448423, 41.883879], [-73.449188, 41.883937], [-73.450307, 41.883747], [-73.451179, 41.883748], [-73.451527, 41.883761], [-73.452421, 41.883721], [-73.452934, 41.883686], [-73.45339, 41.883705], [-73.453604, 41.883809], [-73.453677, 41.883893], [-73.453804, 41.884298], [-73.453888, 41.884441], [-73.454036, 41.884639], [-73.454231, 41.884774], [-73.454291, 41.884814], [-73.454752, 41.885025], [-73.4549, 41.885072], [-73.455652, 41.885173], [-73.456679, 41.885317], [-73.45691, 41.885339], [-73.457512, 41.885336], [-73.457644, 41.885331], [-73.457833, 41.885324], [-73.45838, 41.885299], [-73.458793, 41.885321], [-73.459894, 41.885532], [-73.460441, 41.885575], [-73.461093, 41.885571], [-73.461523, 41.885506], [-73.462883, 41.885241], [-73.463731, 41.884994], [-73.465506, 41.884532], [-73.465977, 41.884474], [-73.466292, 41.884495], [-73.467982, 41.884799], [-73.468029, 41.884824], [-73.468177, 41.8849], [-73.468404, 41.884808], [-73.470458, 41.883936], [-73.472379, 41.883206], [-73.47349, 41.882692], [-73.474278, 41.8824], [-73.474912, 41.882144], [-73.475389, 41.881928], [-73.47587, 41.881728], [-73.476249, 41.881544], [-73.476416, 41.881411], [-73.47655, 41.881259], [-73.476721, 41.880244], [-73.476759, 41.879992], [-73.476856, 41.879374]], "type": "LineString"}}], "metadata": {"attribution": "openrouteservice.org | OpenStreetMap contributors", "service": "routing", "timestamp": 1769468558607, "query": {"coordinates": [[-73.391134, 41.872948], [-73.4768697, 41.8793754]], "profile": "driving-car", "profileName": "driving-car", "format": "geojson"}, "engine": {"version": "9.5.0", "build_date": "2025-10-31T12:33:09Z", "graph_date": "2026-01-25T11:10:32Z", "osm_date": "2026-01-19T01:00:01Z"}}}