{"type": "FeatureCollection", "bbox": [-73.367612, 41.955007, -73.365051, 41.956144], "features": [{"bbox": [-73.367612, 41.955007, -73.365051, 41.956144], "type": "Feature", "properties": {"segments": [{"distance": 315.7, "duration": 42.6, "steps": [{"distance": 220.1, "duration": 19.8, "type": 11, "instruction": "Head southeast on Water Street", "name": "Water Street", "way_points": [0, 7]}, {"distance": 93.1, "duration": 22.4, "type": 1, "instruction": "Turn right onto Railroad Street", "name": "Railroad Street", "way_points": [7, 10]}, {"distance": 2.4, "duration": 0.4, "type": 2, "instruction": "Turn sharp left onto Main Street", "name": "Main Street", "way_points": [10, 11]}, {"distance": 0.0, "duration": 0.0, "type": 10, "instruction": "Arrive at Main Street, straight ahead", "name": "-", "way_points": [11, 11]}]}], "way_points": [0, 11], "summary": {"distance": 315.7, "duration": 42.6}}, "geometry": {"coordinates": [[-73.367612, 41.956144], [-73.367598, 41.956132], [-73.366965, 41.955632], [-73.366615, 41.955488], [-73.366313, 41.955481], [-73.36606, 41.955492], [-73.365573, 41.955702], [-73.365417, 41.955794], [-73.365272, 41.955581], [-73.365187, 41.955213], [-73.365063, 41.955007], [-73.365051, 41.955015]], "type": "LineString"}}], "metadata": {"attribution": "openrouteservice.org | OpenStreetMap contributors", "service": "routing", "timestamp": 1769468558744, "query": {"coordinates": [[-73.367611, 41.956145], [-73.3650579, 41.9550202]], "profile": "driving-car", "profileName": "driving-car", "format": "geojson"}, "engine": {"version": "9.5.0", "build_date": "2025-10-31T12:33:09Z", "graph_date": "2026-01-25T11:10:32Z", "osm_date": "2026-01-19T01:00:01Z"}}}