{"type": "FeatureCollection", "bbox": [-73.364436, 42.109274, -73.350842, 42.153481], "features": [{"bbox": [-73.364436, 42.109274, -73.350842, 42.153481], "type": "Feature", "properties": {"segments": [{"distance": 5502.3, "duration": 399.4, "steps": [{"distance": 5340.2, "duration": 362.3, "type": 11, "instruction": "Head south on North Main Street, US 7", "name": "North Main Street, US 7", "way_points": [0, 62]}, {"distance": 15.7, "duration": 5.6, "type": 1, "instruction": "Turn right", "name": "-", "way_points": [62, 63]}, {"distance": 60.6, "duration": 10.9, "type": 1, "instruction": "Turn right", "name": "-", "way_points": [63, 66]}, {"distance": 85.9, "duration": 20.6, "type": 0, "instruction": "Turn left", "name": "-", "way_points": [66, 71]}, {"distance": 0.0, "duration": 0.0, "type": 10, "instruction": "Arrive at your destination, on the right", "name": "-", "way_points": [71, 71]}]}], "way_points": [0, 71], "summary": {"distance": 5502.3, "duration": 399.4}}, "geometry": {"coordinates": [[-73.364436, 42.153481], [-73.36422, 42.152317], [-73.363289, 42.147245], [-73.363206, 42.146798], [-73.36311, 42.146074], [-73.363002, 42.144649], [-73.362986, 42.143778], [-73.363063, 42.140584], [-73.36313, 42.139853], [-73.363236, 42.139129], [-73.36432, 42.133216], [-73.364371, 42.132748], [-73.364352, 42.132282], [-73.364241, 42.131712], [-73.364088, 42.131277], [-73.363529, 42.129921], [-73.363464, 42.129762], [-73.362822, 42.128213], [-73.362662, 42.127911], [-73.362469, 42.127596], [-73.36226, 42.127311], [-73.361823, 42.126815], [-73.361438, 42.12644], [-73.361274, 42.126314], [-73.360683, 42.125893], [-73.360313, 42.125674], [-73.359799, 42.12536], [-73.358612, 42.124679], [-73.3583, 42.124478], [-73.358004, 42.124244], [-73.35774, 42.124], [-73.357462, 42.123701], [-73.357286, 42.123493], [-73.357254, 42.123455], [-73.356771, 42.122861], [-73.356302, 42.122228], [-73.355962, 42.121709], [-73.355385, 42.120634], [-73.355212, 42.120265], [-73.355006, 42.119741], [-73.354829, 42.119245], [-73.354378, 42.117983], [-73.354167, 42.117596], [-73.353915, 42.117268], [-73.353572, 42.116922], [-73.351441, 42.114864], [-73.35119, 42.114537], [-73.351029, 42.114252], [-73.350961, 42.1141], [-73.350883, 42.113857], [-73.350842, 42.113643], [-73.350849, 42.11342], [-73.35094, 42.113092], [-73.351141, 42.112776], [-73.351332, 42.112565], [-73.351727, 42.11221], [-73.352101, 42.111894], [-73.352415, 42.111581], [-73.352692, 42.11127], [-73.353097, 42.110704], [-73.353567, 42.109977], [-73.353785, 42.109642], [-73.354035, 42.109274], [-73.354206, 42.109335], [-73.35418, 42.109416], [-73.354092, 42.109557], [-73.353916, 42.109834], [-73.354357, 42.109977], [-73.354672, 42.110047], [-73.354753, 42.110028], [-73.354788, 42.10999], [-73.354808, 42.10993]], "type": "LineString"}}], "metadata": {"attribution": "openrouteservice.org | OpenStreetMap contributors", "service": "routing", "timestamp": 1769468558880, "query": {"coordinates": [[-73.364468, 42.153478], [-73.3551436, 42.1099885]], "profile": "driving-car", "profileName": "driving-car", "format": "geojson"}, "engine": {"version": "9.5.0", "build_date": "2025-10-31T12:33:09Z", "graph_date": "2026-01-25T11:10:32Z", "osm_date": "2026-01-19T01:00:01Z"}}}