{"type": "FeatureCollection", "bbox": [-73.415415, 42.146754, -73.385832, 42.160648], "features": [{"bbox": [-73.415415, 42.146754, -73.385832, 42.160648], "type": "Feature", "properties": {"segments": [{"distance": 2969.7, "duration": 194.3, "steps": [{"distance": 2768.9, "duration": 182.2, "type": 11, "instruction": "Head northwest on Sheffield-Egremont Road", "name": "Sheffield-Egremont Road", "way_points": [0, 34]}, {"distance": 200.8, "duration": 12.0, "type": 4, "instruction": "Turn slight left onto Main Street, MA 23, MA 41", "name": "Main Street, MA 23, MA 41", "way_points": [34, 36]}, {"distance": 0.0, "duration": 0.0, "type": 10, "instruction": "Arrive at Main Street, MA 23, MA 41, on the right", "name": "-", "way_points": [36, 36]}]}], "way_points": [0, 36], "summary": {"distance": 2969.7, "duration": 194.3}}, "geometry": {"coordinates": [[-73.385832, 42.146754], [-73.387888, 42.148263], [-73.38849, 42.14873], [-73.389022, 42.149115], [-73.389485, 42.149372], [-73.389567, 42.149417], [-73.390108, 42.149593], [-73.39091, 42.149704], [-73.39123, 42.149736], [-73.391606, 42.149774], [-73.392313, 42.149909], [-73.392918, 42.150074], [-73.393889, 42.150304], [-73.394329, 42.150416], [-73.394972, 42.150628], [-73.395709, 42.150921], [-73.396401, 42.15131], [-73.396698, 42.151505], [-73.397162, 42.151766], [-73.397847, 42.152197], [-73.400157, 42.153647], [-73.40237, 42.154994], [-73.407093, 42.157924], [-73.407508, 42.15819], [-73.407867, 42.158476], [-73.408232, 42.158797], [-73.408644, 42.159076], [-73.410433, 42.159977], [-73.410824, 42.160186], [-73.41106, 42.160267], [-73.411229, 42.160295], [-73.411328, 42.160313], [-73.412161, 42.160454], [-73.412749, 42.160579], [-73.412983, 42.160648], [-73.414468, 42.160609], [-73.415415, 42.16055]], "type": "LineString"}}], "metadata": {"attribution": "openrouteservice.org | OpenStreetMap contributors", "service": "routing", "timestamp": 1769468559021, "query": {"coordinates": [[-73.38585, 42.146741], [-73.4154169, 42.1605679]], "profile": "driving-car", "profileName": "driving-car", "format": "geojson"}, "engine": {"version": "9.5.0", "build_date": "2025-10-31T12:33:09Z", "graph_date": "2026-01-25T11:10:32Z", "osm_date": "2026-01-19T01:00:01Z"}}}