{"type": "FeatureCollection", "bbox": [-73.209285, 42.238155, -73.203829, 42.245794], "features": [{"bbox": [-73.209285, 42.238155, -73.203829, 42.245794], "type": "Feature", "properties": {"segments": [{"distance": 995.1, "duration": 236.7, "steps": [{"distance": 949.7, "duration": 227.9, "type": 11, "instruction": "Head northeast on Jerusalem Road", "name": "Jerusalem Road", "way_points": [0, 15]}, {"distance": 31.8, "duration": 7.6, "type": 13, "instruction": "Keep right onto Jerusalem Road", "name": "Jerusalem Road", "way_points": [15, 17]}, {"distance": 13.6, "duration": 1.1, "type": 2, "instruction": "Turn sharp left onto Main Road", "name": "Main Road", "way_points": [17, 18]}, {"distance": 0.0, "duration": 0.0, "type": 10, "instruction": "Arrive at Main Road, on the right", "name": "-", "way_points": [18, 18]}]}], "way_points": [0, 18], "summary": {"distance": 995.1, "duration": 236.7}}, "geometry": {"coordinates": [[-73.209285, 42.238155], [-73.20924, 42.238214], [-73.207766, 42.240131], [-73.207125, 42.240888], [-73.206101, 42.242147], [-73.20464, 42.243958], [-73.204447, 42.244221], [-73.204391, 42.244387], [-73.204398, 42.244557], [-73.204541, 42.244764], [-73.204578, 42.244878], [-73.204581, 42.244967], [-73.204528, 42.24511], [-73.204335, 42.245424], [-73.204273, 42.245521], [-73.204198, 42.245622], [-73.204021, 42.245679], [-73.203829, 42.245699], [-73.203932, 42.245794]], "type": "LineString"}}], "metadata": {"attribution": "openrouteservice.org | OpenStreetMap contributors", "service": "routing", "timestamp": 1769468559166, "query": {"coordinates": [[-73.20927, 42.238149], [-73.2037171, 42.2459215]], "profile": "driving-car", "profileName": "driving-car", "format": "geojson"}, "engine": {"version": "9.5.0", "build_date": "2025-10-31T12:33:09Z", "graph_date": "2026-01-25T11:10:32Z", "osm_date": "2026-01-19T01:00:01Z"}}}