{"type": "FeatureCollection", "bbox": [-73.166181, 42.291484, -73.082946, 42.33214], "features": [{"bbox": [-73.166181, 42.291484, -73.082946, 42.33214], "type": "Feature", "properties": {"segments": [{"distance": 10536.9, "duration": 819.7, "steps": [{"distance": 792.0, "duration": 49.1, "type": 11, "instruction": "Head northwest on Jacobs Ladder Road, US 20", "name": "Jacobs Ladder Road, US 20", "way_points": [0, 11]}, {"distance": 7237.9, "duration": 525.4, "type": 1, "instruction": "Turn right onto Becket Road", "name": "Becket Road", "way_points": [11, 150]}, {"distance": 2326.6, "duration": 200.3, "type": 2, "instruction": "Turn sharp left onto Main Street, MA 8", "name": "Main Street, MA 8", "way_points": [150, 197]}, {"distance": 22.3, "duration": 5.4, "type": 3, "instruction": "Turn sharp right onto Main Street", "name": "Main Street", "way_points": [197, 199]}, {"distance": 110.6, "duration": 26.5, "type": 0, "instruction": "Turn left onto Main Street", "name": "Main Street", "way_points": [199, 203]}, {"distance": 34.4, "duration": 8.2, "type": 1, "instruction": "Turn right onto Maple Street", "name": "Maple Street", "way_points": [203, 205]}, {"distance": 13.1, "duration": 4.7, "type": 1, "instruction": "Turn right", "name": "-", "way_points": [205, 206]}, {"distance": 0.0, "duration": 0.0, "type": 10, "instruction": "Arrive at your destination, on the left", "name": "-", "way_points": [206, 206]}]}], "way_points": [0, 206], "summary": {"distance": 10536.9, "duration": 819.7}}, "geometry": {"coordinates": [[-73.157463, 42.291484], [-73.157632, 42.291586], [-73.158327, 42.291902], [-73.159115, 42.292224], [-73.160552, 42.292814], [-73.161115, 42.293038], [-73.162434, 42.293564], [-73.162828, 42.293705], [-73.163247, 42.293799], [-73.164922, 42.294093], [-73.1655, 42.294208], [-73.166181, 42.294368], [-73.166095, 42.294498], [-73.165957, 42.294647], [-73.16582, 42.294782], [-73.16562, 42.294941], [-73.165042, 42.295258], [-73.164216, 42.295684], [-73.164098, 42.295723], [-73.163991, 42.295756], [-73.16384, 42.295769], [-73.162552, 42.295784], [-73.161761, 42.295858], [-73.161464, 42.295846], [-73.161263, 42.295819], [-73.160737, 42.295746], [-73.160397, 42.295724], [-73.160231, 42.295715], [-73.159168, 42.295765], [-73.158981, 42.295802], [-73.1581, 42.296194], [-73.157645, 42.29634], [-73.15712, 42.29646], [-73.155577, 42.296488], [-73.155147, 42.296562], [-73.154335, 42.296835], [-73.154091, 42.296953], [-73.153537, 42.297357], [-73.153343, 42.297449], [-73.153099, 42.297491], [-73.152879, 42.297504], [-73.152656, 42.297495], [-73.152096, 42.297404], [-73.151848, 42.297338], [-73.151177, 42.297024], [-73.150954, 42.296953], [-73.149918, 42.29674], [-73.149329, 42.296561], [-73.149114, 42.296516], [-73.148869, 42.296491], [-73.147755, 42.296461], [-73.147242, 42.29648], [-73.146989, 42.296551], [-73.146588, 42.296724], [-73.143906, 42.298213], [-73.143194, 42.29843], [-73.142861, 42.298592], [-73.142636, 42.298779], [-73.142113, 42.299371], [-73.141795, 42.299603], [-73.141425, 42.299707], [-73.141072, 42.299746], [-73.140585, 42.29973], [-73.140177, 42.299679], [-73.139341, 42.299683], [-73.137434, 42.299739], [-73.137031, 42.299786], [-73.136847, 42.299848], [-73.136598, 42.299959], [-73.136351, 42.300131], [-73.135691, 42.300675], [-73.135516, 42.30076], [-73.135325, 42.300812], [-73.135096, 42.300841], [-73.134539, 42.300855], [-73.133434, 42.301042], [-73.133228, 42.301185], [-73.133086, 42.301379], [-73.13245, 42.302106], [-73.131413, 42.303244], [-73.131105, 42.303619], [-73.130937, 42.303869], [-73.13081, 42.304161], [-73.130726, 42.304679], [-73.130614, 42.30504], [-73.130411, 42.30543], [-73.130073, 42.305813], [-73.129903, 42.305908], [-73.12969, 42.305987], [-73.12851, 42.306263], [-73.127967, 42.30644], [-73.127793, 42.306505], [-73.127115, 42.30686], [-73.126688, 42.30713], [-73.125849, 42.307608], [-73.125596, 42.307835], [-73.125528, 42.308006], [-73.125455, 42.308757], [-73.125374, 42.309122], [-73.12528, 42.309344], [-73.125084, 42.309672], [-73.124899, 42.309906], [-73.124581, 42.310211], [-73.123418, 42.311053], [-73.123097, 42.311313], [-73.12269, 42.311532], [-73.121682, 42.311989], [-73.121475, 42.312097], [-73.121029, 42.312426], [-73.12078, 42.312646], [-73.120617, 42.31282], [-73.120195, 42.313426], [-73.120018, 42.314054], [-73.119889, 42.314241], [-73.119683, 42.314467], [-73.119479, 42.314624], [-73.118946, 42.314936], [-73.118579, 42.315179], [-73.117943, 42.315517], [-73.117625, 42.315671], [-73.117493, 42.315712], [-73.117142, 42.315778], [-73.116872, 42.315811], [-73.116616, 42.315872], [-73.116176, 42.316009], [-73.115604, 42.316251], [-73.115177, 42.316498], [-73.114656, 42.31671], [-73.113686, 42.316902], [-73.112764, 42.317043], [-73.111905, 42.317215], [-73.111521, 42.317314], [-73.1111, 42.317402], [-73.108835, 42.317164], [-73.107853, 42.316871], [-73.107566, 42.316825], [-73.105827, 42.316835], [-73.105444, 42.316802], [-73.105153, 42.316739], [-73.104832, 42.31664], [-73.103186, 42.315961], [-73.102124, 42.31566], [-73.099778, 42.315373], [-73.097688, 42.315252], [-73.097179, 42.315155], [-73.095543, 42.314621], [-73.09509, 42.314629], [-73.094533, 42.314852], [-73.094331, 42.314886], [-73.094158, 42.31483], [-73.093996, 42.314802], [-73.094003, 42.314898], [-73.093984, 42.314986], [-73.093907, 42.315129], [-73.093748, 42.315301], [-73.093223, 42.315723], [-73.093022, 42.316035], [-73.09301, 42.316467], [-73.093082, 42.316704], [-73.093216, 42.317145], [-73.093201, 42.317325], [-73.093112, 42.31751], [-73.092435, 42.318258], [-73.092119, 42.319337], [-73.092035, 42.319559], [-73.091886, 42.319742], [-73.091685, 42.319857], [-73.091217, 42.319929], [-73.090675, 42.319878], [-73.089646, 42.319646], [-73.088836, 42.319586], [-73.088281, 42.319695], [-73.08802, 42.319814], [-73.087758, 42.320009], [-73.087384, 42.320505], [-73.087098, 42.320885], [-73.086656, 42.321292], [-73.085117, 42.322504], [-73.084664, 42.322991], [-73.08446, 42.32351], [-73.084407, 42.324497], [-73.08424, 42.324836], [-73.083979, 42.325164], [-73.083743, 42.325438], [-73.083531, 42.325977], [-73.083432, 42.326997], [-73.083254, 42.328178], [-73.083268, 42.328406], [-73.083348, 42.328691], [-73.083426, 42.328863], [-73.083704, 42.329356], [-73.083758, 42.329455], [-73.083827, 42.329647], [-73.083856, 42.329833], [-73.083807, 42.330614], [-73.083824, 42.330795], [-73.08393, 42.331016], [-73.084057, 42.331153], [-73.083938, 42.331169], [-73.083799, 42.331212], [-73.083724, 42.331575], [-73.083644, 42.33175], [-73.083502, 42.331962], [-73.083361, 42.33214], [-73.083198, 42.332116], [-73.082946, 42.332109], [-73.082955, 42.331991]], "type": "LineString"}}], "metadata": {"attribution": "openrouteservice.org | OpenStreetMap contributors", "service": "routing", "timestamp": 1769468559303, "query": {"coordinates": [[-73.157444, 42.291501], [-73.0829366, 42.331990399999995]], "profile": "driving-car", "profileName": "driving-car", "format": "geojson"}, "engine": {"version": "9.5.0", "build_date": "2025-10-31T12:33:09Z", "graph_date": "2026-01-25T11:10:32Z", "osm_date": "2026-01-19T01:00:01Z"}}}