{"type": "FeatureCollection", "bbox": [-73.16704, 42.636575, -73.16704, 42.636575], "features": [{"bbox": [-73.16704, 42.636575, -73.16704, 42.636575], "type": "Feature", "properties": {"segments": [{"distance": 0.0, "duration": 0.0, "steps": [{"distance": 0.0, "duration": 0.0, "type": 11, "instruction": "Head east", "name": "-", "way_points": [0, 0]}]}], "way_points": [0, 0], "summary": {}}, "geometry": {"coordinates": [[-73.16704, 42.636575]], "type": "LineString"}}], "metadata": {"attribution": "openrouteservice.org | OpenStreetMap contributors", "service": "routing", "timestamp": 1769468559445, "query": {"coordinates": [[-73.1669209, 42.636663999999996], [-73.1669209, 42.636663999999996]], "profile": "driving-car", "profileName": "driving-car", "format": "geojson"}, "engine": {"version": "9.5.0", "build_date": "2025-10-31T12:33:09Z", "graph_date": "2026-01-25T11:10:32Z", "osm_date": "2026-01-19T01:00:01Z"}}}