{"type": "FeatureCollection", "bbox": [-72.96765, 43.025029, -72.789787, 43.061078], "features": [{"bbox": [-72.96765, 43.025029, -72.789787, 43.061078], "type": "Feature", "properties": {"segments": [{"distance": 18060.4, "duration": 1470.8, "steps": [{"distance": 11001.1, "duration": 1068.2, "type": 11, "instruction": "Head east on Stratton Arlington Road", "name": "Stratton Arlington Road", "way_points": [0, 206]}, {"distance": 7028.6, "duration": 395.2, "type": 0, "instruction": "Turn left onto Vermont Route 100, VT 100", "name": "Vermont Route 100, VT 100", "way_points": [206, 335]}, {"distance": 30.7, "duration": 7.4, "type": 0, "instruction": "Turn left onto Main Street", "name": "Main Street", "way_points": [335, 336]}, {"distance": 0.0, "duration": 0.0, "type": 10, "instruction": "Arrive at Main Street, straight ahead", "name": "-", "way_points": [336, 336]}]}], "way_points": [0, 336], "summary": {"distance": 18060.4, "duration": 1470.8}}, "geometry": {"coordinates": [[-72.96765, 43.061035], [-72.966136, 43.060743], [-72.966022, 43.060737], [-72.965885, 43.060749], [-72.965148, 43.060931], [-72.964801, 43.061002], [-72.964468, 43.06105], [-72.964094, 43.061078], [-72.963481, 43.061076], [-72.96322, 43.061055], [-72.962983, 43.061017], [-72.962711, 43.060939], [-72.962562, 43.060865], [-72.962461, 43.060787], [-72.962344, 43.060593], [-72.962204, 43.060139], [-72.962145, 43.060018], [-72.962061, 43.059905], [-72.961937, 43.059806], [-72.961776, 43.059717], [-72.960947, 43.059479], [-72.960607, 43.059346], [-72.960357, 43.059292], [-72.9599, 43.059233], [-72.959771, 43.0592], [-72.959636, 43.059142], [-72.959281, 43.05894], [-72.959113, 43.05888], [-72.958927, 43.058848], [-72.958014, 43.058811], [-72.957607, 43.058796], [-72.957394, 43.058791], [-72.956821, 43.05878], [-72.956441, 43.058798], [-72.956025, 43.058864], [-72.955274, 43.059016], [-72.954155, 43.059222], [-72.953793, 43.059309], [-72.953437, 43.059433], [-72.952468, 43.059904], [-72.952118, 43.059998], [-72.951909, 43.060034], [-72.951381, 43.06009], [-72.950666, 43.06012], [-72.950021, 43.060102], [-72.949557, 43.060053], [-72.948805, 43.05987], [-72.948361, 43.059731], [-72.947975, 43.059567], [-72.946926, 43.058929], [-72.945979, 43.058379], [-72.945183, 43.057854], [-72.944933, 43.057722], [-72.94466, 43.057624], [-72.944146, 43.057498], [-72.94377, 43.057463], [-72.943509, 43.057459], [-72.943302, 43.057463], [-72.942951, 43.057499], [-72.942029, 43.057685], [-72.941828, 43.057708], [-72.941093, 43.057712], [-72.940379, 43.05766], [-72.939357, 43.057523], [-72.938977, 43.057437], [-72.938633, 43.057296], [-72.938502, 43.057223], [-72.937756, 43.056785], [-72.936674, 43.056298], [-72.934868, 43.05535], [-72.934672, 43.055271], [-72.934374, 43.055197], [-72.9335, 43.0551], [-72.933333, 43.055052], [-72.932967, 43.054886], [-72.932654, 43.054661], [-72.932415, 43.054438], [-72.931906, 43.053912], [-72.931366, 43.053417], [-72.931018, 43.053139], [-72.930793, 43.052991], [-72.930161, 43.052637], [-72.929527, 43.05232], [-72.928479, 43.051825], [-72.927819, 43.051483], [-72.92587, 43.050407], [-72.924487, 43.049719], [-72.923557, 43.049277], [-72.923242, 43.049143], [-72.921817, 43.048634], [-72.921499, 43.048496], [-72.920865, 43.048187], [-72.920288, 43.04794], [-72.919578, 43.047616], [-72.918628, 43.047127], [-72.917571, 43.046661], [-72.916913, 43.046332], [-72.916321, 43.045993], [-72.915601, 43.045525], [-72.915411, 43.045423], [-72.915167, 43.045324], [-72.914895, 43.04524], [-72.913002, 43.044732], [-72.912641, 43.044628], [-72.912287, 43.044495], [-72.911956, 43.044299], [-72.91108, 43.043633], [-72.909797, 43.042831], [-72.909555, 43.042659], [-72.908512, 43.041871], [-72.908208, 43.04166], [-72.907892, 43.041475], [-72.907568, 43.04131], [-72.907229, 43.041166], [-72.905857, 43.040671], [-72.905524, 43.040528], [-72.90268, 43.039041], [-72.902294, 43.038871], [-72.900945, 43.038345], [-72.899963, 43.037888], [-72.899695, 43.037737], [-72.899377, 43.037561], [-72.898306, 43.037079], [-72.897999, 43.036893], [-72.897411, 43.036482], [-72.896768, 43.035929], [-72.896147, 43.035428], [-72.89554, 43.035036], [-72.895186, 43.034831], [-72.894678, 43.034531], [-72.893643, 43.033951], [-72.893047, 43.033544], [-72.892736, 43.033244], [-72.892205, 43.032555], [-72.891762, 43.032072], [-72.891601, 43.031991], [-72.891313, 43.031906], [-72.890876, 43.031844], [-72.890522, 43.031774], [-72.890182, 43.031663], [-72.889521, 43.031372], [-72.889211, 43.031191], [-72.888914, 43.030989], [-72.888068, 43.030259], [-72.887479, 43.029797], [-72.887165, 43.029614], [-72.886738, 43.029436], [-72.885178, 43.028966], [-72.884523, 43.028751], [-72.883415, 43.028351], [-72.882902, 43.028197], [-72.882737, 43.02816], [-72.882253, 43.028107], [-72.881246, 43.02811], [-72.880992, 43.028094], [-72.880438, 43.028017], [-72.880144, 43.02795], [-72.879933, 43.027879], [-72.879743, 43.027795], [-72.879558, 43.027688], [-72.879335, 43.027503], [-72.878784, 43.026893], [-72.878628, 43.026758], [-72.878434, 43.026616], [-72.877826, 43.026237], [-72.877417, 43.026029], [-72.877149, 43.025952], [-72.876853, 43.025903], [-72.876482, 43.025884], [-72.87612, 43.025939], [-72.875116, 43.026352], [-72.874319, 43.026582], [-72.874065, 43.026631], [-72.873708, 43.026649], [-72.872627, 43.026569], [-72.872288, 43.026594], [-72.872023, 43.026645], [-72.871875, 43.026698], [-72.871595, 43.026885], [-72.871352, 43.027154], [-72.870896, 43.027711], [-72.870646, 43.027972], [-72.870369, 43.028195], [-72.869965, 43.028427], [-72.86829, 43.029246], [-72.867952, 43.029373], [-72.867598, 43.029406], [-72.867428, 43.029394], [-72.867244, 43.029363], [-72.866828, 43.029247], [-72.866465, 43.029165], [-72.866088, 43.029154], [-72.865654, 43.029172], [-72.865292, 43.02917], [-72.864935, 43.029105], [-72.863152, 43.028719], [-72.862779, 43.028704], [-72.86242, 43.028774], [-72.860745, 43.02925], [-72.860027, 43.029381], [-72.859667, 43.029398], [-72.859304, 43.029377], [-72.85587, 43.029012], [-72.855186, 43.028892], [-72.854662, 43.028748], [-72.853253, 43.02831], [-72.852659, 43.028147], [-72.851637, 43.029168], [-72.851418, 43.029459], [-72.851255, 43.029797], [-72.851178, 43.029998], [-72.851177, 43.030094], [-72.851294, 43.030219], [-72.851455, 43.030347], [-72.851581, 43.030452], [-72.851606, 43.030568], [-72.851521, 43.030832], [-72.851016, 43.031653], [-72.850909, 43.031757], [-72.850662, 43.031935], [-72.850023, 43.03229], [-72.849686, 43.032429], [-72.849342, 43.032527], [-72.849062, 43.03259], [-72.848548, 43.032679], [-72.846254, 43.033171], [-72.845754, 43.03329], [-72.844908, 43.033544], [-72.84409, 43.033788], [-72.843592, 43.033905], [-72.843165, 43.033953], [-72.842743, 43.03395], [-72.84252, 43.033929], [-72.842092, 43.033844], [-72.841884, 43.033777], [-72.841408, 43.033589], [-72.839994, 43.032983], [-72.839494, 43.032708], [-72.838934, 43.032271], [-72.837248, 43.030647], [-72.83672, 43.030298], [-72.834859, 43.029371], [-72.834385, 43.02916], [-72.832955, 43.028581], [-72.831555, 43.027977], [-72.831071, 43.027677], [-72.830362, 43.02718], [-72.829924, 43.026916], [-72.829594, 43.026767], [-72.82925, 43.02665], [-72.82876, 43.026536], [-72.828407, 43.026493], [-72.827923, 43.026464], [-72.826651, 43.026465], [-72.826142, 43.02644], [-72.825639, 43.026353], [-72.825157, 43.026199], [-72.824696, 43.025986], [-72.823782, 43.025523], [-72.823295, 43.025333], [-72.822091, 43.025071], [-72.821654, 43.025029], [-72.821429, 43.02504], [-72.821214, 43.025085], [-72.821008, 43.025156], [-72.820824, 43.025261], [-72.82065, 43.025384], [-72.820501, 43.025527], [-72.82032, 43.025829], [-72.819422, 43.028219], [-72.819196, 43.028886], [-72.819108, 43.029236], [-72.819073, 43.029469], [-72.818997, 43.030831], [-72.81892, 43.031132], [-72.818768, 43.031532], [-72.818427, 43.032259], [-72.817839, 43.033166], [-72.817506, 43.03354], [-72.817048, 43.033932], [-72.816858, 43.034048], [-72.816476, 43.034241], [-72.816075, 43.034401], [-72.815667, 43.034521], [-72.815024, 43.034638], [-72.814357, 43.034672], [-72.812802, 43.03466], [-72.81192, 43.03467], [-72.811468, 43.034699], [-72.810611, 43.034786], [-72.810294, 43.034801], [-72.809932, 43.034816], [-72.809613, 43.03481], [-72.807018, 43.034608], [-72.805722, 43.034535], [-72.805365, 43.034488], [-72.805008, 43.034421], [-72.804652, 43.034332], [-72.804237, 43.034199], [-72.803496, 43.03391], [-72.803149, 43.033822], [-72.8028, 43.033772], [-72.802166, 43.033757], [-72.801404, 43.033758], [-72.801098, 43.033748], [-72.800806, 43.033718], [-72.800452, 43.033651], [-72.799903, 43.033501], [-72.799293, 43.03329], [-72.798725, 43.033154], [-72.798358, 43.03316], [-72.798141, 43.0332], [-72.797933, 43.033268], [-72.797675, 43.033397], [-72.7975, 43.033521], [-72.797191, 43.033832], [-72.796891, 43.03425], [-72.796807, 43.034448], [-72.796747, 43.034747], [-72.796698, 43.035351], [-72.796631, 43.035604], [-72.796522, 43.035845], [-72.796372, 43.036061], [-72.796187, 43.03624], [-72.795994, 43.036371], [-72.795751, 43.036503], [-72.795164, 43.036788], [-72.79449, 43.037082], [-72.794043, 43.037326], [-72.792629, 43.038239], [-72.792403, 43.038414], [-72.791196, 43.039739], [-72.790868, 43.040014], [-72.790616, 43.040188], [-72.790049, 43.040532], [-72.789787, 43.040675], [-72.789807, 43.040951]], "type": "LineString"}}], "metadata": {"attribution": "openrouteservice.org | OpenStreetMap contributors", "service": "routing", "timestamp": 1769468559581, "query": {"coordinates": [[-72.967651, 43.061034], [-72.7897975, 43.040951199999995]], "profile": "driving-car", "profileName": "driving-car", "format": "geojson"}, "engine": {"version": "9.5.0", "build_date": "2025-10-31T12:33:09Z", "graph_date": "2026-01-25T11:10:32Z", "osm_date": "2026-01-19T01:00:01Z"}}}