{"type": "FeatureCollection", "bbox": [-72.96765, 43.043252, -72.91047, 43.061078], "features": [{"bbox": [-72.96765, 43.043252, -72.91047, 43.061078], "type": "Feature", "properties": {"segments": [{"distance": 5414.3, "duration": 652.0, "steps": [{"distance": 5414.3, "duration": 652.0, "type": 11, "instruction": "Head east on Stratton Arlington Road", "name": "Stratton Arlington Road", "way_points": [0, 107]}, {"distance": 0.0, "duration": 0.0, "type": 10, "instruction": "Arrive at Stratton Arlington Road, on the right", "name": "-", "way_points": [107, 107]}]}], "way_points": [0, 107], "summary": {"distance": 5414.3, "duration": 652.0}}, "geometry": {"coordinates": [[-72.96765, 43.061035], [-72.966136, 43.060743], [-72.966022, 43.060737], [-72.965885, 43.060749], [-72.965148, 43.060931], [-72.964801, 43.061002], [-72.964468, 43.06105], [-72.964094, 43.061078], [-72.963481, 43.061076], [-72.96322, 43.061055], [-72.962983, 43.061017], [-72.962711, 43.060939], [-72.962562, 43.060865], [-72.962461, 43.060787], [-72.962344, 43.060593], [-72.962204, 43.060139], [-72.962145, 43.060018], [-72.962061, 43.059905], [-72.961937, 43.059806], [-72.961776, 43.059717], [-72.960947, 43.059479], [-72.960607, 43.059346], [-72.960357, 43.059292], [-72.9599, 43.059233], [-72.959771, 43.0592], [-72.959636, 43.059142], [-72.959281, 43.05894], [-72.959113, 43.05888], [-72.958927, 43.058848], [-72.958014, 43.058811], [-72.957607, 43.058796], [-72.957394, 43.058791], [-72.956821, 43.05878], [-72.956441, 43.058798], [-72.956025, 43.058864], [-72.955274, 43.059016], [-72.954155, 43.059222], [-72.953793, 43.059309], [-72.953437, 43.059433], [-72.952468, 43.059904], [-72.952118, 43.059998], [-72.951909, 43.060034], [-72.951381, 43.06009], [-72.950666, 43.06012], [-72.950021, 43.060102], [-72.949557, 43.060053], [-72.948805, 43.05987], [-72.948361, 43.059731], [-72.947975, 43.059567], [-72.946926, 43.058929], [-72.945979, 43.058379], [-72.945183, 43.057854], [-72.944933, 43.057722], [-72.94466, 43.057624], [-72.944146, 43.057498], [-72.94377, 43.057463], [-72.943509, 43.057459], [-72.943302, 43.057463], [-72.942951, 43.057499], [-72.942029, 43.057685], [-72.941828, 43.057708], [-72.941093, 43.057712], [-72.940379, 43.05766], [-72.939357, 43.057523], [-72.938977, 43.057437], [-72.938633, 43.057296], [-72.938502, 43.057223], [-72.937756, 43.056785], [-72.936674, 43.056298], [-72.934868, 43.05535], [-72.934672, 43.055271], [-72.934374, 43.055197], [-72.9335, 43.0551], [-72.933333, 43.055052], [-72.932967, 43.054886], [-72.932654, 43.054661], [-72.932415, 43.054438], [-72.931906, 43.053912], [-72.931366, 43.053417], [-72.931018, 43.053139], [-72.930793, 43.052991], [-72.930161, 43.052637], [-72.929527, 43.05232], [-72.928479, 43.051825], [-72.927819, 43.051483], [-72.92587, 43.050407], [-72.924487, 43.049719], [-72.923557, 43.049277], [-72.923242, 43.049143], [-72.921817, 43.048634], [-72.921499, 43.048496], [-72.920865, 43.048187], [-72.920288, 43.04794], [-72.919578, 43.047616], [-72.918628, 43.047127], [-72.917571, 43.046661], [-72.916913, 43.046332], [-72.916321, 43.045993], [-72.915601, 43.045525], [-72.915411, 43.045423], [-72.915167, 43.045324], [-72.914895, 43.04524], [-72.913002, 43.044732], [-72.912641, 43.044628], [-72.912287, 43.044495], [-72.911956, 43.044299], [-72.91108, 43.043633], [-72.91047, 43.043252]], "type": "LineString"}}], "metadata": {"attribution": "openrouteservice.org | OpenStreetMap contributors", "service": "routing", "timestamp": 1769468559721, "query": {"coordinates": [[-72.967651, 43.061034], [-72.9109334, 43.042856199999996]], "profile": "driving-car", "profileName": "driving-car", "format": "geojson"}, "engine": {"version": "9.5.0", "build_date": "2025-10-31T12:33:09Z", "graph_date": "2026-01-25T11:10:32Z", "osm_date": "2026-01-19T01:00:01Z"}}}