{"type": "FeatureCollection", "bbox": [-72.970767, 43.204823, -72.89837, 43.228703], "features": [{"bbox": [-72.970767, 43.204823, -72.89837, 43.228703], "type": "Feature", "properties": {"segments": [{"distance": 6909.8, "duration": 401.4, "steps": [{"distance": 57.0, "duration": 13.7, "type": 11, "instruction": "Head west", "name": "-", "way_points": [0, 3]}, {"distance": 6851.0, "duration": 387.4, "type": 2, "instruction": "Turn sharp left onto Vermont Route 11 30, VT 11, VT 30", "name": "Vermont Route 11 30, VT 11, VT 30", "way_points": [3, 109]}, {"distance": 1.9, "duration": 0.3, "type": 0, "instruction": "Turn left onto South Road", "name": "South Road", "way_points": [109, 110]}, {"distance": 0.0, "duration": 0.0, "type": 10, "instruction": "Arrive at South Road, straight ahead", "name": "-", "way_points": [110, 110]}]}], "way_points": [0, 110], "summary": {"distance": 6909.8, "duration": 401.4}}, "geometry": {"coordinates": [[-72.970237, 43.207088], [-72.970467, 43.207052], [-72.970617, 43.207003], [-72.970767, 43.206816], [-72.970437, 43.206848], [-72.970072, 43.206848], [-72.96956, 43.206814], [-72.96927, 43.206768], [-72.968773, 43.206654], [-72.9676, 43.206267], [-72.966454, 43.20592], [-72.965942, 43.205811], [-72.965339, 43.205727], [-72.964738, 43.205697], [-72.964373, 43.205702], [-72.961452, 43.205909], [-72.960926, 43.205904], [-72.960866, 43.205901], [-72.960126, 43.205831], [-72.959088, 43.205663], [-72.958126, 43.205441], [-72.957176, 43.205219], [-72.956466, 43.205075], [-72.955538, 43.204931], [-72.955031, 43.204876], [-72.954165, 43.204825], [-72.953726, 43.204823], [-72.952076, 43.204909], [-72.948845, 43.205147], [-72.947973, 43.205251], [-72.947163, 43.205399], [-72.945968, 43.205677], [-72.94513, 43.205921], [-72.944726, 43.206082], [-72.944464, 43.206207], [-72.94421, 43.206346], [-72.943682, 43.206698], [-72.943406, 43.20692], [-72.942894, 43.207426], [-72.942316, 43.208032], [-72.941859, 43.208495], [-72.941423, 43.208866], [-72.940928, 43.209199], [-72.940542, 43.209405], [-72.939939, 43.209656], [-72.938558, 43.21016], [-72.938118, 43.210376], [-72.937628, 43.210694], [-72.936359, 43.211757], [-72.936219, 43.211874], [-72.936118, 43.211958], [-72.93552, 43.212452], [-72.935168, 43.21271], [-72.93485, 43.21289], [-72.934321, 43.213132], [-72.933766, 43.213304], [-72.933397, 43.213387], [-72.933048, 43.213441], [-72.932756, 43.213465], [-72.931957, 43.213486], [-72.930575, 43.213513], [-72.930066, 43.213539], [-72.929563, 43.213594], [-72.928995, 43.213679], [-72.928309, 43.213835], [-72.927817, 43.213995], [-72.927377, 43.214165], [-72.92694, 43.214352], [-72.926543, 43.214551], [-72.925986, 43.214879], [-72.925687, 43.215089], [-72.925141, 43.215531], [-72.924891, 43.21578], [-72.924552, 43.216157], [-72.923604, 43.217202], [-72.92301, 43.217791], [-72.922766, 43.217974], [-72.92216, 43.218357], [-72.921619, 43.218622], [-72.921287, 43.218745], [-72.920976, 43.218842], [-72.917014, 43.219919], [-72.916596, 43.220055], [-72.916236, 43.22019], [-72.915893, 43.220341], [-72.915255, 43.220677], [-72.914707, 43.221035], [-72.914304, 43.221348], [-72.913672, 43.221914], [-72.913, 43.222491], [-72.912769, 43.222666], [-72.912017, 43.223219], [-72.911469, 43.223604], [-72.910257, 43.22447], [-72.910025, 43.224601], [-72.908532, 43.225578], [-72.90782, 43.225948], [-72.905815, 43.226829], [-72.905065, 43.227106], [-72.90442, 43.227303], [-72.903643, 43.227481], [-72.903068, 43.22757], [-72.902437, 43.227639], [-72.902153, 43.227666], [-72.901148, 43.227754], [-72.900706, 43.227809], [-72.900084, 43.227945], [-72.899633, 43.228086], [-72.899011, 43.22834], [-72.89837, 43.228689], [-72.898383, 43.228703]], "type": "LineString"}}], "metadata": {"attribution": "openrouteservice.org | OpenStreetMap contributors", "service": "routing", "timestamp": 1769468559865, "query": {"coordinates": [[-72.970226, 43.207053], [-72.8983829, 43.2287031]], "profile": "driving-car", "profileName": "driving-car", "format": "geojson"}, "engine": {"version": "9.5.0", "build_date": "2025-10-31T12:33:09Z", "graph_date": "2026-01-25T11:10:32Z", "osm_date": "2026-01-19T01:00:01Z"}}}