{"type": "FeatureCollection", "bbox": [-73.049443, 43.336958, -72.962458, 43.372812], "features": [{"bbox": [-73.049443, 43.336958, -72.962458, 43.372812], "type": "Feature", "properties": {"segments": [{"distance": 12015.3, "duration": 1367.5, "steps": [{"distance": 5307.7, "duration": 752.3, "type": 11, "instruction": "Head west on Seasonal Forestry Road", "name": "Seasonal Forestry Road", "way_points": [0, 147]}, {"distance": 54.2, "duration": 11.4, "type": 1, "instruction": "Turn right onto South Main Street", "name": "South Main Street", "way_points": [147, 151]}, {"distance": 6653.4, "duration": 603.7, "type": 0, "instruction": "Turn left onto Brook Road", "name": "Brook Road", "way_points": [151, 343]}, {"distance": 0.0, "duration": 0.0, "type": 10, "instruction": "Arrive at Brook Road, on the right", "name": "-", "way_points": [343, 343]}]}], "way_points": [0, 343], "summary": {"distance": 12015.3, "duration": 1367.5}}, "geometry": {"coordinates": [[-72.962458, 43.372781], [-72.962529, 43.372801], [-72.962691, 43.372812], [-72.962894, 43.372793], [-72.963149, 43.372727], [-72.963307, 43.372684], [-72.96345, 43.372639], [-72.963774, 43.372519], [-72.963969, 43.372416], [-72.964152, 43.372292], [-72.964315, 43.37215], [-72.964795, 43.371601], [-72.965657, 43.370536], [-72.965777, 43.37035], [-72.965948, 43.369944], [-72.965985, 43.369728], [-72.96603, 43.369078], [-72.966209, 43.368458], [-72.966382, 43.368062], [-72.966484, 43.367882], [-72.966737, 43.367536], [-72.967049, 43.36723], [-72.967386, 43.36698], [-72.967776, 43.366748], [-72.968378, 43.366476], [-72.968574, 43.36637], [-72.969504, 43.365787], [-72.969906, 43.365495], [-72.970451, 43.365145], [-72.970616, 43.365005], [-72.970898, 43.364681], [-72.971247, 43.364138], [-72.971632, 43.363616], [-72.97182, 43.363222], [-72.971928, 43.362879], [-72.972014, 43.362245], [-72.972021, 43.362027], [-72.97199, 43.361812], [-72.971893, 43.361538], [-72.971739, 43.361297], [-72.97137, 43.360859], [-72.971266, 43.360598], [-72.971184, 43.360328], [-72.971126, 43.359971], [-72.971153, 43.359755], [-72.971223, 43.359548], [-72.971517, 43.358961], [-72.97177, 43.35861], [-72.972126, 43.357899], [-72.972206, 43.357778], [-72.972425, 43.357594], [-72.973227, 43.35711], [-72.973342, 43.35702], [-72.973552, 43.356822], [-72.974258, 43.356035], [-72.974466, 43.355878], [-72.974826, 43.355695], [-72.97503, 43.355648], [-72.975535, 43.355605], [-72.975869, 43.355621], [-72.976023, 43.355677], [-72.97641, 43.355947], [-72.977419, 43.356743], [-72.977892, 43.35714], [-72.978062, 43.357358], [-72.978248, 43.357686], [-72.978313, 43.357762], [-72.978413, 43.357816], [-72.978567, 43.357825], [-72.978631, 43.357779], [-72.978636, 43.357693], [-72.978272, 43.356647], [-72.978075, 43.355952], [-72.977979, 43.35553], [-72.97788, 43.354894], [-72.977854, 43.354318], [-72.97781, 43.354104], [-72.977744, 43.353976], [-72.977296, 43.353504], [-72.977183, 43.353319], [-72.977036, 43.352912], [-72.976996, 43.352702], [-72.976989, 43.352207], [-72.976963, 43.352069], [-72.976869, 43.35189], [-72.97667, 43.351739], [-72.97629, 43.351479], [-72.976173, 43.351378], [-72.976156, 43.351321], [-72.976172, 43.351213], [-72.976208, 43.35115], [-72.976285, 43.351085], [-72.976433, 43.351024], [-72.976571, 43.350992], [-72.976769, 43.350984], [-72.977074, 43.351021], [-72.977915, 43.351264], [-72.978534, 43.351465], [-72.978746, 43.351515], [-72.97889, 43.351535], [-72.979112, 43.351522], [-72.97932, 43.351463], [-72.9799, 43.351012], [-72.980186, 43.350902], [-72.980206, 43.350896], [-72.980472, 43.350826], [-72.980611, 43.350791], [-72.981331, 43.350652], [-72.981562, 43.350637], [-72.981648, 43.350635], [-72.981937, 43.350641], [-72.982208, 43.350662], [-72.982471, 43.35066], [-72.98284, 43.350606], [-72.982918, 43.350588], [-72.983294, 43.350461], [-72.983547, 43.350359], [-72.983655, 43.350316], [-72.98367, 43.35031], [-72.984406, 43.350002], [-72.984621, 43.349908], [-72.984855, 43.349805], [-72.985036, 43.349726], [-72.985157, 43.349674], [-72.985906, 43.349361], [-72.986414, 43.349203], [-72.986633, 43.349148], [-72.987048, 43.349046], [-72.988184, 43.348745], [-72.988281, 43.348716], [-72.989072, 43.348474], [-72.989864, 43.348205], [-72.991492, 43.347702], [-72.991524, 43.347692], [-72.992349, 43.347427], [-72.992623, 43.347337], [-72.992775, 43.347284], [-72.993511, 43.347065], [-72.993733, 43.346998], [-72.994067, 43.346899], [-72.994081, 43.346894], [-72.994246, 43.346844], [-72.994277, 43.346835], [-72.994736, 43.346695], [-72.995023, 43.346609], [-72.995322, 43.346523], [-72.995395, 43.346497], [-72.996088, 43.346248], [-72.996127, 43.346307], [-72.996256, 43.346502], [-72.996313, 43.346584], [-72.99635, 43.346694], [-72.996769, 43.346611], [-72.997008, 43.346576], [-72.997184, 43.346567], [-72.997438, 43.346555], [-72.997934, 43.346475], [-72.998287, 43.346411], [-72.998864, 43.34639], [-72.999072, 43.34636], [-72.999278, 43.346302], [-72.999397, 43.346252], [-72.999832, 43.34602], [-73.000115, 43.345846], [-73.000317, 43.345722], [-73.00062, 43.345559], [-73.000956, 43.345355], [-73.001225, 43.345232], [-73.00137, 43.345176], [-73.001621, 43.345064], [-73.001907, 43.344876], [-73.00245, 43.344459], [-73.002882, 43.343973], [-73.002988, 43.343875], [-73.003273, 43.343652], [-73.003823, 43.343278], [-73.00404, 43.343078], [-73.004115, 43.343022], [-73.004202, 43.342956], [-73.00435, 43.342869], [-73.004492, 43.342816], [-73.004642, 43.342792], [-73.005214, 43.342757], [-73.005446, 43.342725], [-73.005465, 43.34272], [-73.005591, 43.34269], [-73.005824, 43.342595], [-73.005918, 43.342528], [-73.006105, 43.342367], [-73.00628, 43.342162], [-73.006304, 43.342137], [-73.006359, 43.342084], [-73.006614, 43.341882], [-73.006961, 43.341655], [-73.007455, 43.341225], [-73.007635, 43.341105], [-73.007822, 43.341009], [-73.008463, 43.340839], [-73.008597, 43.340782], [-73.008845, 43.340632], [-73.009054, 43.340448], [-73.009313, 43.3401], [-73.009423, 43.34], [-73.009546, 43.339922], [-73.009742, 43.339829], [-73.010964, 43.339374], [-73.011387, 43.33928], [-73.011817, 43.339224], [-73.012246, 43.339142], [-73.01305, 43.33888], [-73.013303, 43.338837], [-73.013502, 43.338797], [-73.014044, 43.338616], [-73.014755, 43.338498], [-73.014898, 43.338454], [-73.015034, 43.338391], [-73.015264, 43.338212], [-73.01536, 43.338104], [-73.015782, 43.337517], [-73.015885, 43.337412], [-73.015999, 43.337324], [-73.016254, 43.337197], [-73.01667, 43.337089], [-73.017523, 43.336964], [-73.017807, 43.336958], [-73.017941, 43.336978], [-73.018203, 43.337056], [-73.018358, 43.337119], [-73.018477, 43.337172], [-73.018593, 43.337247], [-73.018696, 43.337338], [-73.019127, 43.337913], [-73.019428, 43.338235], [-73.019597, 43.338376], [-73.020222, 43.338816], [-73.020303, 43.338876], [-73.020446, 43.338977], [-73.02064, 43.339105], [-73.02102, 43.339294], [-73.022567, 43.339905], [-73.022832, 43.340033], [-73.022959, 43.340116], [-73.023069, 43.340219], [-73.02316, 43.340341], [-73.02323, 43.340475], [-73.02363, 43.341398], [-73.02368, 43.341557], [-73.023859, 43.342088], [-73.023927, 43.342211], [-73.024019, 43.342316], [-73.024131, 43.342398], [-73.024258, 43.342453], [-73.024536, 43.342504], [-73.024677, 43.342503], [-73.025023, 43.342424], [-73.025853, 43.342178], [-73.026964, 43.341875], [-73.027227, 43.341758], [-73.028461, 43.341136], [-73.028736, 43.341025], [-73.02888, 43.340984], [-73.029181, 43.34098], [-73.029334, 43.341012], [-73.029474, 43.341061], [-73.029608, 43.341133], [-73.029747, 43.341289], [-73.029793, 43.341369], [-73.029927, 43.341775], [-73.030076, 43.342003], [-73.030172, 43.342105], [-73.030386, 43.342293], [-73.03062, 43.342455], [-73.030872, 43.342591], [-73.031135, 43.342703], [-73.031269, 43.34275], [-73.031545, 43.342813], [-73.031688, 43.342833], [-73.031972, 43.342845], [-73.03226, 43.342824], [-73.032616, 43.342774], [-73.033394, 43.34264], [-73.033813, 43.34253], [-73.03421, 43.34236], [-73.034457, 43.342212], [-73.03467, 43.342016], [-73.034992, 43.341534], [-73.03518, 43.341313], [-73.035288, 43.341213], [-73.035523, 43.341039], [-73.035787, 43.340908], [-73.03608, 43.340849], [-73.036229, 43.340841], [-73.037663, 43.340871], [-73.0378, 43.340849], [-73.037931, 43.340799], [-73.038055, 43.340727], [-73.038172, 43.340639], [-73.038272, 43.340536], [-73.038436, 43.340301], [-73.038551, 43.340038], [-73.03863, 43.339759], [-73.038793, 43.339504], [-73.038935, 43.339416], [-73.039075, 43.339347], [-73.039232, 43.339293], [-73.039398, 43.339264], [-73.039579, 43.339258], [-73.039737, 43.339277], [-73.040483, 43.339514], [-73.041759, 43.339801], [-73.042183, 43.339912], [-73.042386, 43.339987], [-73.042583, 43.340082], [-73.042766, 43.340195], [-73.044738, 43.341766], [-73.044943, 43.341968], [-73.045105, 43.342202], [-73.045204, 43.342394], [-73.045615, 43.343338], [-73.046203, 43.344716], [-73.046439, 43.345247], [-73.04651, 43.34537], [-73.046602, 43.345485], [-73.046713, 43.345584], [-73.047306, 43.345999], [-73.047525, 43.346185], [-73.047681, 43.346421], [-73.047995, 43.346988], [-73.048345, 43.347527], [-73.048394, 43.347652], [-73.048414, 43.347787], [-73.048408, 43.348218], [-73.048433, 43.348363], [-73.048483, 43.348503], [-73.048639, 43.348752], [-73.049172, 43.349433], [-73.049317, 43.349675], [-73.049373, 43.349805], [-73.049404, 43.349937], [-73.049443, 43.350223], [-73.049199, 43.350619], [-73.049002, 43.351001], [-73.047602, 43.354794], [-73.047582, 43.354841]], "type": "LineString"}}], "metadata": {"attribution": "openrouteservice.org | OpenStreetMap contributors", "service": "routing", "timestamp": 1769468560008, "query": {"coordinates": [[-72.962469, 43.372761], [-73.0475498, 43.3548341]], "profile": "driving-car", "profileName": "driving-car", "format": "geojson"}, "engine": {"version": "9.5.0", "build_date": "2025-10-31T12:33:09Z", "graph_date": "2026-01-25T11:10:32Z", "osm_date": "2026-01-19T01:00:01Z"}}}