{"type": "FeatureCollection", "bbox": [-72.977379, 43.455668, -72.934358, 43.47171], "features": [{"bbox": [-72.977379, 43.455668, -72.934358, 43.47171], "type": "Feature", "properties": {"segments": [{"distance": 4241.6, "duration": 302.9, "steps": [{"distance": 4241.6, "duration": 302.9, "type": 11, "instruction": "Head west on Vermont Route 140 East, VT 140", "name": "Vermont Route 140 East, VT 140", "way_points": [0, 96]}, {"distance": 0.0, "duration": 0.0, "type": 10, "instruction": "Arrive at Vermont Route 140 East, VT 140, on the right", "name": "-", "way_points": [96, 96]}]}], "way_points": [0, 96], "summary": {"distance": 4241.6, "duration": 302.9}}, "geometry": {"coordinates": [[-72.934358, 43.455675], [-72.934874, 43.455695], [-72.935159, 43.455729], [-72.935683, 43.455835], [-72.935865, 43.455902], [-72.936159, 43.456057], [-72.936271, 43.456087], [-72.937075, 43.456114], [-72.937377, 43.456154], [-72.937578, 43.456198], [-72.937836, 43.456281], [-72.93808, 43.456325], [-72.938265, 43.456338], [-72.938566, 43.456332], [-72.939203, 43.456291], [-72.939487, 43.456241], [-72.940593, 43.45598], [-72.941146, 43.455879], [-72.942355, 43.455762], [-72.943002, 43.455678], [-72.943228, 43.455668], [-72.943708, 43.455668], [-72.944138, 43.455695], [-72.944673, 43.455755], [-72.945154, 43.455896], [-72.945451, 43.456018], [-72.945681, 43.456148], [-72.946024, 43.456399], [-72.946096, 43.456455], [-72.947175, 43.457295], [-72.948004, 43.45788], [-72.948252, 43.458024], [-72.949301, 43.458521], [-72.949551, 43.458667], [-72.949662, 43.458762], [-72.949836, 43.45898], [-72.950347, 43.459834], [-72.95074, 43.460465], [-72.950915, 43.46069], [-72.951243, 43.461054], [-72.952225, 43.462114], [-72.952784, 43.46279], [-72.953018, 43.462954], [-72.953547, 43.463194], [-72.95379, 43.463351], [-72.953897, 43.463444], [-72.954276, 43.463877], [-72.954648, 43.464239], [-72.954708, 43.464305], [-72.954858, 43.464503], [-72.95513, 43.465013], [-72.955313, 43.465259], [-72.955426, 43.46536], [-72.955679, 43.465523], [-72.955952, 43.465645], [-72.956373, 43.465756], [-72.957092, 43.465815], [-72.957517, 43.465892], [-72.957791, 43.465988], [-72.958438, 43.466302], [-72.958848, 43.466448], [-72.959559, 43.466649], [-72.959802, 43.466762], [-72.96017, 43.466975], [-72.96058, 43.467172], [-72.960876, 43.467251], [-72.96117, 43.467282], [-72.961459, 43.467258], [-72.96217, 43.467136], [-72.962455, 43.467101], [-72.962884, 43.467091], [-72.96403, 43.467195], [-72.964532, 43.467254], [-72.964957, 43.467337], [-72.965225, 43.467426], [-72.965999, 43.467828], [-72.966411, 43.467973], [-72.966782, 43.468079], [-72.967249, 43.468212], [-72.967924, 43.468465], [-72.968164, 43.468617], [-72.968577, 43.468961], [-72.969131, 43.469479], [-72.969588, 43.469837], [-72.969833, 43.469995], [-72.970347, 43.470271], [-72.970616, 43.47039], [-72.971272, 43.470635], [-72.971709, 43.470792], [-72.972142, 43.470896], [-72.973291, 43.471089], [-72.974531, 43.471286], [-72.974814, 43.471329], [-72.975224, 43.471397], [-72.975718, 43.471479], [-72.977238, 43.471689], [-72.977379, 43.47171]], "type": "LineString"}}], "metadata": {"attribution": "openrouteservice.org | OpenStreetMap contributors", "service": "routing", "timestamp": 1769468560147, "query": {"coordinates": [[-72.934359, 43.45566], [-72.9773692, 43.4717467]], "profile": "driving-car", "profileName": "driving-car", "format": "geojson"}, "engine": {"version": "9.5.0", "build_date": "2025-10-31T12:33:09Z", "graph_date": "2026-01-25T11:10:32Z", "osm_date": "2026-01-19T01:00:01Z"}}}