{"type": "FeatureCollection", "bbox": [-72.554083, 43.664824, -72.53837, 43.671969], "features": [{"bbox": [-72.554083, 43.664824, -72.53837, 43.671969], "type": "Feature", "properties": {"segments": [{"distance": 1672.5, "duration": 136.0, "steps": [{"distance": 1485.0, "duration": 115.9, "type": 11, "instruction": "Head southeast on Stage Road", "name": "Stage Road", "way_points": [0, 27]}, {"distance": 90.6, "duration": 13.0, "type": 2, "instruction": "Turn sharp left onto Library Street", "name": "Library Street", "way_points": [27, 30]}, {"distance": 96.9, "duration": 7.0, "type": 6, "instruction": "Continue straight onto Pomfret Road", "name": "Pomfret Road", "way_points": [30, 31]}, {"distance": 0.0, "duration": 0.0, "type": 10, "instruction": "Arrive at Pomfret Road, on the left", "name": "-", "way_points": [31, 31]}]}], "way_points": [0, 31], "summary": {"distance": 1672.5, "duration": 136.0}}, "geometry": {"coordinates": [[-72.554083, 43.671969], [-72.551695, 43.670781], [-72.551354, 43.670636], [-72.551001, 43.670511], [-72.549999, 43.670197], [-72.549475, 43.67], [-72.548877, 43.669746], [-72.5483, 43.669477], [-72.548019, 43.669329], [-72.547505, 43.669045], [-72.547133, 43.668815], [-72.54705, 43.668765], [-72.54701, 43.66874], [-72.545801, 43.667965], [-72.545312, 43.667615], [-72.545152, 43.66748], [-72.544941, 43.667279], [-72.544732, 43.667036], [-72.54457, 43.666777], [-72.544358, 43.666377], [-72.544249, 43.666257], [-72.544102, 43.666156], [-72.543745, 43.666026], [-72.542743, 43.665829], [-72.542605, 43.665796], [-72.541094, 43.665437], [-72.539305, 43.664926], [-72.539058, 43.664824], [-72.539044, 43.665038], [-72.538931, 43.665253], [-72.538719, 43.66559], [-72.53837, 43.666424]], "type": "LineString"}}], "metadata": {"attribution": "openrouteservice.org | OpenStreetMap contributors", "service": "routing", "timestamp": 1769468560293, "query": {"coordinates": [[-72.554054, 43.672], [-72.5385716, 43.6664679]], "profile": "driving-car", "profileName": "driving-car", "format": "geojson"}, "engine": {"version": "9.5.0", "build_date": "2025-10-31T12:33:09Z", "graph_date": "2026-01-25T11:10:32Z", "osm_date": "2026-01-19T01:00:01Z"}}}