{"type": "FeatureCollection", "bbox": [-72.22949, 43.692765, -72.223032, 43.70473], "features": [{"bbox": [-72.22949, 43.692765, -72.223032, 43.70473], "type": "Feature", "properties": {"segments": [{"distance": 1429.5, "duration": 102.9, "steps": [{"distance": 1429.5, "duration": 102.9, "type": 11, "instruction": "Head southeast on Trescott Road", "name": "Trescott Road", "way_points": [0, 18]}, {"distance": 0.0, "duration": 0.0, "type": 10, "instruction": "Arrive at Trescott Road, straight ahead", "name": "-", "way_points": [18, 18]}]}], "way_points": [0, 18], "summary": {"distance": 1429.5, "duration": 102.9}}, "geometry": {"coordinates": [[-72.22949, 43.70473], [-72.229185, 43.704226], [-72.228856, 43.703636], [-72.228193, 43.702328], [-72.227406, 43.700874], [-72.22718, 43.700419], [-72.226803, 43.699663], [-72.226719, 43.699459], [-72.226426, 43.698935], [-72.225772, 43.697765], [-72.225694, 43.697615], [-72.225174, 43.69667], [-72.224617, 43.695766], [-72.224311, 43.695287], [-72.224037, 43.694871], [-72.223905, 43.694632], [-72.223586, 43.693832], [-72.223283, 43.693215], [-72.223032, 43.692765]], "type": "LineString"}}], "metadata": {"attribution": "openrouteservice.org | OpenStreetMap contributors", "service": "routing", "timestamp": 1769468560430, "query": {"coordinates": [[-72.229657, 43.704677], [-72.2230389, 43.692763199999995]], "profile": "driving-car", "profileName": "driving-car", "format": "geojson"}, "engine": {"version": "9.5.0", "build_date": "2025-10-31T12:33:09Z", "graph_date": "2026-01-25T11:10:32Z", "osm_date": "2026-01-19T01:00:01Z"}}}