{"type": "FeatureCollection", "bbox": [-72.155734, 43.792657, -72.103122, 43.810156], "features": [{"bbox": [-72.155734, 43.792657, -72.103122, 43.810156], "type": "Feature", "properties": {"segments": [{"distance": 4853.8, "duration": 386.6, "steps": [{"distance": 6.6, "duration": 0.5, "type": 11, "instruction": "Head northwest on Grafton Turnpike", "name": "Grafton Turnpike", "way_points": [0, 1]}, {"distance": 4727.6, "duration": 357.3, "type": 6, "instruction": "Continue straight onto Dorchester Road", "name": "Dorchester Road", "way_points": [1, 87]}, {"distance": 21.6, "duration": 5.2, "type": 0, "instruction": "Turn left onto On the Common", "name": "On the Common", "way_points": [87, 89]}, {"distance": 98.0, "duration": 23.5, "type": 12, "instruction": "Keep left", "name": "-", "way_points": [89, 96]}, {"distance": 0.0, "duration": 0.0, "type": 10, "instruction": "Arrive at your destination, on the left", "name": "-", "way_points": [96, 96]}]}], "way_points": [0, 96], "summary": {"distance": 4853.8, "duration": 386.6}}, "geometry": {"coordinates": [[-72.103122, 43.792657], [-72.103123, 43.792658], [-72.103216, 43.792717], [-72.103441, 43.792814], [-72.104739, 43.793281], [-72.107305, 43.794254], [-72.108601, 43.794727], [-72.108885, 43.794854], [-72.110261, 43.795306], [-72.110631, 43.795394], [-72.111364, 43.795529], [-72.111752, 43.795609], [-72.112461, 43.795811], [-72.113401, 43.796146], [-72.114945, 43.796699], [-72.116981, 43.797371], [-72.118031, 43.797776], [-72.120731, 43.798728], [-72.121734, 43.799009], [-72.121857, 43.799043], [-72.122291, 43.799116], [-72.12259, 43.799143], [-72.12434, 43.799119], [-72.12451, 43.799138], [-72.124885, 43.79921], [-72.125254, 43.799325], [-72.125401, 43.799376], [-72.126685, 43.79977], [-72.127489, 43.799974], [-72.127885, 43.800048], [-72.128285, 43.800079], [-72.128872, 43.800072], [-72.129259, 43.800107], [-72.129457, 43.800144], [-72.129814, 43.80026], [-72.130379, 43.800542], [-72.130802, 43.800731], [-72.131239, 43.800883], [-72.13214, 43.801164], [-72.134488, 43.80168], [-72.135208, 43.801872], [-72.135782, 43.802067], [-72.136057, 43.802182], [-72.136317, 43.802316], [-72.136407, 43.80238], [-72.13658, 43.802503], [-72.136901, 43.802679], [-72.137068, 43.802737], [-72.137277, 43.802784], [-72.138009, 43.802874], [-72.138317, 43.802893], [-72.138569, 43.802866], [-72.138923, 43.802774], [-72.139061, 43.802761], [-72.13922, 43.802768], [-72.139407, 43.802794], [-72.139895, 43.802923], [-72.140153, 43.802966], [-72.141289, 43.803045], [-72.141602, 43.803085], [-72.142526, 43.803278], [-72.143254, 43.8034], [-72.143527, 43.803463], [-72.144409, 43.803705], [-72.14486, 43.803875], [-72.145068, 43.803958], [-72.146283, 43.804473], [-72.146549, 43.804605], [-72.146885, 43.804822], [-72.14742, 43.805261], [-72.149385, 43.806858], [-72.149882, 43.807257], [-72.150109, 43.807462], [-72.150222, 43.807593], [-72.150334, 43.807777], [-72.150392, 43.807932], [-72.15044, 43.80807], [-72.150538, 43.808274], [-72.150601, 43.808408], [-72.15079, 43.808565], [-72.151123, 43.808774], [-72.151542, 43.808939], [-72.153929, 43.809799], [-72.154374, 43.809932], [-72.154569, 43.80999], [-72.154888, 43.810117], [-72.154903, 43.810129], [-72.154938, 43.810156], [-72.155061, 43.810093], [-72.155169, 43.810058], [-72.155318, 43.809876], [-72.155445, 43.809504], [-72.155489, 43.809462], [-72.15556, 43.80945], [-72.155673, 43.809469], [-72.155713, 43.809499], [-72.155734, 43.809552]], "type": "LineString"}}], "metadata": {"attribution": "openrouteservice.org | OpenStreetMap contributors", "service": "routing", "timestamp": 1769468560568, "query": {"coordinates": [[-72.103143, 43.792643], [-72.1559219, 43.8095142]], "profile": "driving-car", "profileName": "driving-car", "format": "geojson"}, "engine": {"version": "9.5.0", "build_date": "2025-10-31T12:33:09Z", "graph_date": "2026-01-25T11:10:32Z", "osm_date": "2026-01-19T01:00:01Z"}}}