{"type": "FeatureCollection", "bbox": [-71.981988, 43.79481, -71.812755, 43.90112], "features": [{"bbox": [-71.981988, 43.79481, -71.812755, 43.90112], "type": "Feature", "properties": {"segments": [{"distance": 21704.5, "duration": 1334.0, "steps": [{"distance": 7137.9, "duration": 475.9, "type": 11, "instruction": "Head east on State Route 25A, NH 25A", "name": "State Route 25A, NH 25A", "way_points": [0, 105]}, {"distance": 13341.9, "duration": 748.1, "type": 1, "instruction": "Turn right onto Mt Moosilauke Highway, NH 25, NH 118", "name": "Mt Moosilauke Highway, NH 25, NH 118", "way_points": [105, 275]}, {"distance": 1224.8, "duration": 110.0, "type": 0, "instruction": "Turn left onto Main Street", "name": "Main Street", "way_points": [275, 291]}, {"distance": 0.0, "duration": 0.0, "type": 10, "instruction": "Arrive at Main Street, on the right", "name": "-", "way_points": [291, 291]}]}], "way_points": [0, 291], "summary": {"distance": 21704.5, "duration": 1334.0}}, "geometry": {"coordinates": [[-71.981988, 43.90112], [-71.981938, 43.901108], [-71.981179, 43.900913], [-71.978882, 43.900243], [-71.978515, 43.900115], [-71.976825, 43.899453], [-71.973705, 43.898175], [-71.973467, 43.898054], [-71.973245, 43.897918], [-71.973041, 43.897769], [-71.972855, 43.897604], [-71.972692, 43.897427], [-71.972554, 43.897239], [-71.972443, 43.897042], [-71.972333, 43.896775], [-71.972096, 43.895948], [-71.971969, 43.895597], [-71.971764, 43.895202], [-71.971543, 43.894889], [-71.970804, 43.89398], [-71.970006, 43.893046], [-71.969777, 43.892816], [-71.969169, 43.892272], [-71.968206, 43.891476], [-71.967747, 43.891187], [-71.967268, 43.89099], [-71.966999, 43.890901], [-71.96397, 43.890162], [-71.963615, 43.890049], [-71.96319, 43.889878], [-71.962782, 43.889685], [-71.960024, 43.888247], [-71.958663, 43.887571], [-71.958311, 43.887451], [-71.957764, 43.887304], [-71.956624, 43.887036], [-71.95611, 43.886915], [-71.955348, 43.886758], [-71.954728, 43.886689], [-71.952465, 43.886662], [-71.951675, 43.886588], [-71.951097, 43.886478], [-71.950813, 43.886406], [-71.950255, 43.886222], [-71.949979, 43.886111], [-71.949448, 43.885852], [-71.948893, 43.88549], [-71.948269, 43.88499], [-71.946242, 43.883292], [-71.945928, 43.883072], [-71.945517, 43.882813], [-71.944914, 43.882469], [-71.944385, 43.882198], [-71.943845, 43.881956], [-71.943184, 43.881702], [-71.940595, 43.880833], [-71.939039, 43.880317], [-71.937252, 43.879674], [-71.936932, 43.879517], [-71.936624, 43.87934], [-71.936339, 43.87915], [-71.935167, 43.878268], [-71.934973, 43.878101], [-71.934655, 43.877736], [-71.934489, 43.877485], [-71.934133, 43.876757], [-71.93344, 43.875632], [-71.933236, 43.875221], [-71.933068, 43.8748], [-71.932954, 43.874379], [-71.932833, 43.873156], [-71.93276, 43.872876], [-71.932703, 43.87274], [-71.932553, 43.87248], [-71.932013, 43.871738], [-71.931761, 43.871438], [-71.931632, 43.871329], [-71.931492, 43.871226], [-71.931327, 43.871141], [-71.930979, 43.871011], [-71.930794, 43.870967], [-71.9306, 43.87094], [-71.930204, 43.870937], [-71.92982, 43.870995], [-71.929638, 43.871045], [-71.929133, 43.871259], [-71.928447, 43.87152], [-71.927851, 43.8717], [-71.927196, 43.871888], [-71.925825, 43.872247], [-71.924978, 43.872406], [-71.923935, 43.872565], [-71.923354, 43.872595], [-71.922249, 43.872494], [-71.9217, 43.872492], [-71.919525, 43.872647], [-71.919165, 43.872705], [-71.9182, 43.872937], [-71.917823, 43.872998], [-71.917011, 43.873078], [-71.916121, 43.873172], [-71.915523, 43.873172], [-71.915341, 43.873137], [-71.914987, 43.873027], [-71.913273, 43.872365], [-71.912966, 43.872263], [-71.912944, 43.871884], [-71.91287, 43.871606], [-71.91253, 43.870948], [-71.911919, 43.869817], [-71.91185, 43.869682], [-71.911287, 43.86842], [-71.911167, 43.868132], [-71.910544, 43.866707], [-71.910158, 43.865727], [-71.910065, 43.865363], [-71.91003, 43.865022], [-71.910036, 43.864657], [-71.910096, 43.864241], [-71.910198, 43.863898], [-71.910391, 43.863497], [-71.911107, 43.862265], [-71.911307, 43.861792], [-71.911474, 43.861268], [-71.911539, 43.860897], [-71.911571, 43.860454], [-71.911559, 43.860131], [-71.911529, 43.859899], [-71.910998, 43.857395], [-71.910786, 43.856268], [-71.9107, 43.855504], [-71.910697, 43.85503], [-71.910763, 43.854164], [-71.911395, 43.84958], [-71.911424, 43.848939], [-71.91135, 43.848232], [-71.911286, 43.847924], [-71.911193, 43.847612], [-71.910985, 43.84709], [-71.910668, 43.846424], [-71.910473, 43.846012], [-71.909875, 43.844806], [-71.909569, 43.844358], [-71.909356, 43.844122], [-71.909176, 43.843953], [-71.908762, 43.843628], [-71.908269, 43.843342], [-71.90791, 43.84317], [-71.907537, 43.843017], [-71.907341, 43.842953], [-71.907139, 43.842897], [-71.906519, 43.842764], [-71.905451, 43.842593], [-71.905136, 43.842526], [-71.90483, 43.842444], [-71.904531, 43.842341], [-71.904246, 43.842218], [-71.903974, 43.842077], [-71.903724, 43.841919], [-71.903497, 43.841744], [-71.903289, 43.841557], [-71.903107, 43.841353], [-71.902953, 43.84114], [-71.902829, 43.840918], [-71.902662, 43.84046], [-71.902276, 43.839141], [-71.902099, 43.838618], [-71.901814, 43.837905], [-71.901594, 43.837435], [-71.90119, 43.83667], [-71.900976, 43.836307], [-71.900517, 43.835602], [-71.899952, 43.83485], [-71.899731, 43.834557], [-71.898603, 43.833191], [-71.894762, 43.82845], [-71.894087, 43.827471], [-71.893891, 43.827119], [-71.893598, 43.826508], [-71.893165, 43.825308], [-71.893029, 43.825014], [-71.892823, 43.824596], [-71.892305, 43.823805], [-71.892065, 43.823454], [-71.891792, 43.823113], [-71.891516, 43.822829], [-71.890984, 43.822339], [-71.890408, 43.821901], [-71.889964, 43.8216], [-71.88991, 43.821569], [-71.889511, 43.821336], [-71.888918, 43.821044], [-71.88862, 43.820911], [-71.8881, 43.820715], [-71.887025, 43.820389], [-71.88595, 43.82009], [-71.884474, 43.819678], [-71.881761, 43.818939], [-71.88041, 43.81856], [-71.879812, 43.818374], [-71.879156, 43.818147], [-71.878655, 43.817937], [-71.876696, 43.817032], [-71.876021, 43.816761], [-71.874202, 43.816121], [-71.873823, 43.815979], [-71.87299, 43.815699], [-71.87203, 43.815317], [-71.87174, 43.815189], [-71.870885, 43.814761], [-71.870057, 43.814385], [-71.869726, 43.814185], [-71.869309, 43.813893], [-71.868762, 43.813439], [-71.868048, 43.812803], [-71.866727, 43.811682], [-71.866377, 43.811384], [-71.865316, 43.810479], [-71.863777, 43.809244], [-71.863051, 43.808624], [-71.861934, 43.807782], [-71.861598, 43.807516], [-71.861244, 43.807199], [-71.860789, 43.806707], [-71.860486, 43.806284], [-71.860136, 43.805663], [-71.859681, 43.805006], [-71.859497, 43.804753], [-71.85918, 43.804431], [-71.858826, 43.804137], [-71.858215, 43.803737], [-71.857934, 43.803599], [-71.857451, 43.803392], [-71.857171, 43.803291], [-71.856571, 43.803106], [-71.856133, 43.802971], [-71.85516, 43.802627], [-71.854733, 43.802453], [-71.854318, 43.802258], [-71.853706, 43.801906], [-71.853353, 43.801667], [-71.853085, 43.801463], [-71.852777, 43.80119], [-71.852265, 43.800673], [-71.848967, 43.796999], [-71.848625, 43.796653], [-71.848368, 43.796437], [-71.848089, 43.796238], [-71.847644, 43.795964], [-71.847325, 43.7958], [-71.84699, 43.795655], [-71.846639, 43.795531], [-71.846278, 43.795425], [-71.845816, 43.795316], [-71.845339, 43.795234], [-71.844951, 43.795195], [-71.843976, 43.795153], [-71.84356, 43.795155], [-71.842935, 43.795141], [-71.840171, 43.795035], [-71.839466, 43.795022], [-71.837636, 43.794955], [-71.837125, 43.79495], [-71.833517, 43.794829], [-71.832449, 43.79481], [-71.831591, 43.794823], [-71.830631, 43.794868], [-71.829575, 43.794953], [-71.82453, 43.795472], [-71.824194, 43.795498], [-71.82351, 43.795517], [-71.822827, 43.795512], [-71.82225, 43.795485], [-71.821688, 43.795432], [-71.81767, 43.794948], [-71.817019, 43.79487], [-71.81696, 43.795491], [-71.816921, 43.795704], [-71.816828, 43.795895], [-71.816487, 43.796443], [-71.816376, 43.796671], [-71.816297, 43.796966], [-71.816151, 43.797789], [-71.816045, 43.798061], [-71.815738, 43.798608], [-71.815454, 43.799043], [-71.814375, 43.800875], [-71.814156, 43.801288], [-71.813847, 43.802006], [-71.812998, 43.804463], [-71.812868, 43.805022], [-71.812755, 43.805377]], "type": "LineString"}}], "metadata": {"attribution": "openrouteservice.org | OpenStreetMap contributors", "service": "routing", "timestamp": 1769468560705, "query": {"coordinates": [[-71.981993, 43.901108], [-71.8125811, 43.805348599999995]], "profile": "driving-car", "profileName": "driving-car", "format": "geojson"}, "engine": {"version": "9.5.0", "build_date": "2025-10-31T12:33:09Z", "graph_date": "2026-01-25T11:10:32Z", "osm_date": "2026-01-19T01:00:01Z"}}}