{"type": "FeatureCollection", "bbox": [-71.981988, 43.869682, -71.91185, 43.90112], "features": [{"bbox": [-71.981988, 43.869682, -71.91185, 43.90112], "type": "Feature", "properties": {"segments": [{"distance": 7752.1, "duration": 539.9, "steps": [{"distance": 7137.9, "duration": 475.9, "type": 11, "instruction": "Head east on State Route 25A, NH 25A", "name": "State Route 25A, NH 25A", "way_points": [0, 105]}, {"distance": 302.7, "duration": 24.2, "type": 1, "instruction": "Turn right onto Mt Moosilauke Highway, NH 25, NH 118", "name": "Mt Moosilauke Highway, NH 25, NH 118", "way_points": [105, 110]}, {"distance": 99.9, "duration": 14.4, "type": 3, "instruction": "Turn sharp right onto Ellsworth Hill Road", "name": "Ellsworth Hill Road", "way_points": [110, 111]}, {"distance": 211.6, "duration": 25.4, "type": 1, "instruction": "Turn right onto Pond Brook Road", "name": "Pond Brook Road", "way_points": [111, 121]}, {"distance": 0.0, "duration": 0.0, "type": 10, "instruction": "Arrive at Pond Brook Road, on the right", "name": "-", "way_points": [121, 121]}]}], "way_points": [0, 121], "summary": {"distance": 7752.1, "duration": 539.9}}, "geometry": {"coordinates": [[-71.981988, 43.90112], [-71.981938, 43.901108], [-71.981179, 43.900913], [-71.978882, 43.900243], [-71.978515, 43.900115], [-71.976825, 43.899453], [-71.973705, 43.898175], [-71.973467, 43.898054], [-71.973245, 43.897918], [-71.973041, 43.897769], [-71.972855, 43.897604], [-71.972692, 43.897427], [-71.972554, 43.897239], [-71.972443, 43.897042], [-71.972333, 43.896775], [-71.972096, 43.895948], [-71.971969, 43.895597], [-71.971764, 43.895202], [-71.971543, 43.894889], [-71.970804, 43.89398], [-71.970006, 43.893046], [-71.969777, 43.892816], [-71.969169, 43.892272], [-71.968206, 43.891476], [-71.967747, 43.891187], [-71.967268, 43.89099], [-71.966999, 43.890901], [-71.96397, 43.890162], [-71.963615, 43.890049], [-71.96319, 43.889878], [-71.962782, 43.889685], [-71.960024, 43.888247], [-71.958663, 43.887571], [-71.958311, 43.887451], [-71.957764, 43.887304], [-71.956624, 43.887036], [-71.95611, 43.886915], [-71.955348, 43.886758], [-71.954728, 43.886689], [-71.952465, 43.886662], [-71.951675, 43.886588], [-71.951097, 43.886478], [-71.950813, 43.886406], [-71.950255, 43.886222], [-71.949979, 43.886111], [-71.949448, 43.885852], [-71.948893, 43.88549], [-71.948269, 43.88499], [-71.946242, 43.883292], [-71.945928, 43.883072], [-71.945517, 43.882813], [-71.944914, 43.882469], [-71.944385, 43.882198], [-71.943845, 43.881956], [-71.943184, 43.881702], [-71.940595, 43.880833], [-71.939039, 43.880317], [-71.937252, 43.879674], [-71.936932, 43.879517], [-71.936624, 43.87934], [-71.936339, 43.87915], [-71.935167, 43.878268], [-71.934973, 43.878101], [-71.934655, 43.877736], [-71.934489, 43.877485], [-71.934133, 43.876757], [-71.93344, 43.875632], [-71.933236, 43.875221], [-71.933068, 43.8748], [-71.932954, 43.874379], [-71.932833, 43.873156], [-71.93276, 43.872876], [-71.932703, 43.87274], [-71.932553, 43.87248], [-71.932013, 43.871738], [-71.931761, 43.871438], [-71.931632, 43.871329], [-71.931492, 43.871226], [-71.931327, 43.871141], [-71.930979, 43.871011], [-71.930794, 43.870967], [-71.9306, 43.87094], [-71.930204, 43.870937], [-71.92982, 43.870995], [-71.929638, 43.871045], [-71.929133, 43.871259], [-71.928447, 43.87152], [-71.927851, 43.8717], [-71.927196, 43.871888], [-71.925825, 43.872247], [-71.924978, 43.872406], [-71.923935, 43.872565], [-71.923354, 43.872595], [-71.922249, 43.872494], [-71.9217, 43.872492], [-71.919525, 43.872647], [-71.919165, 43.872705], [-71.9182, 43.872937], [-71.917823, 43.872998], [-71.917011, 43.873078], [-71.916121, 43.873172], [-71.915523, 43.873172], [-71.915341, 43.873137], [-71.914987, 43.873027], [-71.913273, 43.872365], [-71.912966, 43.872263], [-71.912944, 43.871884], [-71.91287, 43.871606], [-71.91253, 43.870948], [-71.911919, 43.869817], [-71.91185, 43.869682], [-71.913092, 43.869759], [-71.913231, 43.869952], [-71.913629, 43.870247], [-71.913712, 43.870325], [-71.913768, 43.87047], [-71.913759, 43.87084], [-71.913798, 43.870935], [-71.913868, 43.871017], [-71.913988, 43.8711], [-71.914219, 43.871175], [-71.914423, 43.87121]], "type": "LineString"}}], "metadata": {"attribution": "openrouteservice.org | OpenStreetMap contributors", "service": "routing", "timestamp": 1769468560845, "query": {"coordinates": [[-71.981993, 43.901108], [-71.9142504, 43.8717359]], "profile": "driving-car", "profileName": "driving-car", "format": "geojson"}, "engine": {"version": "9.5.0", "build_date": "2025-10-31T12:33:09Z", "graph_date": "2026-01-25T11:10:32Z", "osm_date": "2026-01-19T01:00:01Z"}}}