{"type": "FeatureCollection", "bbox": [-71.944238, 43.923402, -71.891624, 43.953515], "features": [{"bbox": [-71.944238, 43.923402, -71.891624, 43.953515], "type": "Feature", "properties": {"segments": [{"distance": 5602.7, "duration": 455.7, "steps": [{"distance": 5602.7, "duration": 455.7, "type": 11, "instruction": "Head southeast on Lake Tarleton Road, NH 25C", "name": "Lake Tarleton Road, NH 25C", "way_points": [0, 54]}, {"distance": 0.0, "duration": 0.0, "type": 10, "instruction": "Arrive at Lake Tarleton Road, NH 25C, on the right", "name": "-", "way_points": [54, 54]}]}], "way_points": [0, 54], "summary": {"distance": 5602.7, "duration": 455.7}}, "geometry": {"coordinates": [[-71.944238, 43.953515], [-71.944065, 43.953449], [-71.942905, 43.952777], [-71.942023, 43.952122], [-71.941376, 43.951703], [-71.939936, 43.950844], [-71.939113, 43.950235], [-71.938899, 43.950039], [-71.93873, 43.949803], [-71.938521, 43.949259], [-71.938418, 43.949062], [-71.938292, 43.948882], [-71.936124, 43.946143], [-71.935394, 43.945053], [-71.935257, 43.944876], [-71.935096, 43.944726], [-71.934918, 43.944594], [-71.934192, 43.944156], [-71.933715, 43.943814], [-71.933432, 43.943589], [-71.933226, 43.943389], [-71.933086, 43.943221], [-71.932798, 43.942804], [-71.932681, 43.942699], [-71.932502, 43.942569], [-71.932367, 43.942505], [-71.932226, 43.942456], [-71.931897, 43.942379], [-71.930931, 43.942242], [-71.930444, 43.94219], [-71.930209, 43.942184], [-71.929972, 43.942191], [-71.928577, 43.942386], [-71.928155, 43.942433], [-71.926691, 43.942567], [-71.926217, 43.942588], [-71.925983, 43.942578], [-71.925522, 43.942519], [-71.925299, 43.942473], [-71.922343, 43.941681], [-71.921957, 43.941547], [-71.920494, 43.940909], [-71.919044, 43.940255], [-71.917965, 43.9397], [-71.917651, 43.939475], [-71.917018, 43.93909], [-71.906403, 43.93269], [-71.903592, 43.931086], [-71.902838, 43.930629], [-71.899694, 43.928637], [-71.897932, 43.927553], [-71.894006, 43.925075], [-71.892962, 43.924394], [-71.892413, 43.923997], [-71.891624, 43.923402]], "type": "LineString"}}], "metadata": {"attribution": "openrouteservice.org | OpenStreetMap contributors", "service": "routing", "timestamp": 1769468561988, "query": {"coordinates": [[-71.944227, 43.953529], [-71.8920283, 43.9231239]], "profile": "driving-car", "profileName": "driving-car", "format": "geojson"}, "engine": {"version": "9.5.0", "build_date": "2025-10-31T12:33:09Z", "graph_date": "2026-01-25T11:10:32Z", "osm_date": "2026-01-19T01:00:01Z"}}}