{"type": "FeatureCollection", "bbox": [-71.899173, 43.986549, -71.896394, 43.989813], "features": [{"bbox": [-71.899173, 43.986549, -71.896394, 43.989813], "type": "Feature", "properties": {"segments": [{"distance": 441.3, "duration": 37.8, "steps": [{"distance": 416.6, "duration": 33.3, "type": 11, "instruction": "Head southeast on Mount Moosilauke Highway, NH 25", "name": "Mount Moosilauke Highway, NH 25", "way_points": [0, 10]}, {"distance": 24.7, "duration": 4.4, "type": 1, "instruction": "Turn right", "name": "-", "way_points": [10, 12]}, {"distance": 0.0, "duration": 0.0, "type": 10, "instruction": "Arrive at your destination, on the left", "name": "-", "way_points": [12, 12]}]}], "way_points": [0, 12], "summary": {"distance": 441.3, "duration": 37.8}}, "geometry": {"coordinates": [[-71.899173, 43.989813], [-71.89887, 43.989547], [-71.898295, 43.988974], [-71.897564, 43.988144], [-71.897431, 43.987993], [-71.897226, 43.987756], [-71.896965, 43.987424], [-71.89694, 43.987393], [-71.896812, 43.987229], [-71.896508, 43.986812], [-71.896394, 43.986653], [-71.896611, 43.98657], [-71.896665, 43.986549]], "type": "LineString"}}], "metadata": {"attribution": "openrouteservice.org | OpenStreetMap contributors", "service": "routing", "timestamp": 1769468562126, "query": {"coordinates": [[-71.899188, 43.989804], [-71.8966006, 43.986461899999995]], "profile": "driving-car", "profileName": "driving-car", "format": "geojson"}, "engine": {"version": "9.5.0", "build_date": "2025-10-31T12:33:09Z", "graph_date": "2026-01-25T11:10:32Z", "osm_date": "2026-01-19T01:00:01Z"}}}