{"type": "FeatureCollection", "bbox": [-71.747815, 44.096931, -71.676133, 44.228631], "features": [{"bbox": [-71.747815, 44.096931, -71.676133, 44.228631], "type": "Feature", "properties": {"segments": [{"distance": 19213.1, "duration": 1211.9, "steps": [{"distance": 51.2, "duration": 12.3, "type": 11, "instruction": "Head west", "name": "-", "way_points": [0, 3]}, {"distance": 46.6, "duration": 13.2, "type": 0, "instruction": "Turn left", "name": "-", "way_points": [3, 6]}, {"distance": 56.5, "duration": 13.6, "type": 1, "instruction": "Turn right", "name": "-", "way_points": [6, 8]}, {"distance": 18607.5, "duration": 1135.7, "type": 1, "instruction": "Turn right onto Daniel Webster Highway, US 3", "name": "Daniel Webster Highway, US 3", "way_points": [8, 213]}, {"distance": 259.0, "duration": 18.6, "type": 13, "instruction": "Keep right", "name": "-", "way_points": [213, 215]}, {"distance": 192.4, "duration": 18.6, "type": 0, "instruction": "Turn left onto Wallace Hill Road, NH 116", "name": "Wallace Hill Road, NH 116", "way_points": [215, 220]}, {"distance": 0.0, "duration": 0.0, "type": 10, "instruction": "Arrive at Wallace Hill Road, NH 116, on the right", "name": "-", "way_points": [220, 220]}]}], "way_points": [0, 220], "summary": {"distance": 19213.1, "duration": 1211.9}}, "geometry": {"coordinates": [[-71.681519, 44.097577], [-71.68153, 44.097577], [-71.681804, 44.097485], [-71.682073, 44.097352], [-71.68196, 44.097198], [-71.681955, 44.097106], [-71.681975, 44.096954], [-71.682166, 44.096931], [-71.682679, 44.096957], [-71.682464, 44.098065], [-71.682422, 44.098364], [-71.682398, 44.098887], [-71.682459, 44.099352], [-71.682577, 44.099808], [-71.682753, 44.100776], [-71.682775, 44.101356], [-71.682689, 44.103207], [-71.682619, 44.10338], [-71.682577, 44.104194], [-71.682591, 44.104615], [-71.682774, 44.105724], [-71.68279, 44.106021], [-71.682759, 44.10636], [-71.682597, 44.107058], [-71.682471, 44.108101], [-71.682167, 44.109363], [-71.68204, 44.109983], [-71.681981, 44.110402], [-71.681948, 44.110708], [-71.681892, 44.111478], [-71.681886, 44.112115], [-71.681968, 44.113363], [-71.682083, 44.114815], [-71.682189, 44.117353], [-71.682193, 44.117991], [-71.682166, 44.119095], [-71.682033, 44.120953], [-71.681966, 44.121851], [-71.681614, 44.126791], [-71.681532, 44.127537], [-71.681425, 44.127963], [-71.681266, 44.128376], [-71.680537, 44.129909], [-71.680364, 44.130333], [-71.680245, 44.130756], [-71.680208, 44.13097], [-71.680183, 44.131187], [-71.680171, 44.131619], [-71.680185, 44.131834], [-71.680256, 44.132266], [-71.680376, 44.132681], [-71.680549, 44.13309], [-71.680655, 44.133296], [-71.680902, 44.133687], [-71.681927, 44.13506], [-71.682911, 44.136387], [-71.683472, 44.137117], [-71.683966, 44.137783], [-71.684199, 44.138213], [-71.684333, 44.138638], [-71.684378, 44.138847], [-71.684404, 44.139162], [-71.684393, 44.13943], [-71.68435, 44.139696], [-71.684198, 44.140166], [-71.683952, 44.140615], [-71.683737, 44.140898], [-71.683473, 44.141194], [-71.682619, 44.142101], [-71.681884, 44.142896], [-71.681641, 44.143192], [-71.68142, 44.143519], [-71.681185, 44.143971], [-71.681081, 44.14423], [-71.680943, 44.144843], [-71.680758, 44.146752], [-71.680645, 44.147264], [-71.68057, 44.147517], [-71.680419, 44.147926], [-71.680234, 44.148328], [-71.679559, 44.149605], [-71.67933, 44.150079], [-71.679164, 44.150489], [-71.678974, 44.151074], [-71.678774, 44.151839], [-71.677956, 44.154911], [-71.677605, 44.156171], [-71.67742, 44.156665], [-71.677239, 44.157082], [-71.676531, 44.158665], [-71.676402, 44.159071], [-71.676317, 44.159473], [-71.676271, 44.159879], [-71.676231, 44.160665], [-71.676133, 44.163424], [-71.676165, 44.163914], [-71.676249, 44.16423], [-71.67638, 44.164537], [-71.676617, 44.164919], [-71.676815, 44.165159], [-71.677162, 44.165473], [-71.677502, 44.165713], [-71.677685, 44.165824], [-71.677875, 44.165927], [-71.678256, 44.166097], [-71.679078, 44.166421], [-71.680221, 44.166865], [-71.680591, 44.167026], [-71.680891, 44.16718], [-71.681177, 44.167359], [-71.681525, 44.16763], [-71.681796, 44.167897], [-71.682191, 44.168373], [-71.683028, 44.169438], [-71.683264, 44.16969], [-71.683528, 44.169934], [-71.683788, 44.170138], [-71.684333, 44.170487], [-71.684862, 44.170749], [-71.686782, 44.171493], [-71.687118, 44.171623], [-71.687483, 44.171788], [-71.687777, 44.171957], [-71.688044, 44.172148], [-71.68842, 44.17249], [-71.688615, 44.172728], [-71.688775, 44.172979], [-71.68992, 44.175551], [-71.690343, 44.176208], [-71.691364, 44.177569], [-71.691544, 44.17784], [-71.69168, 44.178124], [-71.691771, 44.178417], [-71.691815, 44.178709], [-71.691814, 44.179002], [-71.691775, 44.179293], [-71.69169, 44.179578], [-71.691493, 44.179971], [-71.691322, 44.180215], [-71.691123, 44.180439], [-71.690894, 44.180649], [-71.68988, 44.18139], [-71.68897, 44.182021], [-71.686268, 44.183976], [-71.685481, 44.184545], [-71.685208, 44.184736], [-71.683875, 44.185711], [-71.683556, 44.185966], [-71.683246, 44.186244], [-71.682969, 44.18652], [-71.682719, 44.186803], [-71.682478, 44.187111], [-71.682086, 44.187727], [-71.681786, 44.18838], [-71.681675, 44.18871], [-71.681587, 44.189048], [-71.681524, 44.189396], [-71.681469, 44.190073], [-71.681427, 44.191618], [-71.6814, 44.192531], [-71.681391, 44.192923], [-71.681358, 44.193958], [-71.68127, 44.19714], [-71.681283, 44.19789], [-71.681343, 44.198301], [-71.681454, 44.198702], [-71.681612, 44.199089], [-71.681821, 44.199474], [-71.682078, 44.199841], [-71.682224, 44.200018], [-71.682548, 44.200357], [-71.682913, 44.200674], [-71.683317, 44.200966], [-71.683531, 44.201102], [-71.683985, 44.201352], [-71.684224, 44.201467], [-71.684709, 44.201667], [-71.685461, 44.201905], [-71.685983, 44.202024], [-71.686293, 44.202078], [-71.690431, 44.202642], [-71.690691, 44.202677], [-71.695054, 44.203274], [-71.69782, 44.203651], [-71.706093, 44.204777], [-71.707104, 44.204938], [-71.707964, 44.205111], [-71.715974, 44.206976], [-71.716978, 44.207221], [-71.717471, 44.207365], [-71.718091, 44.207574], [-71.71857, 44.207761], [-71.719389, 44.208126], [-71.720169, 44.208558], [-71.720732, 44.208922], [-71.721205, 44.209269], [-71.721654, 44.209653], [-71.721971, 44.209956], [-71.722426, 44.210445], [-71.728702, 44.218332], [-71.729084, 44.218802], [-71.729698, 44.219579], [-71.730235, 44.220211], [-71.730978, 44.220884], [-71.731552, 44.221328], [-71.731977, 44.221621], [-71.732413, 44.221889], [-71.733211, 44.222304], [-71.733633, 44.222524], [-71.739206, 44.225422], [-71.74014, 44.225875], [-71.741074, 44.226287], [-71.742023, 44.226673], [-71.743884, 44.227364], [-71.745037, 44.227958], [-71.746608, 44.228631], [-71.747188, 44.228061], [-71.747421, 44.227806], [-71.747573, 44.227605], [-71.74776, 44.227239], [-71.747815, 44.227145]], "type": "LineString"}}], "metadata": {"attribution": "openrouteservice.org | OpenStreetMap contributors", "service": "routing", "timestamp": 1769468616851, "query": {"coordinates": [[-71.681521, 44.097633], [-71.7479075, 44.2271729]], "profile": "driving-car", "profileName": "driving-car", "format": "geojson"}, "engine": {"version": "9.5.0", "build_date": "2025-10-31T12:33:09Z", "graph_date": "2026-01-25T11:10:32Z", "osm_date": "2026-01-19T01:00:01Z"}}}