{"type": "FeatureCollection", "bbox": [-71.449792, 44.170757, -71.388134, 44.258245], "features": [{"bbox": [-71.449792, 44.170757, -71.388134, 44.258245], "type": "Feature", "properties": {"segments": [{"distance": 12388.8, "duration": 851.1, "steps": [{"distance": 24.0, "duration": 4.3, "type": 11, "instruction": "Head north on Wiley House Station Road", "name": "Wiley House Station Road", "way_points": [0, 2]}, {"distance": 11297.9, "duration": 624.8, "type": 0, "instruction": "Turn left onto Crawford Notch Road, US 302", "name": "Crawford Notch Road, US 302", "way_points": [2, 154]}, {"distance": 725.8, "duration": 151.9, "type": 1, "instruction": "Turn right onto Mount Washington Hotel Road", "name": "Mount Washington Hotel Road", "way_points": [154, 172]}, {"distance": 139.5, "duration": 25.1, "type": 0, "instruction": "Turn left onto Mount Washington Hotel Road", "name": "Mount Washington Hotel Road", "way_points": [172, 178]}, {"distance": 55.2, "duration": 9.9, "type": 0, "instruction": "Turn left onto Clement Road", "name": "Clement Road", "way_points": [178, 181]}, {"distance": 133.1, "duration": 31.9, "type": 0, "instruction": "Turn left", "name": "-", "way_points": [181, 183]}, {"distance": 13.2, "duration": 3.2, "type": 1, "instruction": "Turn right", "name": "-", "way_points": [183, 185]}, {"distance": 0.0, "duration": 0.0, "type": 10, "instruction": "Arrive at your destination, on the left", "name": "-", "way_points": [185, 185]}]}], "way_points": [0, 185], "summary": {"distance": 12388.8, "duration": 851.1}}, "geometry": {"coordinates": [[-71.388185, 44.170757], [-71.388173, 44.170855], [-71.388134, 44.170935], [-71.389343, 44.171251], [-71.390525, 44.171584], [-71.391367, 44.171837], [-71.391616, 44.171925], [-71.392065, 44.172112], [-71.392265, 44.172212], [-71.392479, 44.172343], [-71.392947, 44.17268], [-71.393179, 44.172886], [-71.393435, 44.173162], [-71.393625, 44.173435], [-71.393836, 44.173844], [-71.393927, 44.174096], [-71.39399, 44.174395], [-71.394007, 44.174583], [-71.394012, 44.175383], [-71.394047, 44.175792], [-71.394169, 44.176223], [-71.394405, 44.176679], [-71.394629, 44.176982], [-71.394876, 44.177265], [-71.39758, 44.180093], [-71.398, 44.180589], [-71.398174, 44.180821], [-71.398543, 44.181351], [-71.398891, 44.181928], [-71.399092, 44.182349], [-71.399234, 44.182703], [-71.399305, 44.182881], [-71.399657, 44.183688], [-71.399909, 44.184108], [-71.40024, 44.184549], [-71.401165, 44.18561], [-71.401485, 44.186042], [-71.403123, 44.188864], [-71.403398, 44.189308], [-71.403687, 44.189744], [-71.405279, 44.191978], [-71.405525, 44.192352], [-71.405717, 44.192699], [-71.406006, 44.193277], [-71.406154, 44.193651], [-71.406281, 44.19405], [-71.406785, 44.195811], [-71.407096, 44.197055], [-71.407201, 44.19774], [-71.407209, 44.197846], [-71.407202, 44.198034], [-71.407151, 44.198408], [-71.406999, 44.198963], [-71.406868, 44.199268], [-71.406533, 44.199877], [-71.406383, 44.200117], [-71.406227, 44.200411], [-71.405477, 44.20169], [-71.405008, 44.202447], [-71.404619, 44.202901], [-71.40372, 44.203716], [-71.403554, 44.203893], [-71.403264, 44.204269], [-71.403141, 44.204493], [-71.403045, 44.204713], [-71.402955, 44.20501], [-71.402889, 44.205388], [-71.402885, 44.20567], [-71.402906, 44.205877], [-71.402966, 44.206157], [-71.403089, 44.206519], [-71.403191, 44.206746], [-71.403237, 44.206848], [-71.403994, 44.208618], [-71.404033, 44.208707], [-71.404319, 44.209377], [-71.404425, 44.209801], [-71.404438, 44.21], [-71.404345, 44.210763], [-71.404372, 44.210955], [-71.404485, 44.211183], [-71.404574, 44.211295], [-71.404713, 44.211416], [-71.405331, 44.211789], [-71.405766, 44.212122], [-71.406028, 44.212375], [-71.406937, 44.213346], [-71.407166, 44.213651], [-71.407432, 44.214209], [-71.407608, 44.214545], [-71.407699, 44.214669], [-71.407874, 44.21486], [-71.408065, 44.215021], [-71.409024, 44.215737], [-71.409394, 44.216045], [-71.409739, 44.216362], [-71.4103, 44.216935], [-71.410532, 44.217197], [-71.410662, 44.217375], [-71.410739, 44.217517], [-71.410816, 44.217773], [-71.410835, 44.217932], [-71.410825, 44.218095], [-71.410775, 44.218305], [-71.410679, 44.218533], [-71.410394, 44.219051], [-71.410277, 44.219372], [-71.410256, 44.219615], [-71.41027, 44.219766], [-71.410329, 44.219996], [-71.410439, 44.220214], [-71.410539, 44.220359], [-71.410737, 44.220579], [-71.410967, 44.220753], [-71.41158, 44.221093], [-71.412038, 44.22136], [-71.412349, 44.221575], [-71.414151, 44.223104], [-71.416948, 44.225531], [-71.417705, 44.226227], [-71.417927, 44.22647], [-71.418538, 44.227214], [-71.418811, 44.227598], [-71.419216, 44.228362], [-71.419505, 44.228987], [-71.41979, 44.229571], [-71.421367, 44.233075], [-71.422615, 44.235776], [-71.422884, 44.236302], [-71.423209, 44.236849], [-71.423594, 44.237383], [-71.423875, 44.237721], [-71.424336, 44.238213], [-71.425518, 44.239208], [-71.429675, 44.242636], [-71.430264, 44.243099], [-71.430342, 44.243158], [-71.430595, 44.243342], [-71.430979, 44.243608], [-71.43217, 44.244363], [-71.433276, 44.245058], [-71.434789, 44.245979], [-71.435308, 44.246317], [-71.436382, 44.246941], [-71.438187, 44.24812], [-71.440074, 44.249242], [-71.442165, 44.250554], [-71.443629, 44.251409], [-71.44441, 44.251834], [-71.445875, 44.252496], [-71.447309, 44.253019], [-71.448447, 44.253488], [-71.448732, 44.253606], [-71.449127, 44.253799], [-71.449792, 44.254164], [-71.449579, 44.25432], [-71.449362, 44.254506], [-71.449166, 44.254634], [-71.448865, 44.254736], [-71.448696, 44.254777], [-71.446418, 44.255039], [-71.445713, 44.255132], [-71.44538, 44.255215], [-71.444965, 44.255372], [-71.443959, 44.255844], [-71.443844, 44.25589], [-71.443707, 44.255913], [-71.443295, 44.256057], [-71.442912, 44.256165], [-71.442852, 44.256202], [-71.441882, 44.256358], [-71.441651, 44.25635], [-71.441458, 44.256317], [-71.441216, 44.256686], [-71.441182, 44.25679], [-71.441172, 44.256885], [-71.44119, 44.256978], [-71.441311, 44.257295], [-71.441286, 44.257517], [-71.441412, 44.257611], [-71.441547, 44.257794], [-71.441595, 44.257949], [-71.442679, 44.258142], [-71.443233, 44.258134], [-71.443267, 44.258229], [-71.443248, 44.258245]], "type": "LineString"}}], "metadata": {"attribution": "openrouteservice.org | OpenStreetMap contributors", "service": "routing", "timestamp": 1769468617254, "query": {"coordinates": [[-71.38813, 44.170754], [-71.4433295, 44.258294899999996]], "profile": "driving-car", "profileName": "driving-car", "format": "geojson"}, "engine": {"version": "9.5.0", "build_date": "2025-10-31T12:33:09Z", "graph_date": "2026-01-25T11:10:32Z", "osm_date": "2026-01-19T01:00:01Z"}}}