{"type": "FeatureCollection", "bbox": [-71.111974, 44.384416, -70.789624, 44.416563], "features": [{"bbox": [-71.111974, 44.384416, -70.789624, 44.416563], "type": "Feature", "properties": {"segments": [{"distance": 29951.7, "duration": 1705.6, "steps": [{"distance": 28203.8, "duration": 1541.3, "type": 11, "instruction": "Head northeast on US 2", "name": "US 2", "way_points": [0, 309]}, {"distance": 1080.5, "duration": 64.8, "type": 1, "instruction": "Turn right onto Lovers Lane, ME 5, ME 35", "name": "Lovers Lane, ME 5, ME 35", "way_points": [309, 318]}, {"distance": 485.0, "duration": 62.7, "type": 0, "instruction": "Turn left onto Mill Hill Road", "name": "Mill Hill Road", "way_points": [318, 334]}, {"distance": 23.0, "duration": 4.1, "type": 2, "instruction": "Turn sharp left onto Broad Street", "name": "Broad Street", "way_points": [334, 336]}, {"distance": 75.1, "duration": 12.4, "type": 13, "instruction": "Keep right onto Main Street", "name": "Main Street", "way_points": [336, 338]}, {"distance": 84.4, "duration": 20.3, "type": 1, "instruction": "Turn right", "name": "-", "way_points": [338, 341]}, {"distance": 0.0, "duration": 0.0, "type": 10, "instruction": "Arrive at your destination, on the right", "name": "-", "way_points": [341, 341]}]}], "way_points": [0, 341], "summary": {"distance": 29951.7, "duration": 1705.6}}, "geometry": {"coordinates": [[-71.111974, 44.400098], [-71.111118, 44.400414], [-71.110029, 44.40086], [-71.109607, 44.401039], [-71.109354, 44.401148], [-71.106295, 44.402594], [-71.101898, 44.404745], [-71.100664, 44.405304], [-71.099941, 44.405678], [-71.099363, 44.405934], [-71.099078, 44.406028], [-71.098457, 44.406191], [-71.097403, 44.406409], [-71.095524, 44.406773], [-71.09256, 44.407303], [-71.090246, 44.407745], [-71.089357, 44.407888], [-71.088877, 44.407936], [-71.088199, 44.407943], [-71.087969, 44.407929], [-71.087231, 44.407892], [-71.086455, 44.407789], [-71.082528, 44.407097], [-71.082046, 44.406986], [-71.081421, 44.406739], [-71.081149, 44.406574], [-71.080984, 44.406449], [-71.080898, 44.406385], [-71.080648, 44.406128], [-71.080412, 44.405852], [-71.080264, 44.405591], [-71.080174, 44.405316], [-71.080149, 44.405002], [-71.080158, 44.403928], [-71.080141, 44.403705], [-71.080074, 44.403422], [-71.07994, 44.403127], [-71.079774, 44.402868], [-71.079656, 44.402748], [-71.079555, 44.402645], [-71.07799, 44.401317], [-71.076951, 44.40046], [-71.07565, 44.399357], [-71.074576, 44.398499], [-71.074373, 44.39837], [-71.074135, 44.398192], [-71.073559, 44.397863], [-71.073157, 44.397665], [-71.072843, 44.39751], [-71.072355, 44.397323], [-71.071366, 44.397006], [-71.070594, 44.396829], [-71.069887, 44.396712], [-71.069159, 44.396654], [-71.068389, 44.396626], [-71.067715, 44.396657], [-71.067457, 44.396661], [-71.067013, 44.396703], [-71.066096, 44.396851], [-71.065554, 44.396977], [-71.06537, 44.397021], [-71.065031, 44.397111], [-71.061587, 44.398182], [-71.061167, 44.398288], [-71.0608, 44.398358], [-71.060212, 44.398441], [-71.059865, 44.398458], [-71.059074, 44.398448], [-71.05841, 44.398373], [-71.057996, 44.398293], [-71.057285, 44.398122], [-71.056655, 44.397902], [-71.056141, 44.397679], [-71.055657, 44.397447], [-71.053832, 44.396103], [-71.052067, 44.394796], [-71.050805, 44.393844], [-71.050552, 44.393676], [-71.049946, 44.393341], [-71.049231, 44.393037], [-71.04894, 44.392931], [-71.048512, 44.392794], [-71.048003, 44.392662], [-71.047503, 44.392552], [-71.047153, 44.392495], [-71.046462, 44.392415], [-71.045787, 44.39239], [-71.045115, 44.392402], [-71.043324, 44.392588], [-71.038822, 44.393142], [-71.037587, 44.393274], [-71.03695, 44.393272], [-71.036565, 44.393248], [-71.035995, 44.393164], [-71.035334, 44.393001], [-71.034929, 44.392862], [-71.034394, 44.392625], [-71.033955, 44.392372], [-71.033739, 44.392221], [-71.033299, 44.391837], [-71.032126, 44.390553], [-71.031846, 44.390285], [-71.031174, 44.389719], [-71.03083, 44.38947], [-71.030228, 44.38908], [-71.028115, 44.387863], [-71.027251, 44.387382], [-71.025465, 44.38634], [-71.023777, 44.385393], [-71.023489, 44.385253], [-71.022842, 44.384983], [-71.022, 44.384724], [-71.021058, 44.384531], [-71.020531, 44.384464], [-71.02023, 44.384442], [-71.020029, 44.384427], [-71.019298, 44.384416], [-71.018425, 44.384464], [-71.017618, 44.384588], [-71.016658, 44.384791], [-71.015617, 44.385116], [-71.014272, 44.385547], [-71.013402, 44.385884], [-71.012418, 44.386345], [-71.011398, 44.386888], [-71.009465, 44.388051], [-71.006083, 44.38994], [-71.002229, 44.391981], [-70.999395, 44.393713], [-70.997559, 44.394895], [-70.996353, 44.395438], [-70.995065, 44.395806], [-70.994597, 44.395903], [-70.994128, 44.395941], [-70.993162, 44.395965], [-70.992637, 44.395924], [-70.99223, 44.395849], [-70.991794, 44.395746], [-70.991375, 44.395595], [-70.990504, 44.395133], [-70.989768, 44.394622], [-70.989159, 44.39423], [-70.988267, 44.393779], [-70.987097, 44.393348], [-70.983923, 44.392217], [-70.983275, 44.392071], [-70.982866, 44.392021], [-70.982253, 44.391998], [-70.98164, 44.392047], [-70.980693, 44.392247], [-70.979687, 44.392474], [-70.977703, 44.392931], [-70.974529, 44.393662], [-70.974175, 44.39374], [-70.972663, 44.39406], [-70.9709, 44.394468], [-70.969916, 44.394742], [-70.964667, 44.396012], [-70.963981, 44.396119], [-70.963127, 44.396166], [-70.96199, 44.396087], [-70.958738, 44.39546], [-70.958316, 44.395421], [-70.957867, 44.395397], [-70.957223, 44.395411], [-70.956614, 44.395473], [-70.9561, 44.395588], [-70.95544, 44.395763], [-70.954921, 44.395963], [-70.953347, 44.396615], [-70.952168, 44.397015], [-70.951762, 44.397132], [-70.951103, 44.397313], [-70.949915, 44.397564], [-70.948968, 44.397713], [-70.948299, 44.397795], [-70.947451, 44.397864], [-70.946565, 44.397899], [-70.945681, 44.397893], [-70.939895, 44.39769], [-70.938019, 44.39768], [-70.937386, 44.397714], [-70.936117, 44.397837], [-70.935494, 44.397929], [-70.934874, 44.39804], [-70.933774, 44.398281], [-70.931185, 44.398881], [-70.930538, 44.399081], [-70.929842, 44.399367], [-70.929552, 44.399522], [-70.929279, 44.39969], [-70.928897, 44.399957], [-70.928687, 44.400127], [-70.928466, 44.40033], [-70.928263, 44.400552], [-70.92808, 44.400774], [-70.927851, 44.401097], [-70.927054, 44.402619], [-70.926756, 44.40307], [-70.926569, 44.403297], [-70.926258, 44.403625], [-70.926011, 44.40385], [-70.925638, 44.404138], [-70.925115, 44.404472], [-70.92447, 44.404792], [-70.923934, 44.404986], [-70.923591, 44.405075], [-70.922935, 44.405182], [-70.922698, 44.405205], [-70.922132, 44.405217], [-70.918381, 44.404955], [-70.917276, 44.404944], [-70.916455, 44.404988], [-70.91559, 44.405095], [-70.913659, 44.405425], [-70.910063, 44.406206], [-70.909092, 44.406368], [-70.907959, 44.406457], [-70.898865, 44.406706], [-70.897872, 44.40669], [-70.896874, 44.40661], [-70.896343, 44.406491], [-70.895459, 44.406174], [-70.894972, 44.405933], [-70.894151, 44.405266], [-70.893304, 44.404609], [-70.892957, 44.404397], [-70.892478, 44.404184], [-70.891743, 44.403992], [-70.890948, 44.403853], [-70.889481, 44.403733], [-70.888963, 44.403666], [-70.888429, 44.403545], [-70.887942, 44.403363], [-70.887367, 44.403076], [-70.885853, 44.402098], [-70.885043, 44.401643], [-70.883467, 44.400896], [-70.878911, 44.399027], [-70.878562, 44.398926], [-70.87782, 44.398807], [-70.877252, 44.398779], [-70.876665, 44.398802], [-70.876283, 44.398864], [-70.875803, 44.398978], [-70.874924, 44.399322], [-70.874472, 44.399533], [-70.873872, 44.399775], [-70.873248, 44.399968], [-70.872734, 44.400096], [-70.872265, 44.400182], [-70.871558, 44.400257], [-70.869508, 44.400474], [-70.868419, 44.400594], [-70.866796, 44.400911], [-70.86514, 44.401216], [-70.865005, 44.401241], [-70.864282, 44.401301], [-70.863548, 44.401363], [-70.862967, 44.401451], [-70.862042, 44.401683], [-70.86127, 44.401963], [-70.861135, 44.402035], [-70.860478, 44.402418], [-70.859966, 44.402808], [-70.858117, 44.404376], [-70.857061, 44.40517], [-70.856183, 44.405777], [-70.85533, 44.406278], [-70.854748, 44.406573], [-70.853711, 44.407099], [-70.850517, 44.40915], [-70.846333, 44.41189], [-70.844331, 44.413164], [-70.84336, 44.413758], [-70.842577, 44.414198], [-70.840688, 44.415173], [-70.839539, 44.415722], [-70.839182, 44.415862], [-70.838734, 44.415982], [-70.838343, 44.416088], [-70.837415, 44.416228], [-70.832058, 44.416553], [-70.831543, 44.416563], [-70.830998, 44.416509], [-70.830428, 44.416403], [-70.829516, 44.416075], [-70.829098, 44.415881], [-70.828015, 44.415109], [-70.826231, 44.413749], [-70.825669, 44.413359], [-70.82509, 44.413065], [-70.823906, 44.412665], [-70.82236, 44.412198], [-70.820768, 44.411821], [-70.819826, 44.411671], [-70.818467, 44.411455], [-70.818126, 44.411397], [-70.809727, 44.409956], [-70.808624, 44.409772], [-70.808616, 44.409771], [-70.80849, 44.409749], [-70.807613, 44.409597], [-70.807002, 44.40951], [-70.806352, 44.409465], [-70.805819, 44.409467], [-70.805328, 44.40949], [-70.804911, 44.409526], [-70.803769, 44.409626], [-70.803621, 44.409634], [-70.802963, 44.409018], [-70.801434, 44.407999], [-70.800713, 44.407539], [-70.799651, 44.406908], [-70.798948, 44.406447], [-70.79857, 44.406146], [-70.796779, 44.404309], [-70.796141, 44.403473], [-70.795202, 44.402138], [-70.795094, 44.402121], [-70.79402, 44.402229], [-70.793938, 44.402243], [-70.793739, 44.402301], [-70.79194, 44.403026], [-70.791597, 44.403131], [-70.791044, 44.403302], [-70.790985, 44.403331], [-70.790936, 44.403377], [-70.790924, 44.403469], [-70.791154, 44.40381], [-70.791165, 44.403865], [-70.791139, 44.403955], [-70.791096, 44.404009], [-70.790959, 44.404094], [-70.790682, 44.404133], [-70.790788, 44.404264], [-70.790826, 44.404311], [-70.79071, 44.404605], [-70.790503, 44.404944], [-70.790161, 44.404822], [-70.789739, 44.404706], [-70.789624, 44.404565]], "type": "LineString"}}], "metadata": {"attribution": "openrouteservice.org | OpenStreetMap contributors", "service": "routing", "timestamp": 1769468617495, "query": {"coordinates": [[-71.11197, 44.400092], [-70.7898806, 44.4044586]], "profile": "driving-car", "profileName": "driving-car", "format": "geojson"}, "engine": {"version": "9.5.0", "build_date": "2025-10-31T12:33:09Z", "graph_date": "2026-01-25T11:10:32Z", "osm_date": "2026-01-19T01:00:01Z"}}}