{"type": "FeatureCollection", "bbox": [-70.77375, 44.83685, -70.701549, 44.966406], "features": [{"bbox": [-70.77375, 44.83685, -70.701549, 44.966406], "type": "Feature", "properties": {"segments": [{"distance": 17486.6, "duration": 1002.5, "steps": [{"distance": 17370.5, "duration": 974.7, "type": 11, "instruction": "Head north on Rumford Road, ME 17", "name": "Rumford Road, ME 17", "way_points": [0, 179]}, {"distance": 80.2, "duration": 19.2, "type": 0, "instruction": "Turn left onto Carry Road", "name": "Carry Road", "way_points": [179, 182]}, {"distance": 35.9, "duration": 8.6, "type": 1, "instruction": "Turn right onto Hatchery Road", "name": "Hatchery Road", "way_points": [182, 183]}, {"distance": 0.0, "duration": 0.0, "type": 10, "instruction": "Arrive at Hatchery Road, on the right", "name": "-", "way_points": [183, 183]}]}], "way_points": [0, 183], "summary": {"distance": 17486.6, "duration": 1002.5}}, "geometry": {"coordinates": [[-70.70997, 44.83685], [-70.710033, 44.837607], [-70.710049, 44.838103], [-70.709955, 44.8389], [-70.709791, 44.839686], [-70.709491, 44.840372], [-70.709234, 44.840721], [-70.708955, 44.841031], [-70.708061, 44.841921], [-70.707801, 44.842231], [-70.707608, 44.842516], [-70.70535, 44.846257], [-70.70516, 44.846535], [-70.704942, 44.846772], [-70.704719, 44.846972], [-70.704397, 44.84719], [-70.703974, 44.847445], [-70.702613, 44.848175], [-70.702268, 44.848513], [-70.702149, 44.848737], [-70.702057, 44.849139], [-70.702109, 44.849461], [-70.703323, 44.852394], [-70.703472, 44.852785], [-70.703609, 44.853237], [-70.703719, 44.853838], [-70.703756, 44.854207], [-70.703738, 44.854703], [-70.703676, 44.855144], [-70.703561, 44.855576], [-70.702898, 44.857652], [-70.701788, 44.860898], [-70.701549, 44.861795], [-70.701562, 44.862069], [-70.701683, 44.86258], [-70.70325, 44.866284], [-70.7034, 44.866571], [-70.703689, 44.866865], [-70.704019, 44.867095], [-70.704642, 44.867396], [-70.705543, 44.867747], [-70.706516, 44.86828], [-70.709435, 44.87001], [-70.71029, 44.870591], [-70.710446, 44.870724], [-70.710998, 44.871243], [-70.71153, 44.871901], [-70.711897, 44.872625], [-70.712246, 44.873709], [-70.712589, 44.875056], [-70.714019, 44.879417], [-70.715275, 44.883482], [-70.715475, 44.884215], [-70.715523, 44.884629], [-70.715502, 44.885027], [-70.715437, 44.885311], [-70.715239, 44.885821], [-70.715, 44.886184], [-70.714563, 44.886657], [-70.712927, 44.888233], [-70.7127, 44.888549], [-70.712403, 44.889138], [-70.712264, 44.889706], [-70.712225, 44.893769], [-70.71225, 44.894512], [-70.712239, 44.895054], [-70.712322, 44.895552], [-70.712493, 44.896076], [-70.712761, 44.896548], [-70.714575, 44.898763], [-70.715114, 44.899581], [-70.715851, 44.901264], [-70.715944, 44.901475], [-70.716156, 44.901869], [-70.716557, 44.902288], [-70.716905, 44.902521], [-70.717307, 44.902702], [-70.717901, 44.902862], [-70.718561, 44.902961], [-70.719229, 44.902961], [-70.721152, 44.902531], [-70.721888, 44.902393], [-70.722184, 44.902399], [-70.722873, 44.902474], [-70.723676, 44.902718], [-70.724188, 44.903008], [-70.724599, 44.903408], [-70.725517, 44.904877], [-70.725639, 44.905077], [-70.725873, 44.905378], [-70.726166, 44.905626], [-70.726498, 44.905823], [-70.726609, 44.905889], [-70.726972, 44.906055], [-70.727038, 44.906086], [-70.727932, 44.906283], [-70.728694, 44.906324], [-70.72999, 44.906289], [-70.730519, 44.906303], [-70.731078, 44.906368], [-70.73277, 44.906782], [-70.734761, 44.907241], [-70.735224, 44.907385], [-70.735808, 44.907595], [-70.73612, 44.907724], [-70.738494, 44.908782], [-70.739132, 44.909085], [-70.739691, 44.909396], [-70.740274, 44.909795], [-70.741194, 44.9105], [-70.742044, 44.911185], [-70.742788, 44.911931], [-70.743199, 44.912517], [-70.74348, 44.913051], [-70.744456, 44.915408], [-70.744806, 44.9162], [-70.745084, 44.916595], [-70.746331, 44.918031], [-70.746688, 44.918352], [-70.747068, 44.918653], [-70.748723, 44.919816], [-70.749254, 44.920266], [-70.749823, 44.92087], [-70.750581, 44.921698], [-70.751953, 44.923255], [-70.752475, 44.923972], [-70.752653, 44.924253], [-70.752916, 44.924758], [-70.753093, 44.925223], [-70.753326, 44.925994], [-70.753391, 44.926355], [-70.753412, 44.926688], [-70.753364, 44.927261], [-70.753304, 44.927593], [-70.753101, 44.9281], [-70.752942, 44.928342], [-70.752731, 44.928677], [-70.750059, 44.932798], [-70.74986, 44.933323], [-70.74978, 44.93374], [-70.74979, 44.934211], [-70.749893, 44.934646], [-70.750059, 44.935048], [-70.750237, 44.93532], [-70.752326, 44.938084], [-70.752601, 44.938488], [-70.752697, 44.9387], [-70.752911, 44.939284], [-70.752978, 44.939701], [-70.75337, 44.942391], [-70.753537, 44.94344], [-70.753618, 44.943724], [-70.753731, 44.94412], [-70.754589, 44.946176], [-70.754685, 44.94645], [-70.756741, 44.950658], [-70.75748, 44.951938], [-70.757978, 44.952715], [-70.758494, 44.953487], [-70.75919, 44.954396], [-70.759656, 44.954946], [-70.760508, 44.955943], [-70.761266, 44.956722], [-70.762129, 44.957526], [-70.762406, 44.957796], [-70.763519, 44.958696], [-70.764148, 44.95913], [-70.764824, 44.95958], [-70.766793, 44.96076], [-70.768327, 44.961678], [-70.769068, 44.962103], [-70.769784, 44.962602], [-70.770152, 44.962897], [-70.770612, 44.9633], [-70.771371, 44.964138], [-70.771699, 44.964556], [-70.772273, 44.965512], [-70.772461, 44.965833], [-70.772496, 44.965976], [-70.772468, 44.966097], [-70.772625, 44.966126], [-70.772786, 44.966147], [-70.773479, 44.966147], [-70.77375, 44.966406]], "type": "LineString"}}], "metadata": {"attribution": "openrouteservice.org | OpenStreetMap contributors", "service": "routing", "timestamp": 1769468617665, "query": {"coordinates": [[-70.709918, 44.836852], [-70.7736801, 44.9664431]], "profile": "driving-car", "profileName": "driving-car", "format": "geojson"}, "engine": {"version": "9.5.0", "build_date": "2025-10-31T12:33:09Z", "graph_date": "2026-01-25T11:10:32Z", "osm_date": "2026-01-19T01:00:01Z"}}}