{"type": "FeatureCollection", "bbox": [-70.35671, 44.958715, -70.154386, 45.103418], "features": [{"bbox": [-70.35671, 44.958715, -70.154386, 45.103418], "type": "Feature", "properties": {"segments": [{"distance": 28816.7, "duration": 1559.5, "steps": [{"distance": 28755.9, "duration": 1549.3, "type": 11, "instruction": "Head southeast on Carrabassett Road, ME 27, ME 16", "name": "Carrabassett Road, ME 27, ME 16", "way_points": [0, 331]}, {"distance": 60.8, "duration": 10.2, "type": 0, "instruction": "Turn left onto Maple Street, ME 16", "name": "Maple Street, ME 16", "way_points": [331, 335]}, {"distance": 0.0, "duration": 0.0, "type": 10, "instruction": "Arrive at Maple Street, ME 16, on the right", "name": "-", "way_points": [335, 335]}]}], "way_points": [0, 335], "summary": {"distance": 28816.7, "duration": 1559.5}}, "geometry": {"coordinates": [[-70.35671, 45.103418], [-70.356299, 45.102906], [-70.355729, 45.102298], [-70.355461, 45.101988], [-70.354272, 45.100829], [-70.351199, 45.098238], [-70.35067, 45.097835], [-70.349847, 45.097318], [-70.348704, 45.096712], [-70.347701, 45.096277], [-70.346623, 45.09586], [-70.345473, 45.095535], [-70.343459, 45.095213], [-70.341419, 45.094886], [-70.34062, 45.094633], [-70.339652, 45.094263], [-70.338591, 45.093774], [-70.337777, 45.093474], [-70.335996, 45.092915], [-70.335396, 45.092673], [-70.334988, 45.092463], [-70.334415, 45.092136], [-70.332305, 45.090123], [-70.331043, 45.089039], [-70.330938, 45.088949], [-70.329768, 45.088046], [-70.327698, 45.086449], [-70.325477, 45.085088], [-70.324372, 45.084287], [-70.324023, 45.084043], [-70.322786, 45.083176], [-70.322208, 45.08279], [-70.321731, 45.082491], [-70.321204, 45.082201], [-70.32038, 45.081822], [-70.31951, 45.08145], [-70.31944, 45.08142], [-70.319085, 45.081249], [-70.318995, 45.081205], [-70.318386, 45.080883], [-70.318339, 45.080856], [-70.316403, 45.079818], [-70.315903, 45.079527], [-70.315598, 45.079407], [-70.315385, 45.079315], [-70.314467, 45.079118], [-70.313682, 45.079011], [-70.313348, 45.07899], [-70.313087, 45.078989], [-70.312724, 45.079012], [-70.312486, 45.079023], [-70.311907, 45.079077], [-70.311614, 45.079123], [-70.310307, 45.079409], [-70.310169, 45.079442], [-70.309301, 45.079697], [-70.308654, 45.079934], [-70.307598, 45.080388], [-70.306605, 45.080845], [-70.305561, 45.081342], [-70.304966, 45.081645], [-70.303929, 45.082225], [-70.302789, 45.082897], [-70.302676, 45.082962], [-70.302111, 45.083262], [-70.30129, 45.083604], [-70.300473, 45.083866], [-70.299996, 45.083977], [-70.299214, 45.08409], [-70.298855, 45.084123], [-70.297909, 45.084163], [-70.296507, 45.084138], [-70.295966, 45.084174], [-70.295542, 45.084238], [-70.295182, 45.084328], [-70.294795, 45.084475], [-70.294451, 45.084646], [-70.293846, 45.085029], [-70.293189, 45.085501], [-70.29279, 45.085816], [-70.292125, 45.086403], [-70.291811, 45.086647], [-70.291517, 45.086826], [-70.291148, 45.086992], [-70.290737, 45.087114], [-70.289266, 45.087381], [-70.28807, 45.087564], [-70.287783, 45.087596], [-70.287496, 45.087612], [-70.286972, 45.087594], [-70.286702, 45.087579], [-70.286218, 45.087524], [-70.284179, 45.087239], [-70.283127, 45.087072], [-70.280132, 45.086675], [-70.279365, 45.086658], [-70.278694, 45.086813], [-70.278128, 45.087064], [-70.275671, 45.088981], [-70.275279, 45.08922], [-70.274833, 45.089443], [-70.273147, 45.089778], [-70.271776, 45.089989], [-70.267716, 45.090701], [-70.264395, 45.091264], [-70.263737, 45.091338], [-70.263172, 45.091369], [-70.262026, 45.091348], [-70.261342, 45.091352], [-70.260722, 45.091401], [-70.257415, 45.092056], [-70.256208, 45.092334], [-70.254709, 45.092727], [-70.25388, 45.092882], [-70.25329, 45.092935], [-70.252421, 45.092917], [-70.251562, 45.092817], [-70.250865, 45.092762], [-70.250294, 45.092766], [-70.249329, 45.092912], [-70.248594, 45.093077], [-70.247706, 45.093353], [-70.247303, 45.09344], [-70.246882, 45.093495], [-70.246527, 45.093518], [-70.246005, 45.093499], [-70.244694, 45.093211], [-70.244262, 45.09315], [-70.243838, 45.093143], [-70.243449, 45.093197], [-70.243133, 45.093308], [-70.242728, 45.093506], [-70.241934, 45.094031], [-70.241721, 45.094137], [-70.241365, 45.094281], [-70.240963, 45.094393], [-70.240555, 45.094425], [-70.24022, 45.094427], [-70.239972, 45.094411], [-70.237696, 45.093853], [-70.237173, 45.093783], [-70.236628, 45.093779], [-70.23511, 45.093815], [-70.234576, 45.093798], [-70.234094, 45.093732], [-70.233557, 45.093592], [-70.233104, 45.09338], [-70.232742, 45.093169], [-70.232457, 45.092946], [-70.231731, 45.092134], [-70.231406, 45.091859], [-70.231165, 45.091696], [-70.230875, 45.091539], [-70.230462, 45.09137], [-70.229319, 45.091132], [-70.227898, 45.090742], [-70.227423, 45.090658], [-70.225578, 45.090539], [-70.225135, 45.090494], [-70.224719, 45.090388], [-70.224202, 45.090227], [-70.223806, 45.090041], [-70.223259, 45.089686], [-70.2226, 45.08913], [-70.221487, 45.088143], [-70.221268, 45.087935], [-70.217008, 45.084149], [-70.216599, 45.083688], [-70.216106, 45.083082], [-70.215661, 45.082344], [-70.214612, 45.080458], [-70.212978, 45.077612], [-70.212747, 45.077197], [-70.212377, 45.076454], [-70.211867, 45.075621], [-70.210816, 45.073806], [-70.210528, 45.073369], [-70.209866, 45.07261], [-70.209415, 45.072165], [-70.209062, 45.07185], [-70.208558, 45.071464], [-70.202904, 45.067684], [-70.201818, 45.066925], [-70.201554, 45.066706], [-70.201177, 45.066368], [-70.200843, 45.065978], [-70.200582, 45.065615], [-70.200412, 45.065318], [-70.200202, 45.064846], [-70.20001, 45.06424], [-70.199932, 45.063772], [-70.199917, 45.06334], [-70.199943, 45.062987], [-70.200158, 45.061726], [-70.200209, 45.061288], [-70.200216, 45.06079], [-70.200185, 45.060446], [-70.200087, 45.059973], [-70.199967, 45.059604], [-70.199816, 45.059251], [-70.199553, 45.058798], [-70.19908, 45.058146], [-70.198271, 45.057074], [-70.198042, 45.056739], [-70.197735, 45.056254], [-70.1974, 45.05554], [-70.197165, 45.054849], [-70.196259, 45.051788], [-70.195849, 45.050288], [-70.195688, 45.049603], [-70.195506, 45.048261], [-70.195521, 45.047303], [-70.195563, 45.046458], [-70.195564, 45.04626], [-70.19558, 45.045324], [-70.195459, 45.04391], [-70.195275, 45.043339], [-70.195173, 45.043132], [-70.19495, 45.042789], [-70.194627, 45.042432], [-70.194265, 45.042109], [-70.193923, 45.041885], [-70.193409, 45.041613], [-70.192837, 45.041407], [-70.19142, 45.040988], [-70.190673, 45.040725], [-70.189644, 45.040282], [-70.185556, 45.038459], [-70.184684, 45.038051], [-70.183941, 45.037667], [-70.183281, 45.037275], [-70.180981, 45.035805], [-70.179775, 45.035116], [-70.179115, 45.034669], [-70.178692, 45.034327], [-70.178122, 45.033757], [-70.177344, 45.032812], [-70.176712, 45.032095], [-70.175123, 45.030336], [-70.174559, 45.029673], [-70.174264, 45.029271], [-70.174146, 45.028964], [-70.174023, 45.028528], [-70.174034, 45.028152], [-70.174323, 45.026537], [-70.174696, 45.024936], [-70.174725, 45.024348], [-70.174718, 45.023536], [-70.174656, 45.023102], [-70.174441, 45.022257], [-70.174173, 45.02146], [-70.173953, 45.019811], [-70.173696, 45.018472], [-70.173576, 45.017743], [-70.173462, 45.017424], [-70.173291, 45.017143], [-70.17303, 45.016806], [-70.172062, 45.016007], [-70.171177, 45.015073], [-70.170887, 45.014682], [-70.170697, 45.014324], [-70.170598, 45.014041], [-70.170472, 45.013438], [-70.170368, 45.01261], [-70.170332, 45.01236], [-70.169957, 45.009579], [-70.169903, 45.008906], [-70.16985, 45.006913], [-70.169665, 45.005979], [-70.169134, 45.00407], [-70.168976, 45.00341], [-70.16892, 45.002913], [-70.168951, 45.002199], [-70.169032, 45.001674], [-70.170049, 44.998614], [-70.170207, 44.99799], [-70.170323, 44.997304], [-70.170342, 44.996978], [-70.170885, 44.992546], [-70.17095, 44.991837], [-70.170968, 44.991654], [-70.170995, 44.991171], [-70.171088, 44.988663], [-70.171194, 44.988001], [-70.171371, 44.987141], [-70.17146, 44.986445], [-70.17161, 44.985313], [-70.171689, 44.98471], [-70.171756, 44.983319], [-70.171748, 44.983141], [-70.171695, 44.982862], [-70.171571, 44.982575], [-70.170836, 44.981588], [-70.170147, 44.980195], [-70.169614, 44.979281], [-70.169383, 44.978788], [-70.169104, 44.978125], [-70.168925, 44.977627], [-70.168783, 44.976937], [-70.168682, 44.976628], [-70.168356, 44.975937], [-70.168228, 44.975703], [-70.167991, 44.975143], [-70.167561, 44.974333], [-70.167049, 44.973485], [-70.166593, 44.972629], [-70.165565, 44.970298], [-70.165301, 44.969605], [-70.165025, 44.969043], [-70.164818, 44.96862], [-70.164179, 44.967685], [-70.163643, 44.966809], [-70.163076, 44.966023], [-70.162244, 44.964871], [-70.162083, 44.964635], [-70.161782, 44.964271], [-70.161281, 44.963453], [-70.160911, 44.962914], [-70.160304, 44.962024], [-70.159948, 44.961517], [-70.159671, 44.961109], [-70.159264, 44.960623], [-70.159053, 44.960437], [-70.158306, 44.959974], [-70.158043, 44.959808], [-70.157662, 44.959589], [-70.157183, 44.959395], [-70.156702, 44.959259], [-70.155759, 44.959033], [-70.155328, 44.958942], [-70.15473, 44.958792], [-70.154552, 44.958715], [-70.154476, 44.958811], [-70.154403, 44.958953], [-70.154399, 44.959059], [-70.154386, 44.959238]], "type": "LineString"}}], "metadata": {"attribution": "openrouteservice.org | OpenStreetMap contributors", "service": "routing", "timestamp": 1769468617872, "query": {"coordinates": [[-70.356767, 45.103395], [-70.1539542, 44.959223099999996]], "profile": "driving-car", "profileName": "driving-car", "format": "geojson"}, "engine": {"version": "9.5.0", "build_date": "2025-10-31T12:33:09Z", "graph_date": "2026-01-25T11:10:32Z", "osm_date": "2026-01-19T01:00:01Z"}}}