{"type": "FeatureCollection", "bbox": [-69.597276, 45.331044, -69.535412, 45.459503], "features": [{"bbox": [-69.597276, 45.331044, -69.535412, 45.459503], "type": "Feature", "properties": {"segments": [{"distance": 17169.4, "duration": 970.3, "steps": [{"distance": 28.1, "duration": 6.7, "type": 11, "instruction": "Head southeast", "name": "-", "way_points": [0, 3]}, {"distance": 17081.1, "duration": 956.3, "type": 1, "instruction": "Turn right onto Greenville Road, ME 6, ME 15", "name": "Greenville Road, ME 6, ME 15", "way_points": [3, 99]}, {"distance": 60.2, "duration": 7.2, "type": 1, "instruction": "Turn right onto Pleasant Street", "name": "Pleasant Street", "way_points": [99, 100]}, {"distance": 0.0, "duration": 0.0, "type": 10, "instruction": "Arrive at Pleasant Street, on the left", "name": "-", "way_points": [100, 100]}]}], "way_points": [0, 100], "summary": {"distance": 17169.4, "duration": 970.3}}, "geometry": {"coordinates": [[-69.535518, 45.331233], [-69.535425, 45.331196], [-69.535412, 45.331155], [-69.535517, 45.331044], [-69.535776, 45.331183], [-69.536047, 45.331303], [-69.536301, 45.331387], [-69.536573, 45.331456], [-69.543513, 45.333037], [-69.545584, 45.333497], [-69.546094, 45.333597], [-69.546544, 45.333644], [-69.547153, 45.333651], [-69.55355, 45.333553], [-69.554934, 45.333519], [-69.555559, 45.333548], [-69.555966, 45.333617], [-69.556248, 45.3337], [-69.556522, 45.33381], [-69.556763, 45.333934], [-69.556991, 45.334087], [-69.560302, 45.336789], [-69.561484, 45.337671], [-69.562489, 45.33836], [-69.563585, 45.338995], [-69.574468, 45.344303], [-69.576897, 45.345596], [-69.577264, 45.345792], [-69.578771, 45.346569], [-69.582557, 45.348449], [-69.587252, 45.350868], [-69.587715, 45.351152], [-69.58812, 45.351473], [-69.588448, 45.351787], [-69.588784, 45.352196], [-69.589026, 45.352586], [-69.589256, 45.353136], [-69.589376, 45.35368], [-69.589634, 45.355478], [-69.589842, 45.356357], [-69.590138, 45.357332], [-69.592132, 45.363388], [-69.593511, 45.368952], [-69.594113, 45.370993], [-69.594325, 45.371659], [-69.595461, 45.375205], [-69.596749, 45.379441], [-69.597131, 45.381538], [-69.59726, 45.383034], [-69.597276, 45.384253], [-69.597262, 45.384744], [-69.597121, 45.38626], [-69.596771, 45.38885], [-69.596167, 45.392973], [-69.595923, 45.394152], [-69.595568, 45.395459], [-69.59451, 45.398943], [-69.594102, 45.400251], [-69.594018, 45.400577], [-69.593813, 45.401509], [-69.593693, 45.402505], [-69.593664, 45.403463], [-69.593717, 45.404151], [-69.593822, 45.405139], [-69.594008, 45.406021], [-69.594152, 45.406538], [-69.595711, 45.412131], [-69.595819, 45.412852], [-69.595834, 45.413138], [-69.595819, 45.413455], [-69.595763, 45.413864], [-69.595059, 45.416989], [-69.593365, 45.424397], [-69.59317, 45.425259], [-69.59296, 45.426185], [-69.592249, 45.429213], [-69.592065, 45.429882], [-69.591705, 45.431189], [-69.591207, 45.432875], [-69.590166, 45.436568], [-69.590006, 45.437544], [-69.589947, 45.438512], [-69.589909, 45.439719], [-69.589774, 45.444046], [-69.589803, 45.445359], [-69.589946, 45.446061], [-69.591126, 45.450249], [-69.592008, 45.452198], [-69.592204, 45.452598], [-69.592359, 45.452947], [-69.592734, 45.453988], [-69.592812, 45.454721], [-69.592775, 45.455269], [-69.592625, 45.455969], [-69.592524, 45.456441], [-69.592317, 45.457112], [-69.592235, 45.457338], [-69.591772, 45.45855], [-69.59164, 45.458912], [-69.591396, 45.459503], [-69.590672, 45.459315]], "type": "LineString"}}], "metadata": {"attribution": "openrouteservice.org | OpenStreetMap contributors", "service": "routing", "timestamp": 1769468618079, "query": {"coordinates": [[-69.535389, 45.331392], [-69.5905815, 45.459486299999995]], "profile": "driving-car", "profileName": "driving-car", "format": "geojson"}, "engine": {"version": "9.5.0", "build_date": "2025-10-31T12:33:09Z", "graph_date": "2026-01-25T11:10:32Z", "osm_date": "2026-01-19T01:00:01Z"}}}