{"type": "FeatureCollection", "bbox": [-77.579294, 39.720753, -77.50693, 39.766619], "features": [{"bbox": [-77.579294, 39.720753, -77.50693, 39.766619], "type": "Feature", "properties": {"segments": [{"distance": 10174.3, "duration": 809.7, "steps": [{"distance": 396.4, "duration": 28.5, "type": 11, "instruction": "Head north on Pen Mar Road", "name": "Pen Mar Road", "way_points": [0, 13]}, {"distance": 2147.8, "duration": 162.8, "type": 6, "instruction": "Continue straight onto Pen Mar Road", "name": "Pen Mar Road", "way_points": [13, 52]}, {"distance": 284.3, "duration": 20.5, "type": 0, "instruction": "Turn left onto Old Route 16", "name": "Old Route 16", "way_points": [52, 55]}, {"distance": 2791.0, "duration": 238.2, "type": 1, "instruction": "Turn right onto Washington Township Boulevard", "name": "Washington Township Boulevard", "way_points": [55, 98]}, {"distance": 1465.3, "duration": 122.1, "type": 7, "instruction": "Enter the roundabout and take the 1st exit onto Washington Township Boulevard", "name": "Washington Township Boulevard", "exit_number": 1, "way_points": [98, 128]}, {"distance": 43.2, "duration": 7.8, "type": 2, "instruction": "Turn sharp left onto Gehr Road", "name": "Gehr Road", "way_points": [128, 129]}, {"distance": 1478.5, "duration": 106.4, "type": 1, "instruction": "Turn right onto Stottlemyer Road", "name": "Stottlemyer Road", "way_points": [129, 149]}, {"distance": 1395.3, "duration": 92.3, "type": 0, "instruction": "Turn left onto Anthony Highway, PA 997", "name": "Anthony Highway, PA 997", "way_points": [149, 171]}, {"distance": 172.5, "duration": 31.1, "type": 1, "instruction": "Turn right onto West Main Street, PA 16", "name": "West Main Street, PA 16", "way_points": [171, 176]}, {"distance": 0.0, "duration": 0.0, "type": 10, "instruction": "Arrive at West Main Street, PA 16, on the left", "name": "-", "way_points": [176, 176]}]}], "way_points": [0, 176], "summary": {"distance": 10174.3, "duration": 809.7}}, "geometry": {"coordinates": [[-77.506939, 39.720753], [-77.506986, 39.720894], [-77.506989, 39.721028], [-77.50693, 39.721592], [-77.506952, 39.721871], [-77.507068, 39.72231], [-77.507123, 39.722423], [-77.507225, 39.722555], [-77.507367, 39.722702], [-77.507575, 39.72287], [-77.507754, 39.722991], [-77.50838, 39.723351], [-77.508665, 39.723547], [-77.508864, 39.723683], [-77.509387, 39.724106], [-77.509973, 39.724593], [-77.51094, 39.725495], [-77.511326, 39.725825], [-77.511962, 39.726359], [-77.512592, 39.72693], [-77.51266, 39.727], [-77.513015, 39.727338], [-77.513546, 39.727723], [-77.513766, 39.72791], [-77.514022, 39.728161], [-77.514267, 39.72838], [-77.514376, 39.728443], [-77.514616, 39.728548], [-77.515063, 39.728699], [-77.515505, 39.728813], [-77.515755, 39.72886], [-77.516602, 39.729038], [-77.51734, 39.729212], [-77.517543, 39.72926], [-77.518969, 39.729618], [-77.520174, 39.729936], [-77.520437, 39.730018], [-77.521781, 39.730511], [-77.522098, 39.730667], [-77.522392, 39.730904], [-77.524112, 39.732599], [-77.52483, 39.733322], [-77.525075, 39.733529], [-77.525424, 39.733705], [-77.525564, 39.733778], [-77.525602, 39.733822], [-77.525634, 39.733932], [-77.525628, 39.734006], [-77.525554, 39.734226], [-77.525427, 39.734563], [-77.52529, 39.734927], [-77.525029, 39.735622], [-77.524837, 39.736134], [-77.525128, 39.736217], [-77.525526, 39.736332], [-77.527927, 39.737078], [-77.527587, 39.737727], [-77.527556, 39.737865], [-77.527553, 39.73822], [-77.527543, 39.738754], [-77.527496, 39.738881], [-77.527415, 39.739021], [-77.527246, 39.739255], [-77.526661, 39.740063], [-77.526485, 39.740378], [-77.525978, 39.741262], [-77.52584, 39.741595], [-77.525801, 39.741772], [-77.525805, 39.741909], [-77.525909, 39.742122], [-77.526444, 39.742909], [-77.526475, 39.742953], [-77.526546, 39.743099], [-77.526562, 39.743179], [-77.526551, 39.743356], [-77.526499, 39.74366], [-77.526415, 39.74417], [-77.526358, 39.744401], [-77.52564, 39.746446], [-77.525586, 39.746729], [-77.525581, 39.74686], [-77.52565, 39.747192], [-77.525747, 39.747387], [-77.525886, 39.74759], [-77.526112, 39.747799], [-77.526409, 39.747993], [-77.527412, 39.748491], [-77.527716, 39.748677], [-77.528043, 39.748869], [-77.528899, 39.749306], [-77.530708, 39.750122], [-77.530866, 39.750175], [-77.531267, 39.750255], [-77.533183, 39.750539], [-77.533355, 39.750575], [-77.54022, 39.752736], [-77.541848, 39.75326], [-77.541983, 39.753316], [-77.542092, 39.753496], [-77.542115, 39.75361], [-77.542218, 39.753693], [-77.542363, 39.753717], [-77.542501, 39.753674], [-77.542632, 39.753655], [-77.542786, 39.753664], [-77.54303, 39.753804], [-77.543161, 39.753906], [-77.543269, 39.754017], [-77.543707, 39.75461], [-77.544049, 39.755077], [-77.545491, 39.757006], [-77.545644, 39.757197], [-77.54592, 39.757475], [-77.546502, 39.758017], [-77.546906, 39.75841], [-77.547023, 39.758583], [-77.54724, 39.75898], [-77.547428, 39.759179], [-77.547642, 39.75934], [-77.548718, 39.759986], [-77.550028, 39.760787], [-77.5502, 39.76087], [-77.550362, 39.760928], [-77.551225, 39.761129], [-77.551406, 39.761186], [-77.551569, 39.761253], [-77.551939, 39.761456], [-77.553498, 39.762343], [-77.553685, 39.762488], [-77.553915, 39.762142], [-77.555099, 39.762646], [-77.555629, 39.762875], [-77.556393, 39.763229], [-77.556778, 39.763446], [-77.556959, 39.763532], [-77.559099, 39.764258], [-77.559723, 39.764413], [-77.561739, 39.764715], [-77.561952, 39.764723], [-77.562779, 39.764664], [-77.562976, 39.764666], [-77.563246, 39.764694], [-77.56401, 39.764866], [-77.565182, 39.765169], [-77.568577, 39.766043], [-77.568947, 39.766143], [-77.569223, 39.766257], [-77.569529, 39.766393], [-77.569809, 39.76654], [-77.569959, 39.766619], [-77.570128, 39.766316], [-77.5702, 39.766181], [-77.570243, 39.766103], [-77.570719, 39.765229], [-77.570808, 39.765071], [-77.57144, 39.763948], [-77.5718, 39.763443], [-77.571981, 39.762984], [-77.572207, 39.762443], [-77.572434, 39.761944], [-77.57285, 39.761066], [-77.57307, 39.760613], [-77.573285, 39.760289], [-77.574803, 39.758721], [-77.574975, 39.75854], [-77.575088, 39.75842], [-77.575519, 39.757965], [-77.576272, 39.757168], [-77.577015, 39.756383], [-77.577091, 39.756303], [-77.577181, 39.756208], [-77.577678, 39.755683], [-77.577931, 39.755828], [-77.57817, 39.755966], [-77.578237, 39.756005], [-77.578427, 39.756114], [-77.579294, 39.756613]], "type": "LineString"}}], "metadata": {"attribution": "openrouteservice.org | OpenStreetMap contributors", "service": "routing", "timestamp": 1769468618282, "query": {"coordinates": [[-77.50685, 39.720771], [-77.579304, 39.756602]], "profile": "driving-car", "profileName": "driving-car", "format": "geojson"}, "engine": {"version": "9.5.0", "build_date": "2025-10-31T12:33:09Z", "graph_date": "2026-01-25T11:10:32Z", "osm_date": "2026-01-19T01:00:01Z"}}}