{"type": "FeatureCollection", "bbox": [-75.194555, 40.975508, -75.140527, 40.988081], "features": [{"bbox": [-75.194555, 40.975508, -75.140527, 40.988081], "type": "Feature", "properties": {"segments": [{"distance": 5948.5, "duration": 514.7, "steps": [{"distance": 4.7, "duration": 0.8, "type": 11, "instruction": "Head northeast on Mountain Road", "name": "Mountain Road", "way_points": [0, 1]}, {"distance": 5795.4, "duration": 478.2, "type": 0, "instruction": "Turn left onto Main Street, PA 611", "name": "Main Street, PA 611", "way_points": [1, 111]}, {"distance": 105.4, "duration": 25.3, "type": 6, "instruction": "Continue straight onto North 7th Street", "name": "North 7th Street", "way_points": [111, 115]}, {"distance": 41.9, "duration": 10.1, "type": 1, "instruction": "Turn right onto Courthouse Square", "name": "Courthouse Square", "way_points": [115, 119]}, {"distance": 1.1, "duration": 0.3, "type": 0, "instruction": "Turn left onto Monroe Street", "name": "Monroe Street", "way_points": [119, 120]}, {"distance": 0.0, "duration": 0.0, "type": 10, "instruction": "Arrive at Monroe Street, on the right", "name": "-", "way_points": [120, 120]}]}], "way_points": [0, 120], "summary": {"distance": 5948.5, "duration": 514.7}}, "geometry": {"coordinates": [[-75.140563, 40.982934], [-75.140527, 40.982965], [-75.141027, 40.983299], [-75.141244, 40.983419], [-75.141361, 40.983466], [-75.141711, 40.983598], [-75.142222, 40.983787], [-75.142713, 40.98399], [-75.1435, 40.984359], [-75.143955, 40.984596], [-75.144249, 40.984765], [-75.144673, 40.985046], [-75.144809, 40.98515], [-75.144896, 40.985216], [-75.145244, 40.985418], [-75.146593, 40.986202], [-75.148129, 40.987086], [-75.148236, 40.98716], [-75.148478, 40.987285], [-75.148747, 40.987402], [-75.149122, 40.987538], [-75.149422, 40.987639], [-75.150463, 40.987982], [-75.150794, 40.98807], [-75.151002, 40.988081], [-75.151433, 40.987829], [-75.152495, 40.987192], [-75.152585, 40.987088], [-75.153046, 40.986847], [-75.153331, 40.986693], [-75.153379, 40.986667], [-75.154564, 40.985997], [-75.154818, 40.985847], [-75.154988, 40.985747], [-75.156039, 40.985125], [-75.157144, 40.984492], [-75.157511, 40.98425], [-75.157861, 40.984009], [-75.15824, 40.983721], [-75.158843, 40.983218], [-75.159113, 40.982982], [-75.159652, 40.982565], [-75.160151, 40.982214], [-75.16058, 40.981933], [-75.160918, 40.981735], [-75.16135, 40.981508], [-75.162855, 40.980827], [-75.163944, 40.98035], [-75.164336, 40.980131], [-75.164673, 40.979891], [-75.164941, 40.979644], [-75.165301, 40.979259], [-75.165792, 40.978661], [-75.166007, 40.978447], [-75.16644, 40.978104], [-75.166853, 40.977852], [-75.169293, 40.976793], [-75.169597, 40.976676], [-75.169996, 40.976562], [-75.173321, 40.975854], [-75.174085, 40.975706], [-75.174767, 40.975598], [-75.175434, 40.975541], [-75.176376, 40.975508], [-75.176845, 40.975544], [-75.177331, 40.975643], [-75.177916, 40.975855], [-75.177951, 40.975875], [-75.178568, 40.976226], [-75.179027, 40.976652], [-75.179393, 40.977072], [-75.179618, 40.97733], [-75.179945, 40.97768], [-75.180102, 40.97785], [-75.180395, 40.978116], [-75.18083, 40.978427], [-75.181314, 40.978705], [-75.181872, 40.97892], [-75.182174, 40.979017], [-75.182476, 40.97909], [-75.18297, 40.979185], [-75.183602, 40.979217], [-75.184248, 40.979204], [-75.185046, 40.979084], [-75.186573, 40.978824], [-75.187631, 40.978667], [-75.187889, 40.978622], [-75.188033, 40.978597], [-75.18811, 40.978584], [-75.188305, 40.978552], [-75.188711, 40.978487], [-75.188869, 40.978477], [-75.189056, 40.978565], [-75.189519, 40.979038], [-75.189927, 40.979427], [-75.190366, 40.979798], [-75.190503, 40.979976], [-75.190849, 40.980758], [-75.191016, 40.981133], [-75.191097, 40.981314], [-75.191155, 40.981451], [-75.19124, 40.98165], [-75.191335, 40.981874], [-75.191354, 40.98192], [-75.191573, 40.982428], [-75.1917, 40.982629], [-75.191776, 40.982701], [-75.193338, 40.983854], [-75.1934, 40.983923], [-75.193519, 40.984168], [-75.193786, 40.984736], [-75.194096, 40.985375], [-75.194226, 40.985548], [-75.194386, 40.985895], [-75.194407, 40.985939], [-75.194555, 40.986255], [-75.19447, 40.986295], [-75.194427, 40.986365], [-75.194433, 40.986409], [-75.194522, 40.986576], [-75.194534, 40.986572]], "type": "LineString"}}], "metadata": {"attribution": "openrouteservice.org | OpenStreetMap contributors", "service": "routing", "timestamp": 1769468618487, "query": {"coordinates": [[-75.140541, 40.982919], [-75.1946248, 40.9867609]], "profile": "driving-car", "profileName": "driving-car", "format": "geojson"}, "engine": {"version": "9.5.0", "build_date": "2025-10-31T12:33:09Z", "graph_date": "2026-01-25T11:10:32Z", "osm_date": "2026-01-19T01:00:01Z"}}}