{"type": "FeatureCollection", "bbox": [-71.172612, 44.384902, -71.111974, 44.400098], "features": [{"bbox": [-71.172612, 44.384902, -71.111974, 44.400098], "type": "Feature", "properties": {"segments": [{"distance": 5467.6, "duration": 346.0, "steps": [{"distance": 5467.6, "duration": 346.0, "type": 11, "instruction": "Head southwest on US 2", "name": "US 2", "way_points": [0, 68]}, {"distance": 0.0, "duration": 0.0, "type": 10, "instruction": "Arrive at US 2, on the left", "name": "-", "way_points": [68, 68]}]}], "way_points": [0, 68], "summary": {"distance": 5467.6, "duration": 346.0}}, "geometry": {"coordinates": [[-71.111974, 44.400098], [-71.112022, 44.40008], [-71.112473, 44.399899], [-71.112655, 44.399826], [-71.113437, 44.399482], [-71.114736, 44.398871], [-71.115814, 44.398392], [-71.116958, 44.397855], [-71.117062, 44.397801], [-71.120006, 44.396229], [-71.122116, 44.394985], [-71.122865, 44.394515], [-71.123959, 44.393871], [-71.124313, 44.393633], [-71.12464, 44.393357], [-71.125623, 44.392254], [-71.127028, 44.390755], [-71.127257, 44.390531], [-71.127657, 44.390195], [-71.128156, 44.389792], [-71.128626, 44.389449], [-71.129772, 44.388703], [-71.131266, 44.387774], [-71.131864, 44.387425], [-71.132188, 44.387292], [-71.132481, 44.387199], [-71.132845, 44.387134], [-71.133151, 44.387107], [-71.133769, 44.387114], [-71.13473, 44.387181], [-71.136662, 44.387391], [-71.137099, 44.387415], [-71.137619, 44.387412], [-71.138729, 44.387374], [-71.139655, 44.387287], [-71.140045, 44.387238], [-71.140468, 44.387153], [-71.140798, 44.38707], [-71.141982, 44.386722], [-71.143061, 44.386432], [-71.143312, 44.386384], [-71.143459, 44.38636], [-71.143594, 44.38633], [-71.143722, 44.386308], [-71.144494, 44.386199], [-71.145072, 44.386148], [-71.145598, 44.386097], [-71.146603, 44.385994], [-71.147513, 44.385901], [-71.149012, 44.385747], [-71.151808, 44.385449], [-71.152376, 44.385402], [-71.153244, 44.385322], [-71.156233, 44.385031], [-71.157573, 44.384914], [-71.158099, 44.384902], [-71.158526, 44.384953], [-71.159988, 44.385325], [-71.161144, 44.385593], [-71.161753, 44.385714], [-71.162436, 44.385821], [-71.164599, 44.386081], [-71.165262, 44.386201], [-71.16569, 44.386296], [-71.166386, 44.386457], [-71.167241, 44.386658], [-71.168755, 44.387008], [-71.171728, 44.387702], [-71.172612, 44.387927]], "type": "LineString"}}], "metadata": {"attribution": "openrouteservice.org | OpenStreetMap contributors", "service": "routing", "timestamp": 1769468618691, "query": {"coordinates": [[-71.11197, 44.400092], [-71.17262, 44.387911]], "profile": "driving-car", "profileName": "driving-car", "format": "geojson"}, "engine": {"version": "9.5.0", "build_date": "2025-10-31T12:33:09Z", "graph_date": "2026-01-25T11:10:32Z", "osm_date": "2026-01-19T01:00:01Z"}}}