{"type": "FeatureCollection", "bbox": [-73.249857, 42.291484, -73.157463, 42.306328], "features": [{"bbox": [-73.249857, 42.291484, -73.157463, 42.306328], "type": "Feature", "properties": {"segments": [{"distance": 8753.6, "duration": 575.2, "steps": [{"distance": 8753.6, "duration": 575.2, "type": 11, "instruction": "Head northwest on Jacobs Ladder Road, US 20", "name": "Jacobs Ladder Road, US 20", "way_points": [0, 139]}, {"distance": 0.0, "duration": 0.0, "type": 10, "instruction": "Arrive at Jacobs Ladder Road, US 20, on the left", "name": "-", "way_points": [139, 139]}]}], "way_points": [0, 139], "summary": {"distance": 8753.6, "duration": 575.2}}, "geometry": {"coordinates": [[-73.157463, 42.291484], [-73.157632, 42.291586], [-73.158327, 42.291902], [-73.159115, 42.292224], [-73.160552, 42.292814], [-73.161115, 42.293038], [-73.162434, 42.293564], [-73.162828, 42.293705], [-73.163247, 42.293799], [-73.164922, 42.294093], [-73.1655, 42.294208], [-73.166181, 42.294368], [-73.167472, 42.294705], [-73.167921, 42.294796], [-73.168372, 42.294847], [-73.169434, 42.29485], [-73.172613, 42.294797], [-73.17331, 42.294805], [-73.173548, 42.294826], [-73.17407, 42.294917], [-73.174622, 42.295076], [-73.17605, 42.295682], [-73.17635, 42.295774], [-73.176741, 42.295851], [-73.177108, 42.295892], [-73.178633, 42.295996], [-73.181053, 42.296172], [-73.182023, 42.296254], [-73.182685, 42.296326], [-73.1841, 42.296468], [-73.185467, 42.296606], [-73.190427, 42.297128], [-73.191437, 42.297245], [-73.191969, 42.297295], [-73.192483, 42.297361], [-73.19368, 42.297551], [-73.195127, 42.297816], [-73.196764, 42.298037], [-73.198041, 42.298265], [-73.20042, 42.298677], [-73.201989, 42.298879], [-73.203153, 42.298992], [-73.203581, 42.299031], [-73.205192, 42.299158], [-73.20764, 42.299279], [-73.208795, 42.299364], [-73.209992, 42.299489], [-73.214544, 42.299703], [-73.21481, 42.29972], [-73.215938, 42.29977], [-73.217524, 42.299798], [-73.217847, 42.299782], [-73.218943, 42.299675], [-73.219195, 42.299641], [-73.219691, 42.299534], [-73.220167, 42.29938], [-73.221044, 42.298972], [-73.221903, 42.298566], [-73.222733, 42.298134], [-73.223008, 42.297993], [-73.224309, 42.297299], [-73.224528, 42.29717], [-73.224642, 42.297081], [-73.224891, 42.29682], [-73.225633, 42.295657], [-73.225878, 42.295362], [-73.22605, 42.295212], [-73.226271, 42.295061], [-73.226557, 42.294914], [-73.226908, 42.294765], [-73.227983, 42.294452], [-73.228206, 42.294419], [-73.228534, 42.294425], [-73.228868, 42.294485], [-73.229169, 42.294602], [-73.229424, 42.294769], [-73.229699, 42.295034], [-73.230938, 42.296548], [-73.231227, 42.296836], [-73.231489, 42.297028], [-73.231706, 42.297153], [-73.232569, 42.297513], [-73.232706, 42.297552], [-73.232929, 42.297593], [-73.233186, 42.297602], [-73.233505, 42.297566], [-73.233626, 42.297537], [-73.234246, 42.297356], [-73.235955, 42.296749], [-73.236091, 42.296741], [-73.236523, 42.296635], [-73.236757, 42.296601], [-73.237196, 42.296569], [-73.237456, 42.29657], [-73.23778, 42.296598], [-73.23821, 42.296679], [-73.238547, 42.296764], [-73.238887, 42.29689], [-73.239004, 42.296915], [-73.239402, 42.297165], [-73.239659, 42.297358], [-73.239969, 42.297591], [-73.240225, 42.297822], [-73.24034, 42.297945], [-73.240906, 42.298555], [-73.241098, 42.298776], [-73.241168, 42.298854], [-73.241634, 42.299407], [-73.241889, 42.29971], [-73.241984, 42.299822], [-73.242098, 42.299955], [-73.242209, 42.300085], [-73.242387, 42.300294], [-73.242479, 42.300402], [-73.242587, 42.300529], [-73.242725, 42.300689], [-73.242872, 42.300862], [-73.243015, 42.301031], [-73.243233, 42.301287], [-73.24348, 42.301578], [-73.24359, 42.301708], [-73.244339, 42.30259], [-73.245581, 42.304034], [-73.24583, 42.304255], [-73.246056, 42.304357], [-73.246249, 42.304406], [-73.24647, 42.304425], [-73.246868, 42.304403], [-73.24707, 42.304377], [-73.247541, 42.304318], [-73.247983, 42.304262], [-73.248105, 42.304246], [-73.248264, 42.304267], [-73.248416, 42.304249], [-73.248587, 42.304284], [-73.248755, 42.304382], [-73.249042, 42.304894], [-73.249507, 42.305709], [-73.249717, 42.306083], [-73.249857, 42.306328]], "type": "LineString"}}], "metadata": {"attribution": "openrouteservice.org | OpenStreetMap contributors", "service": "routing", "timestamp": 1769468618843, "query": {"coordinates": [[-73.157444, 42.291501], [-73.249969, 42.306293]], "profile": "driving-car", "profileName": "driving-car", "format": "geojson"}, "engine": {"version": "9.5.0", "build_date": "2025-10-31T12:33:09Z", "graph_date": "2026-01-25T11:10:32Z", "osm_date": "2026-01-19T01:00:01Z"}}}