{"type": "FeatureCollection", "bbox": [-70.785657, 44.635459, -70.724843, 44.72218], "features": [{"bbox": [-70.785657, 44.635459, -70.724843, 44.72218], "type": "Feature", "properties": {"segments": [{"distance": 13215.6, "duration": 1800.9, "steps": [{"distance": 12295.6, "duration": 1717.8, "type": 11, "instruction": "Head southeast on South Arm Road", "name": "South Arm Road", "way_points": [0, 154]}, {"distance": 904.4, "duration": 81.5, "type": 1, "instruction": "Turn right onto East Andover Road, ME 120", "name": "East Andover Road, ME 120", "way_points": [154, 169]}, {"distance": 15.6, "duration": 1.6, "type": 0, "instruction": "Turn left onto South Main Street, ME 5", "name": "South Main Street, ME 5", "way_points": [169, 170]}, {"distance": 0.0, "duration": 0.0, "type": 10, "instruction": "Arrive at South Main Street, ME 5, on the right", "name": "-", "way_points": [170, 170]}]}], "way_points": [0, 170], "summary": {"distance": 13215.6, "duration": 1800.9}}, "geometry": {"coordinates": [[-70.785657, 44.721381], [-70.785261, 44.721189], [-70.784903, 44.721157], [-70.784249, 44.721207], [-70.783611, 44.721438], [-70.782498, 44.721898], [-70.782033, 44.721991], [-70.780758, 44.72218], [-70.780177, 44.722068], [-70.778822, 44.721535], [-70.777469, 44.72103], [-70.776776, 44.720643], [-70.775247, 44.719497], [-70.774771, 44.719012], [-70.774294, 44.718377], [-70.773655, 44.717844], [-70.772152, 44.71716], [-70.770572, 44.716644], [-70.769762, 44.716265], [-70.76922, 44.715992], [-70.768643, 44.715785], [-70.767687, 44.715571], [-70.766632, 44.715426], [-70.76595, 44.715437], [-70.765373, 44.715526], [-70.764513, 44.715791], [-70.764082, 44.715894], [-70.763303, 44.715888], [-70.762864, 44.715799], [-70.762161, 44.715501], [-70.761812, 44.71512], [-70.761641, 44.71484], [-70.761234, 44.713905], [-70.76047, 44.712772], [-70.75958, 44.711571], [-70.758421, 44.7101], [-70.757828, 44.709228], [-70.757237, 44.707636], [-70.756492, 44.706771], [-70.755607, 44.705683], [-70.755309, 44.705389], [-70.754627, 44.70485], [-70.753559, 44.704149], [-70.753193, 44.703865], [-70.752968, 44.703606], [-70.752661, 44.703175], [-70.752017, 44.702293], [-70.751782, 44.70209], [-70.749524, 44.700546], [-70.748836, 44.700042], [-70.748073, 44.699515], [-70.747976, 44.699407], [-70.747498, 44.698875], [-70.747097, 44.698229], [-70.746643, 44.697631], [-70.745407, 44.696407], [-70.745169, 44.696019], [-70.74498, 44.695603], [-70.74486, 44.695283], [-70.744486, 44.694655], [-70.743772, 44.693939], [-70.742752, 44.693428], [-70.742351, 44.693063], [-70.741578, 44.69201], [-70.740885, 44.690977], [-70.740362, 44.689583], [-70.739946, 44.689077], [-70.739362, 44.688578], [-70.737445, 44.686814], [-70.735947, 44.685875], [-70.735563, 44.685454], [-70.735203, 44.684648], [-70.734918, 44.684228], [-70.734237, 44.683563], [-70.733284, 44.682611], [-70.732211, 44.681486], [-70.732008, 44.68097], [-70.731916, 44.680738], [-70.731806, 44.68035], [-70.731428, 44.679323], [-70.731296, 44.679071], [-70.731165, 44.678903], [-70.727318, 44.675773], [-70.726763, 44.675277], [-70.726243, 44.674744], [-70.725934, 44.674077], [-70.726049, 44.673641], [-70.726507, 44.672864], [-70.726422, 44.672606], [-70.725975, 44.67205], [-70.725019, 44.670199], [-70.724897, 44.669898], [-70.724843, 44.669663], [-70.724866, 44.669592], [-70.72491, 44.669505], [-70.725042, 44.669348], [-70.725467, 44.669115], [-70.725668, 44.669049], [-70.725882, 44.668985], [-70.726148, 44.668883], [-70.726287, 44.66881], [-70.726394, 44.668721], [-70.726603, 44.668494], [-70.726664, 44.668354], [-70.726695, 44.668117], [-70.726671, 44.667894], [-70.726679, 44.667758], [-70.726715, 44.667628], [-70.726905, 44.667258], [-70.726962, 44.667043], [-70.726986, 44.666618], [-70.726901, 44.666005], [-70.726835, 44.665744], [-70.726657, 44.66538], [-70.726621, 44.66521], [-70.726643, 44.664994], [-70.726972, 44.663861], [-70.727509, 44.663151], [-70.727849, 44.662804], [-70.728629, 44.661818], [-70.728877, 44.660665], [-70.72895, 44.659192], [-70.729003, 44.658604], [-70.729209, 44.657923], [-70.729358, 44.657518], [-70.729694, 44.656962], [-70.73003, 44.656614], [-70.730599, 44.656076], [-70.731168, 44.655433], [-70.73179, 44.654548], [-70.732034, 44.654274], [-70.732771, 44.653449], [-70.733185, 44.652826], [-70.73318, 44.650505], [-70.733366, 44.65003], [-70.734231, 44.648689], [-70.735016, 44.647208], [-70.735755, 44.646324], [-70.736475, 44.64551], [-70.73693, 44.644697], [-70.737106, 44.644167], [-70.737178, 44.643643], [-70.737157, 44.642984], [-70.7371, 44.642327], [-70.737023, 44.640953], [-70.73693, 44.63894], [-70.736988, 44.638363], [-70.737016, 44.638264], [-70.737098, 44.638129], [-70.737196, 44.638031], [-70.737566, 44.637894], [-70.738026, 44.637748], [-70.738394, 44.637547], [-70.739483, 44.636777], [-70.740076, 44.636436], [-70.740455, 44.63672], [-70.740914, 44.636974], [-70.741164, 44.63707], [-70.741561, 44.637145], [-70.741793, 44.637128], [-70.742293, 44.637075], [-70.743488, 44.636925], [-70.744436, 44.636772], [-70.745323, 44.636625], [-70.746015, 44.63651], [-70.747134, 44.636322], [-70.748764, 44.636041], [-70.749569, 44.635902], [-70.750094, 44.635782], [-70.750903, 44.635593], [-70.750847, 44.635459]], "type": "LineString"}}], "metadata": {"attribution": "openrouteservice.org | OpenStreetMap contributors", "service": "routing", "timestamp": 1772224307732, "query": {"coordinates": [[-70.785658, 44.72138], [-70.75088, 44.635452]], "profile": "driving-car", "profileName": "driving-car", "format": "geojson"}, "engine": {"version": "9.5.0", "build_date": "2025-10-31T12:33:09Z", "graph_date": "2026-02-22T11:23:10Z", "osm_date": "2026-02-09T01:00:01Z"}}}