{"type": "FeatureCollection", "bbox": [-83.958084, 34.735346, -83.893683, 34.87549], "features": [{"bbox": [-83.958084, 34.735346, -83.893683, 34.87549], "type": "Feature", "properties": {"segments": [{"distance": 20840.2, "duration": 911.7, "steps": [{"distance": 34.1, "duration": 8.2, "type": 11, "instruction": "Head northwest", "name": "-", "way_points": [0, 2]}, {"distance": 19839.0, "duration": 840.2, "type": 5, "instruction": "Turn slight right onto Gainesville Highway, US 19, US 129, GA 11", "name": "Gainesville Highway, US 19, US 129, GA 11", "way_points": [2, 373]}, {"distance": 967.1, "duration": 63.3, "type": 6, "instruction": "Continue straight onto Cleveland Street", "name": "Cleveland Street", "way_points": [373, 399]}, {"distance": 0.0, "duration": 0.0, "type": 10, "instruction": "Arrive at Cleveland Street, on the left", "name": "-", "way_points": [399, 399]}]}], "way_points": [0, 399], "summary": {"distance": 20840.2, "duration": 911.7}}, "geometry": {"coordinates": [[-83.917941, 34.735346], [-83.918118, 34.735507], [-83.918204, 34.735562], [-83.918363, 34.736119], [-83.918447, 34.736338], [-83.918633, 34.736736], [-83.919039, 34.737477], [-83.919097, 34.737631], [-83.919153, 34.738008], [-83.919084, 34.738813], [-83.919095, 34.739048], [-83.919175, 34.739251], [-83.919259, 34.73939], [-83.919419, 34.739564], [-83.919765, 34.739881], [-83.919942, 34.74008], [-83.920128, 34.740342], [-83.920523, 34.741044], [-83.920757, 34.74145], [-83.920901, 34.74184], [-83.92097, 34.742256], [-83.920975, 34.74247], [-83.920959, 34.74268], [-83.920921, 34.742931], [-83.920849, 34.743299], [-83.920812, 34.743604], [-83.920803, 34.74396], [-83.92075, 34.744181], [-83.92051, 34.744541], [-83.920389, 34.744758], [-83.920263, 34.744918], [-83.920103, 34.745034], [-83.919565, 34.745318], [-83.919345, 34.745525], [-83.919277, 34.745687], [-83.91927, 34.745849], [-83.919317, 34.745991], [-83.919772, 34.746695], [-83.919819, 34.746815], [-83.919845, 34.746948], [-83.919831, 34.747165], [-83.919734, 34.747486], [-83.919656, 34.747619], [-83.919072, 34.748225], [-83.919016, 34.748362], [-83.919026, 34.748528], [-83.919076, 34.748634], [-83.919158, 34.748737], [-83.919387, 34.74894], [-83.91957, 34.749043], [-83.919892, 34.749142], [-83.922188, 34.749477], [-83.922416, 34.749491], [-83.922649, 34.749475], [-83.922991, 34.749411], [-83.923152, 34.749416], [-83.92327, 34.749443], [-83.92338, 34.749498], [-83.923448, 34.749559], [-83.923515, 34.749679], [-83.923544, 34.749808], [-83.923504, 34.750725], [-83.92347, 34.750928], [-83.923387, 34.751236], [-83.923016, 34.752142], [-83.922965, 34.752309], [-83.922965, 34.752524], [-83.923062, 34.752727], [-83.923201, 34.752912], [-83.923739, 34.75331], [-83.924569, 34.753884], [-83.924879, 34.754104], [-83.925148, 34.75434], [-83.925224, 34.754473], [-83.925267, 34.754614], [-83.925267, 34.754768], [-83.925234, 34.754931], [-83.925143, 34.75509], [-83.924955, 34.755284], [-83.924584, 34.755569], [-83.924402, 34.755831], [-83.92427, 34.756296], [-83.924018, 34.758172], [-83.92401, 34.758538], [-83.924033, 34.758716], [-83.924185, 34.759214], [-83.924214, 34.759423], [-83.924204, 34.759679], [-83.924175, 34.759911], [-83.924056, 34.760353], [-83.923841, 34.76099], [-83.923738, 34.761194], [-83.923684, 34.761291], [-83.923574, 34.761401], [-83.923247, 34.761587], [-83.923047, 34.761666], [-83.922857, 34.761775], [-83.922662, 34.761953], [-83.922538, 34.762148], [-83.922391, 34.763182], [-83.922312, 34.763377], [-83.922065, 34.763761], [-83.921582, 34.764576], [-83.920848, 34.765712], [-83.920601, 34.765988], [-83.920158, 34.766349], [-83.919852, 34.766543], [-83.919588, 34.766628], [-83.918993, 34.766746], [-83.918702, 34.766824], [-83.918424, 34.766923], [-83.918159, 34.767068], [-83.917861, 34.767313], [-83.917509, 34.767765], [-83.917312, 34.768145], [-83.91711, 34.768414], [-83.916892, 34.768559], [-83.916492, 34.768712], [-83.916318, 34.768801], [-83.916124, 34.768964], [-83.916055, 34.769074], [-83.915939, 34.769321], [-83.915786, 34.770193], [-83.915732, 34.770406], [-83.91565, 34.770627], [-83.915468, 34.77088], [-83.914828, 34.77146], [-83.914225, 34.77186], [-83.913959, 34.772019], [-83.913819, 34.772145], [-83.913727, 34.772319], [-83.913585, 34.772905], [-83.913486, 34.773099], [-83.913404, 34.773201], [-83.913117, 34.773356], [-83.912958, 34.773406], [-83.912644, 34.773459], [-83.912286, 34.773457], [-83.911669, 34.773482], [-83.911421, 34.773513], [-83.911267, 34.773564], [-83.911173, 34.773617], [-83.91103, 34.773749], [-83.910289, 34.774737], [-83.910031, 34.775188], [-83.909967, 34.775372], [-83.909911, 34.77563], [-83.909769, 34.775979], [-83.909666, 34.776159], [-83.909425, 34.776487], [-83.909219, 34.77672], [-83.909086, 34.776914], [-83.90897, 34.777126], [-83.908905, 34.77731], [-83.908862, 34.777656], [-83.908833, 34.778377], [-83.908843, 34.778745], [-83.908883, 34.779146], [-83.908944, 34.779432], [-83.909543, 34.780861], [-83.909678, 34.781242], [-83.909696, 34.78141], [-83.909665, 34.781587], [-83.909579, 34.78182], [-83.909227, 34.782266], [-83.909026, 34.782466], [-83.90873, 34.782589], [-83.908515, 34.782611], [-83.908029, 34.782605], [-83.907608, 34.782654], [-83.907296, 34.78276], [-83.90698, 34.782914], [-83.906746, 34.783209], [-83.906636, 34.783465], [-83.906621, 34.783688], [-83.906661, 34.783886], [-83.906824, 34.784192], [-83.906929, 34.784355], [-83.907004, 34.784653], [-83.906946, 34.784817], [-83.906865, 34.785236], [-83.906683, 34.785905], [-83.906629, 34.78617], [-83.906441, 34.786551], [-83.906105, 34.78716], [-83.906086, 34.78745], [-83.906143, 34.787659], [-83.906133, 34.78792], [-83.905993, 34.788199], [-83.905794, 34.788461], [-83.905558, 34.78891], [-83.905488, 34.789267], [-83.905389, 34.789811], [-83.905178, 34.790118], [-83.904755, 34.790556], [-83.904252, 34.790986], [-83.903964, 34.791155], [-83.903367, 34.791372], [-83.90279, 34.79152], [-83.901852, 34.791729], [-83.901377, 34.791778], [-83.900448, 34.791785], [-83.899705, 34.791782], [-83.89662, 34.791782], [-83.896336, 34.791813], [-83.896023, 34.791873], [-83.895738, 34.791957], [-83.89552, 34.792044], [-83.895309, 34.792146], [-83.894965, 34.792361], [-83.894642, 34.79264], [-83.894364, 34.792987], [-83.894185, 34.793351], [-83.893993, 34.793827], [-83.893727, 34.794664], [-83.893693, 34.795003], [-83.893683, 34.795232], [-83.893779, 34.795904], [-83.893985, 34.796463], [-83.894585, 34.797891], [-83.895148, 34.799179], [-83.895606, 34.799897], [-83.896164, 34.800745], [-83.896642, 34.801325], [-83.897079, 34.801784], [-83.897743, 34.802501], [-83.898603, 34.80343], [-83.899278, 34.804156], [-83.900022, 34.80507], [-83.900187, 34.805394], [-83.900271, 34.805651], [-83.900339, 34.805957], [-83.900616, 34.807642], [-83.900724, 34.808383], [-83.900734, 34.808726], [-83.900783, 34.809167], [-83.90084, 34.809766], [-83.901589, 34.815574], [-83.901625, 34.81604], [-83.901802, 34.816794], [-83.901862, 34.816951], [-83.901985, 34.817259], [-83.902142, 34.817637], [-83.902256, 34.817858], [-83.902937, 34.819155], [-83.903071, 34.81944], [-83.903572, 34.820338], [-83.904048, 34.821306], [-83.904328, 34.821823], [-83.9045, 34.822142], [-83.90465, 34.822317], [-83.904813, 34.822509], [-83.905276, 34.822904], [-83.905623, 34.823178], [-83.907091, 34.823956], [-83.908086, 34.824616], [-83.908212, 34.824715], [-83.909007, 34.825335], [-83.909553, 34.825762], [-83.909907, 34.825984], [-83.910342, 34.826325], [-83.910508, 34.826455], [-83.910834, 34.826616], [-83.911232, 34.826735], [-83.911735, 34.82675], [-83.912222, 34.826636], [-83.912698, 34.826421], [-83.913508, 34.825966], [-83.914032, 34.82564], [-83.915072, 34.825008], [-83.91618, 34.824418], [-83.916608, 34.824261], [-83.916919, 34.824178], [-83.917389, 34.824076], [-83.917697, 34.824034], [-83.918362, 34.823997], [-83.918926, 34.824026], [-83.919305, 34.824076], [-83.919586, 34.82413], [-83.920131, 34.824265], [-83.920678, 34.824493], [-83.921053, 34.824678], [-83.922245, 34.825316], [-83.922609, 34.825518], [-83.923037, 34.825801], [-83.923815, 34.826374], [-83.924581, 34.827113], [-83.925075, 34.827622], [-83.925924, 34.828507], [-83.926806, 34.829417], [-83.926907, 34.829521], [-83.927139, 34.829763], [-83.928293, 34.830944], [-83.928719, 34.831394], [-83.928904, 34.831617], [-83.929217, 34.832004], [-83.929375, 34.832241], [-83.92952, 34.832483], [-83.929716, 34.83289], [-83.929861, 34.833242], [-83.929958, 34.833564], [-83.930031, 34.833908], [-83.930312, 34.835363], [-83.930464, 34.836622], [-83.930539, 34.837032], [-83.930581, 34.837289], [-83.930778, 34.838423], [-83.93083, 34.838627], [-83.931059, 34.839197], [-83.931221, 34.83948], [-83.931385, 34.839721], [-83.931534, 34.839909], [-83.93195, 34.840369], [-83.932538, 34.840965], [-83.932884, 34.841358], [-83.933604, 34.842128], [-83.934618, 34.843143], [-83.934921, 34.843521], [-83.93535, 34.843959], [-83.935677, 34.844307], [-83.935713, 34.844345], [-83.935936, 34.844591], [-83.936087, 34.844757], [-83.936198, 34.844879], [-83.937543, 34.846297], [-83.938569, 34.847392], [-83.938838, 34.847649], [-83.9392, 34.847958], [-83.939474, 34.848164], [-83.940054, 34.848565], [-83.940177, 34.848626], [-83.940351, 34.848712], [-83.94042, 34.848747], [-83.940826, 34.84901], [-83.941936, 34.849632], [-83.942831, 34.850134], [-83.943242, 34.850363], [-83.944434, 34.851039], [-83.945905, 34.851859], [-83.946565, 34.85221], [-83.946876, 34.852392], [-83.947535, 34.852789], [-83.947724, 34.852924], [-83.94816, 34.853325], [-83.948464, 34.853723], [-83.94865, 34.854055], [-83.948837, 34.854568], [-83.948928, 34.855156], [-83.948949, 34.85575], [-83.94897, 34.855979], [-83.94899, 34.856633], [-83.949046, 34.857928], [-83.94905, 34.858375], [-83.949096, 34.859224], [-83.949119, 34.859693], [-83.949132, 34.859965], [-83.949139, 34.860107], [-83.949149, 34.860311], [-83.949211, 34.861424], [-83.949221, 34.861502], [-83.949302, 34.862004], [-83.949446, 34.862871], [-83.949564, 34.863396], [-83.949743, 34.864146], [-83.949861, 34.864672], [-83.949994, 34.865302], [-83.950195, 34.865972], [-83.950364, 34.866409], [-83.950492, 34.866725], [-83.950676, 34.867086], [-83.950909, 34.867475], [-83.951112, 34.867783], [-83.951552, 34.868342], [-83.951859, 34.8687], [-83.952113, 34.868927], [-83.952279, 34.86909], [-83.952838, 34.869586], [-83.953092, 34.869756], [-83.953424, 34.869959], [-83.954418, 34.870423], [-83.954686, 34.870584], [-83.9549, 34.870716], [-83.95511, 34.870882], [-83.955444, 34.871238], [-83.955632, 34.871503], [-83.955679, 34.871579], [-83.955747, 34.871699], [-83.955833, 34.871851], [-83.955919, 34.872003], [-83.955961, 34.872077], [-83.956133, 34.872373], [-83.956315, 34.872685], [-83.956407, 34.872843], [-83.95658, 34.873127], [-83.95659, 34.873143], [-83.957248, 34.87418], [-83.957466, 34.874522], [-83.957626, 34.874772], [-83.957958, 34.875294], [-83.958084, 34.87549]], "type": "LineString"}}], "metadata": {"attribution": "openrouteservice.org | OpenStreetMap contributors", "service": "routing", "timestamp": 1768429362745, "query": {"coordinates": [[-83.917895, 34.73538], [-83.95812, 34.875475]], "profile": "driving-car", "profileName": "driving-car", "format": "geojson"}, "engine": {"version": "9.5.0", "build_date": "2025-10-31T12:33:09Z", "graph_date": "2026-01-11T10:59:30Z", "osm_date": "2026-01-05T01:00:02Z"}}}