<?xml version="1.0" encoding="UTF-8"?>
<kml xmlns="http://www.opengis.net/kml/2.2" xmlns:gx="http://www.google.com/kml/ext/2.2">
    <Document id="1">
        <Placemark id="3">
            <Style id="6">
                <LineStyle id="7">
                    <color>ffffac59</color>
                    <colorMode>normal</colorMode>
                    <width>1</width>
                </LineStyle>
            </Style>
            <name>Approach Trail Centerline</name>
            <description/>
            <MultiGeometry id="2">
                <LineString id="4">
                    <extrude>0</extrude>
                    <altitudeMode>clampToGround</altitudeMode>
                    <coordinates>-84.193846,34.626696,1158.1 -84.193884,34.626635,1158.8 -84.193849,34.626596,1157.1 -84.193829,34.62657,1155.6 -84.193803,34.626552,1155.6 -84.193802,34.626509,1159.1 -84.193801,34.626475,1159.1 -84.193807,34.626447,1157.7 -84.193804,34.626414,1157.3 -84.193817,34.626371,1155.1 -84.193804,34.62633,1155.6 -84.193815,34.6263,1154.5 -84.19381,34.626272,1154.7 -84.193792,34.626243,1154.2 -84.193785,34.626215,1155.8 -84.193782,34.626174,1159.8 -84.193779,34.626137,1154.4 -84.193765,34.626108,1152.3 -84.19376,34.626076,1152.8 -84.193776,34.62604,1151.0 -84.19378,34.626012,1151.0 -84.193772,34.625962,1150.7 -84.193778,34.625921,1152.8 -84.193778,34.625887,1152.1 -84.193794,34.625862,1150.2 -84.193808,34.625825,1149.6 -84.193803,34.625793,1148.8 -84.193786,34.625759,1149.0 -84.193772,34.625722,1148.5 -84.193752,34.625694,1149.1 -84.193738,34.625661,1148.5 -84.193723,34.625631,1148.8 -84.193698,34.625612,1147.7 -84.193679,34.625586,1148.0 -84.193656,34.625554,1148.3 -84.193624,34.625529,1150.9 -84.193603,34.625507,1150.9 -84.19358,34.625483,1150.9 -84.193552,34.625453,1151.4 -84.193529,34.625432,1149.8 -84.193505,34.625412,1149.1 -84.193478,34.625379,1149.2 -84.193443,34.625357,1150.4 -84.193407,34.625336,1150.0 -84.193377,34.625291,1147.0 -84.193369,34.62525,1147.1 -84.193369,34.625222,1147.3 -84.193348,34.625199,1145.0 -84.193318,34.625179,1144.0 -84.193285,34.62517,1143.8 -84.193245,34.625166,1144.4 -84.193212,34.625157,1143.8 -84.193182,34.625139,1143.9 -84.193151,34.625124,1143.1 -84.193122,34.625107,1142.3 -84.193096,34.625082,1141.2 -84.193092,34.625035,1140.8 -84.193097,34.625,1141.2 -84.193091,34.624967,1140.4 -84.19309,34.624933,1139.5 -84.193091,34.624899,1137.1 -84.1931,34.624869,1137.8 -84.193105,34.624834,1137.7 -84.193122,34.624799,1136.1 -84.193129,34.624772,1135.7 -84.193141,34.624731,1134.5 -84.193167,34.624705,1134.8 -84.193195,34.624673,1134.6 -84.193228,34.62465,1133.3 -84.193254,34.624631,1132.9 -84.193283,34.624616,1131.4 -84.193317,34.624608,1130.1 -84.193357,34.624609,1129.6 -84.193397,34.624609,1128.8 -84.193451,34.624601,1128.6 -84.193487,34.624591,1126.9 -84.193527,34.624588,1127.8 -84.193581,34.62459,1127.9 -84.19362,34.624595,1127.3 -84.193667,34.624603,1126.0 -84.193701,34.624599,1125.8 -84.193736,34.624595,1123.9 -84.193769,34.624591,1123.9 -84.193813,34.624585,1121.4 -84.193867,34.624575,1121.6 -84.1939,34.624574,1122.6 -84.193938,34.624577,1121.0 -84.193973,34.624577,1119.2 -84.193982,34.624547,1117.6 -84.193992,34.624516,1117.1 -84.194,34.624471,1115.7 -84.194004,34.624441,1116.2 -84.193996,34.624409,1115.4 -84.193977,34.624386,1114.0 -84.193945,34.624362,1114.3 -84.193915,34.624334,1114.2 -84.193888,34.624317,1114.1 -84.193852,34.624277,1113.8 -84.193812,34.624262,1111.8 -84.193776,34.624239,1110.4 -84.193751,34.624211,1111.2 -84.193721,34.624194,1111.0 -84.193687,34.624177,1110.1 -84.193656,34.624154,1109.9 -84.193618,34.624135,1111.4 -84.193588,34.624111,1111.2 -84.193563,34.624086,1111.0 -84.193526,34.624059,1109.3 -84.193496,34.624037,1107.4 -84.193459,34.624004,1107.9 -84.193429,34.623991,1108.8 -84.193391,34.623974,1108.4 -84.19336,34.62396,1107.9 -84.193318,34.623944,1107.5 -84.193284,34.623927,1107.0 -84.193256,34.623904,1107.8 -84.193227,34.623885,1107.9 -84.193198,34.623867,1108.9 -84.19316,34.623855,1107.8 -84.193111,34.623849,1105.7 -84.193068,34.62384,1105.6 -84.193014,34.623828,1106.6 -84.192979,34.623818,1107.4 -84.192941,34.623808,1106.8 -84.192903,34.623798,1106.2 -84.192869,34.623794,1104.9 -84.192831,34.623797,1105.5 -84.192784,34.6238,1104.9 -84.192748,34.6238,1105.2 -84.192695,34.623799,1103.2 -84.192641,34.623799,1104.5 -84.192594,34.6238,1105.5 -84.192562,34.623808,1102.2 -84.192508,34.623828,1101.3 -84.192473,34.623842,1101.2 -84.192442,34.623858,1102.2 -84.192394,34.623872,1100.5 -84.19236,34.623889,1100.1 -84.192344,34.623914,1100.3 -84.192325,34.623937,1101.7 -84.19231,34.623965,1101.6 -84.192287,34.623986,1102.1 -84.192266,34.624013,1102.1 -84.192247,34.624039,1102.1 -84.192231,34.624067,1101.1 -84.192219,34.62412,1101.0 -84.192196,34.624142,1101.8 -84.192182,34.624169,1100.7 -84.192175,34.624199,1099.4 -84.19216,34.624237,1099.8 -84.192153,34.624271,1099.6 -84.192149,34.6243,1098.7 -84.192133,34.624352,1096.1 -84.192118,34.62438,1096.1 -84.192108,34.624407,1096.4 -84.192078,34.624426,1096.2 -84.192052,34.624452,1096.1 -84.192049,34.62448,1094.8 -84.192038,34.624507,1093.8 -84.192022,34.624532,1094.0 -84.191999,34.624571,1093.2 -84.191996,34.624602,1092.5 -84.191971,34.624627,1089.9 -84.191947,34.624655,1089.8 -84.191915,34.624683,1090.3 -84.19185,34.624716,1089.1 -84.191821,34.624737,1087.7 -84.191787,34.624737,1088.6 -84.191755,34.624751,1088.8 -84.191736,34.624721,1089.2 -84.191724,34.624687,1087.9 -84.191711,34.624656,1087.2 -84.191707,34.624612,1087.2 -84.191687,34.62459,1087.2 -84.19167,34.624563,1086.0 -84.191646,34.624515,1085.3 -84.191622,34.624477,1085.8 -84.191599,34.624439,1085.4 -84.191582,34.624402,1083.9 -84.191565,34.624376,1083.1 -84.191553,34.624345,1082.2 -84.191538,34.624315,1081.1 -84.191525,34.624285,1079.6 -84.191524,34.624257,1079.6 -84.191525,34.624226,1079.2 -84.191525,34.62419,1080.0 -84.191509,34.624157,1078.0 -84.19149,34.624132,1079.3 -84.191484,34.624103,1077.4 -84.191488,34.624056,1076.4 -84.191504,34.624015,1075.9 -84.191508,34.623982,1074.4 -84.191504,34.623952,1075.4 -84.191488,34.623924,1075.6 -84.191485,34.623886,1075.4 -84.191477,34.623858,1074.5 -84.191492,34.623811,1072.9 -84.191494,34.623781,1072.3 -84.191496,34.623752,1072.8 -84.191497,34.623713,1072.4 -84.191504,34.623677,1072.0 -84.19151,34.623642,1071.0 -84.191519,34.623604,1072.5 -84.191528,34.623571,1073.1 -84.191539,34.623544,1072.7 -84.191536,34.62351,1071.3 -84.191553,34.623445,1071.8 -84.191569,34.623407,1070.4 -84.191608,34.623355,1069.2 -84.191639,34.623313,1069.4 -84.191668,34.623281,1069.3 -84.191696,34.623255,1067.7 -84.19173,34.623213,1068.0 -84.191742,34.623179,1067.9 -84.19175,34.623152,1068.3 -84.191763,34.623118,1068.5 -84.191788,34.623077,1066.6 -84.191814,34.623053,1066.3 -84.191843,34.623032,1066.7 -84.191877,34.623006,1066.8 -84.191929,34.622979,1065.5 -84.191962,34.622957,1065.7 -84.191997,34.622937,1065.2 -84.192032,34.622919,1066.0 -84.192083,34.622891,1065.6 -84.192125,34.622875,1064.7 -84.19216,34.622862,1063.5 -84.192199,34.622854,1063.8 -84.192256,34.622828,1062.8 -84.192287,34.622818,1062.2 -84.192333,34.622808,1062.0 -84.192377,34.622796,1062.0 -84.192407,34.622785,1062.1 -84.192442,34.622767,1062.0 -84.192495,34.622747,1061.6 -84.192529,34.622744,1061.6 -84.192568,34.622751,1062.1 -84.192625,34.622743,1060.2 -84.19266,34.622745,1060.9 -84.192707,34.622749,1060.6 -84.192744,34.622756,1061.3 -84.192787,34.622752,1063.2 -84.192829,34.622755,1063.0 -84.192884,34.622751,1063.1 -84.192948,34.622755,1062.8 -84.192982,34.622746,1062.5 -84.193028,34.622739,1063.0 -84.193062,34.62273,1062.7 -84.193094,34.62272,1060.8 -84.193129,34.62271,1060.4 -84.193166,34.6227,1060.7 -84.193218,34.622684,1060.2 -84.193264,34.622679,1060.9 -84.193297,34.622688,1061.5 -84.193331,34.622696,1061.5 -84.193369,34.622705,1061.6 -84.193433,34.622714,1061.6 -84.193464,34.622725,1062.0 -84.193496,34.622738,1061.0 -84.193571,34.622764,1060.5 -84.193617,34.622771,1060.4 -84.193687,34.622776,1060.3 -84.193721,34.622777,1057.9 -84.193758,34.622774,1058.6 -84.193798,34.622761,1059.1 -84.193833,34.622746,1058.8 -84.193896,34.622733,1059.1 -84.193937,34.622738,1058.8 -84.193977,34.622745,1057.5 -84.194052,34.622758,1058.0 -84.194089,34.622759,1057.8 -84.194131,34.622763,1057.3 -84.194171,34.622777,1056.1 -84.194239,34.622791,1056.1 -84.194285,34.622795,1056.6 -84.194321,34.622793,1056.6 -84.19437,34.62278,1056.6 -84.194399,34.622765,1054.9 -84.194461,34.622762,1054.1 -84.194501,34.62274,1053.9 -84.194533,34.622719,1054.0 -84.194564,34.622704,1053.0 -84.194596,34.622693,1053.3 -84.194633,34.622683,1052.8 -84.194666,34.622672,1051.9 -84.194703,34.622652,1050.8 -84.194742,34.62263,1051.9 -84.194777,34.6226,1051.8 -84.19481,34.622589,1051.0 -84.194844,34.622575,1052.0 -84.194878,34.622564,1051.6 -84.194913,34.622552,1049.7 -84.194948,34.62254,1049.7 -84.194989,34.622534,1049.7 -84.195033,34.622526,1049.4 -84.195066,34.622547,1048.4 -84.195105,34.622542,1048.3 -84.195158,34.622525,1047.9 -84.19518,34.622504,1048.2 -84.195215,34.622486,1048.0 -84.195246,34.622476,1046.9 -84.195284,34.622459,1047.2 -84.19534,34.622438,1047.5 -84.19539,34.622417,1049.1 -84.195423,34.6224,1048.5 -84.195459,34.622377,1048.4 -84.19549,34.622354,1047.9 -84.195531,34.622326,1047.0 -84.195572,34.622297,1046.1 -84.195602,34.622284,1045.4 -84.195634,34.622265,1045.3 -84.19567,34.622233,1046.1 -84.195698,34.622216,1046.2 -84.195749,34.622198,1045.4 -84.195763,34.622159,1045.1 -84.195772,34.622124,1045.8 -84.195789,34.622093,1046.6 -84.195811,34.622064,1047.9 -84.195828,34.622038,1048.1 -84.195836,34.62201,1047.0 -84.195852,34.621974,1046.9 -84.195848,34.621942,1046.2 -84.195829,34.62191,1046.9 -84.195825,34.621881,1046.0 -84.195827,34.62185,1045.9 -84.195833,34.621811,1046.4 -84.195847,34.621774,1047.8 -84.195859,34.621745,1047.8 -84.19586,34.621711,1047.6 -84.195864,34.62168,1047.1 -84.195862,34.621651,1047.4 -84.195865,34.621619,1048.0 -84.195874,34.621588,1048.3 -84.195881,34.621548,1048.7 -84.195895,34.621507,1048.5 -84.195907,34.621472,1048.7 -84.195919,34.621435,1048.8 -84.19594,34.621403,1048.9 -84.195954,34.621377,1048.1 -84.195971,34.621338,1049.5 -84.195966,34.621299,1047.7 -84.195974,34.62127,1046.4 -84.195993,34.621246,1046.5 -84.196013,34.621212,1046.8 -84.196026,34.621178,1046.6 -84.196047,34.621123,1046.1 -84.196067,34.62107,1046.4 -84.19607,34.621028,1045.2 -84.19608,34.620983,1045.8 -84.196096,34.620943,1046.1 -84.196104,34.62091,1046.8 -84.196121,34.620876,1046.7 -84.196126,34.620844,1046.5 -84.196132,34.620803,1047.2 -84.196138,34.620772,1047.6 -84.196147,34.62074,1047.0 -84.196156,34.62069,1047.2 -84.196172,34.620648,1047.2 -84.196175,34.620613,1048.0 -84.196172,34.620577,1049.1 -84.196176,34.620545,1046.3 -84.196181,34.620501,1047.5 -84.196186,34.620469,1048.1 -84.19619,34.62044,1048.1 -84.196198,34.620412,1048.5 -84.196196,34.620373,1049.0 -84.196197,34.620338,1049.4 -84.196197,34.620307,1049.9 -84.19619,34.620279,1049.8 -84.196184,34.620241,1049.5 -84.196175,34.620215,1048.6 -84.19617,34.62018,1050.0 -84.196167,34.620134,1052.1 -84.196177,34.620102,1052.8 -84.196179,34.620057,1052.3 -84.196164,34.62003,1051.4 -84.196153,34.619992,1051.5 -84.196151,34.619945,1052.4 -84.196141,34.619916,1052.3 -84.196131,34.619879,1052.5 -84.196123,34.61985,1052.9 -84.196113,34.619818,1050.9 -84.196095,34.619785,1051.5 -84.196092,34.61975,1052.1 -84.196095,34.619707,1051.4 -84.196101,34.619676,1050.3 -84.196107,34.619646,1050.4 -84.196105,34.619599,1052.1 -84.196102,34.619566,1052.7 -84.196102,34.619537,1051.9 -84.196109,34.619507,1051.6 -84.196109,34.619479,1054.3 -84.196105,34.619433,1055.0 -84.196093,34.619399,1053.6 -84.19607,34.619362,1052.9 -84.196037,34.619332,1053.0 -84.196022,34.619305,1053.0 -84.196007,34.619259,1052.8 -84.196009,34.619231,1053.4 -84.195999,34.619192,1052.4 -84.19601,34.619164,1052.2 -84.196024,34.619102,1052.4 -84.196031,34.619073,1053.7 -84.196036,34.619041,1052.5 -84.196044,34.619013,1051.2 -84.196055,34.618976,1049.6 -84.196064,34.618933,1048.6 -84.196066,34.618903,1049.8 -84.196073,34.618873,1050.7 -84.196089,34.618822,1050.4 -84.196105,34.618791,1050.1 -84.196116,34.618761,1049.9 -84.196114,34.618732,1049.0 -84.196117,34.6187,1049.1 -84.196125,34.61867,1049.2 -84.196133,34.618637,1049.1 -84.196138,34.618608,1048.8 -84.196137,34.618576,1048.2 -84.196135,34.61853,1047.2 -84.196129,34.618493,1047.4 -84.196129,34.618458,1047.2 -84.196111,34.618426,1047.3 -84.196089,34.618359,1047.6 -84.196089,34.618319,1047.5 -84.196083,34.618288,1047.7 -84.196072,34.618261,1048.3 -84.196049,34.618214,1048.0 -84.196052,34.618172,1048.8 -84.196059,34.618133,1048.4 -84.19606,34.618104,1046.5 -84.196067,34.618077,1045.5 -84.196083,34.618016,1045.7 -84.196102,34.617973,1045.9 -84.196114,34.617946,1045.7 -84.196137,34.61792,1045.2 -84.196139,34.617889,1044.5 -84.196141,34.617851,1044.0 -84.196127,34.617825,1044.4 -84.196115,34.61779,1044.0 -84.196104,34.617763,1044.5 -84.196098,34.617733,1044.0 -84.196097,34.617678,1044.2 -84.196097,34.617637,1047.5 -84.196098,34.617609,1046.7 -84.196102,34.617567,1044.6 -84.1961,34.617539,1045.2 -84.196097,34.617506,1044.6 -84.196072,34.617472,1045.5 -84.196043,34.617442,1044.9 -84.196011,34.6174,1045.5 -84.195993,34.617374,1044.8 -84.195976,34.617345,1045.4 -84.195958,34.617313,1045.0 -84.195933,34.617293,1044.9 -84.195913,34.617268,1045.6 -84.195901,34.617236,1044.3 -84.195876,34.617204,1044.7 -84.195857,34.617166,1044.2 -84.195849,34.617138,1044.5 -84.195836,34.61711,1044.1 -84.195826,34.617078,1043.6 -84.195813,34.617048,1044.1 -84.195787,34.617016,1043.4 -84.195775,34.616987,1045.3 -84.195764,34.616958,1045.2 -84.19575,34.616933,1045.4 -84.19573,34.616907,1045.0 -84.195707,34.616875,1044.4 -84.195696,34.616842,1043.7 -84.195684,34.616797,1043.8 -84.195675,34.616768,1044.2 -84.195659,34.616728,1044.2 -84.19564,34.616701,1042.9 -84.195621,34.616676,1042.0 -84.195581,34.616633,1041.8 -84.195564,34.616608,1042.3 -84.195537,34.616582,1042.2 -84.195506,34.616556,1042.1 -84.195478,34.616538,1041.5 -84.195452,34.616516,1040.7 -84.195438,34.616482,1041.1 -84.195441,34.616442,1041.2 -84.195452,34.616413,1042.0 -84.195466,34.616378,1042.0 -84.195476,34.61635,1043.4 -84.195477,34.616322,1043.0 -84.195496,34.616275,1041.8 -84.195507,34.616239,1042.9 -84.195529,34.616192,1042.1 -84.195556,34.616141,1041.3 -84.195571,34.616115,1041.8 -84.195604,34.616087,1040.9 -84.195645,34.616056,1040.2 -84.195684,34.616032,1040.2 -84.195718,34.616012,1038.9 -84.195769,34.615997,1038.4 -84.195824,34.615992,1038.1 -84.195859,34.615994,1036.4 -84.195899,34.616011,1037.9 -84.195975,34.616034,1040.2 -84.196032,34.616035,1036.7 -84.196074,34.616042,1037.7 -84.196134,34.616066,1037.8 -84.196173,34.616078,1036.9 -84.196212,34.616107,1036.5 -84.196259,34.616133,1036.7 -84.196301,34.616149,1035.8 -84.196337,34.616171,1035.2 -84.19637,34.61619,1037.3 -84.1964,34.616208,1036.8 -84.196435,34.616225,1036.9 -84.196483,34.61625,1036.9 -84.19651,34.616273,1036.9 -84.196531,34.616297,1036.6 -84.196569,34.616315,1036.5 -84.196609,34.616332,1038.6 -84.196644,34.616353,1037.4 -84.196672,34.616385,1036.8 -84.1967,34.616408,1037.5 -84.19674,34.616432,1036.8 -84.196795,34.616453,1036.2 -84.19683,34.616478,1035.3 -84.196852,34.61651,1034.8 -84.196879,34.616536,1034.9 -84.196911,34.616547,1032.2 -84.196949,34.616569,1032.2 -84.196975,34.61659,1032.2 -84.197031,34.616631,1033.0 -84.197061,34.616659,1032.7 -84.197082,34.616681,1032.8 -84.197111,34.61671,1033.0 -84.197141,34.616737,1032.5 -84.197179,34.616747,1031.3 -84.197219,34.616775,1033.5 -84.197255,34.616782,1033.8 -84.197282,34.616801,1032.4 -84.197302,34.616831,1032.7 -84.197334,34.616867,1032.3 -84.197366,34.616892,1032.1 -84.197393,34.616908,1031.8 -84.197441,34.616927,1031.7 -84.197477,34.616944,1029.9 -84.197505,34.616962,1030.4 -84.197547,34.616984,1031.2 -84.197586,34.616996,1031.9 -84.197622,34.617016,1030.0 -84.197686,34.617048,1031.3 -84.197704,34.617071,1029.3 -84.197749,34.617118,1029.8 -84.197785,34.617132,1030.0 -84.197823,34.617133,1031.2 -84.197864,34.617158,1031.8 -84.197907,34.617155,1031.2 -84.197947,34.617144,1031.1 -84.197997,34.617142,1031.6 -84.198034,34.617138,1031.2 -84.198067,34.617143,1031.7 -84.19811,34.617171,1031.3 -84.198138,34.617186,1031.9 -84.198197,34.617219,1031.9 -84.198221,34.617246,1031.6 -84.198261,34.617284,1035.6 -84.198294,34.617288,1038.0 -84.198343,34.61726,1037.5 -84.198359,34.617212,1039.0 -84.198352,34.61718,1041.3 -84.198355,34.61715,1041.8 -84.198364,34.61712,1043.2 -84.198365,34.617092,1046.4 -84.198363,34.617072,1049.9 -84.198371,34.617053,1049.4 -84.198382,34.617034,1052.4 -84.198409,34.617007,1053.7 -84.198426,34.616982,1053.8 -84.198449,34.616962,1053.8 -84.198467,34.616939,1053.9 -84.198506,34.616912,1054.0 -84.198538,34.616903,1054.2 -84.198566,34.616875,1054.3 -84.198587,34.61685,1054.4 -84.198606,34.616824,1054.0 -84.198625,34.61679,1058.5 -84.198648,34.61677,1058.4 -84.198679,34.616753,1059.8 -84.198703,34.616733,1060.5 -84.198728,34.616712,1060.7 -84.198756,34.616687,1061.1 -84.198784,34.616669,1062.5 -84.198844,34.616647,1061.9 -84.198869,34.616628,1061.5 -84.198896,34.616609,1062.7 -84.198943,34.616564,1062.3 -84.198972,34.616543,1062.2 -84.199018,34.616503,1063.3 -84.199044,34.616485,1064.0 -84.199072,34.616468,1063.4 -84.199109,34.616447,1063.6 -84.19914,34.616433,1066.7 -84.199222,34.6164,1068.2 -84.199253,34.61638,1067.7 -84.199293,34.616358,1067.8 -84.199346,34.616347,1067.8 -84.199406,34.616324,1069.5 -84.199439,34.616311,1068.7 -84.199483,34.616301,1068.2 -84.199528,34.616305,1068.3 -84.199567,34.616305,1068.3 -84.199611,34.616302,1067.8 -84.199659,34.616298,1067.7 -84.19973,34.616297,1067.6 -84.199763,34.616287,1068.1 -84.199808,34.616276,1068.9 -84.199849,34.616273,1068.6 -84.199884,34.616272,1068.3 -84.19992,34.616268,1071.4 -84.199958,34.616268,1071.7 -84.199997,34.616264,1071.5 -84.200055,34.616249,1071.9 -84.2001,34.616244,1070.2 -84.200136,34.616245,1069.8 -84.200189,34.61624,1070.0 -84.200224,34.61624,1070.0 -84.200251,34.616223,1070.0 -84.200281,34.616209,1070.1 -84.200334,34.616207,1070.4 -84.200424,34.616207,1070.4 -84.200464,34.6162,1069.5 -84.200532,34.616192,1070.4 -84.200598,34.616195,1069.9 -84.20069,34.616201,1071.0 -84.200736,34.616201,1072.6 -84.200782,34.616202,1071.2 -84.20087,34.616202,1069.6 -84.200915,34.616198,1069.7 -84.20097,34.616192,1071.2 -84.201016,34.616194,1072.3 -84.20107,34.616196,1073.5 -84.201111,34.6162,1073.9 -84.201203,34.61621,1073.4 -84.201238,34.616215,1073.8 -84.201275,34.616219,1074.2 -84.201344,34.616228,1073.4 -84.201378,34.61623,1073.7 -84.201418,34.616238,1074.0 -84.201487,34.616257,1073.3 -84.201533,34.616267,1074.9 -84.201586,34.616284,1075.8 -84.201623,34.616302,1074.1 -84.201658,34.616324,1074.1 -84.201687,34.616343,1074.0 -84.201727,34.616367,1075.8 -84.201766,34.616377,1075.3 -84.201807,34.616395,1073.6 -84.201839,34.616411,1073.7 -84.201897,34.616429,1073.9 -84.201933,34.616439,1074.0 -84.201983,34.616442,1074.6 -84.202058,34.616438,1074.2 -84.2021,34.616447,1076.0 -84.202161,34.616456,1077.3 -84.202223,34.616469,1078.8 -84.20227,34.616484,1078.7 -84.202369,34.616494,1078.7 -84.202404,34.616491,1079.4 -84.20248,34.616497,1079.7 -84.202559,34.616495,1080.7 -84.202594,34.616492,1081.1 -84.202665,34.616494,1080.8 -84.202702,34.616498,1081.3 -84.202758,34.616502,1082.4 -84.202846,34.616506,1082.5 -84.202891,34.616498,1083.8 -84.202946,34.616488,1080.5 -84.202994,34.616489,1081.9 -84.203098,34.616494,1080.8 -84.203133,34.616487,1081.6 -84.203167,34.616477,1082.8 -84.203196,34.616456,1081.2 -84.203241,34.61644,1080.7 -84.20328,34.616426,1080.5 -84.203309,34.616412,1081.7 -84.20335,34.616395,1082.2 -84.203384,34.616385,1081.9 -84.203418,34.616374,1082.2 -84.203452,34.61637,1081.0 -84.203496,34.616367,1081.1 -84.203535,34.616361,1080.8 -84.20358,34.616348,1080.5 -84.203617,34.616335,1081.7 -84.203652,34.616315,1081.0 -84.203687,34.616295,1081.1 -84.20372,34.616277,1081.7 -84.203788,34.616245,1081.2 -84.203814,34.616226,1080.2 -84.203841,34.616205,1081.1 -84.203864,34.616182,1081.5 -84.203892,34.61615,1080.6 -84.203925,34.616119,1080.9 -84.20396,34.616094,1080.7 -84.203991,34.616076,1080.6 -84.204022,34.616049,1080.3 -84.204065,34.616019,1080.0 -84.204104,34.616002,1080.3 -84.204144,34.615987,1080.5 -84.204195,34.615972,1081.9 -84.204295,34.615971,1082.0 -84.20433,34.615969,1080.9 -84.204363,34.615973,1081.1 -84.204412,34.615989,1081.6 -84.204447,34.616004,1083.1 -84.204497,34.616029,1082.8 -84.204551,34.616033,1082.8 -84.204593,34.616051,1082.2 -84.204639,34.616088,1084.0 -84.204666,34.61611,1084.6 -84.20469,34.616132,1084.1 -84.204724,34.61616,1081.8 -84.204774,34.61621,1083.1 -84.204796,34.616231,1084.2 -84.204823,34.616261,1082.3 -84.204848,34.616286,1083.3 -84.20487,34.616307,1083.7 -84.204895,34.616328,1083.6 -84.20494,34.616352,1084.4 -84.20499,34.616368,1083.6 -84.205037,34.616386,1083.2 -84.2051,34.616395,1084.4 -84.205141,34.616391,1083.2 -84.205199,34.616381,1083.5 -84.205235,34.61638,1083.5 -84.205271,34.616376,1083.3 -84.205307,34.616374,1083.4 -84.205356,34.616371,1083.3 -84.205393,34.616365,1082.2 -84.205427,34.616357,1082.2 -84.205482,34.616347,1082.9 -84.205519,34.616352,1083.8 -84.205552,34.616353,1083.3 -84.205609,34.616353,1083.0 -84.205644,34.616344,1083.9 -84.205678,34.61633,1084.6 -84.205713,34.616318,1083.8 -84.205759,34.616311,1083.0 -84.205794,34.616299,1083.3 -84.205837,34.616287,1084.5 -84.205882,34.616269,1083.3 -84.205926,34.616249,1083.4 -84.205964,34.616229,1085.8 -84.206007,34.616217,1085.9 -84.206038,34.616206,1085.9 -84.206081,34.616202,1085.5 -84.20612,34.616194,1086.9 -84.206162,34.616184,1086.5 -84.206213,34.616168,1086.3 -84.206264,34.616159,1084.0 -84.206313,34.616137,1085.8 -84.206344,34.616122,1086.0 -84.206375,34.616102,1086.0 -84.206432,34.616089,1086.3 -84.20647,34.616085,1087.0 -84.206511,34.61607,1086.9 -84.206545,34.61606,1086.8 -84.206586,34.61605,1086.6 -84.206633,34.616033,1086.7 -84.206663,34.616006,1086.9 -84.206706,34.615979,1086.9 -84.206746,34.615963,1087.5 -84.206789,34.615952,1086.9 -84.206826,34.615937,1086.1 -84.206888,34.615912,1086.8 -84.20691,34.615887,1086.8 -84.206962,34.61587,1085.8 -84.207003,34.615863,1088.3 -84.207049,34.61586,1088.5 -84.20708,34.615873,1085.8 -84.207188,34.615892,1086.2 -84.20722,34.615902,1087.6 -84.207275,34.615904,1085.6 -84.207273,34.615931,1083.2 -84.207313,34.615949,1084.3 -84.207361,34.61594,1084.8 -84.207403,34.615937,1085.6 -84.207456,34.615939,1084.4 -84.207495,34.615932,1084.3 -84.207544,34.615933,1083.6 -84.207577,34.615942,1084.4 -84.207611,34.615944,1085.5 -84.207656,34.615936,1085.3 -84.207692,34.615924,1084.5 -84.207735,34.615919,1083.3 -84.207768,34.615918,1084.1 -84.207806,34.615908,1083.4 -84.207841,34.615899,1082.8 -84.207902,34.615889,1081.4 -84.207939,34.615885,1082.1 -84.207988,34.615875,1082.7 -84.208041,34.615862,1082.4 -84.208071,34.615848,1082.8 -84.208107,34.615835,1082.8 -84.208156,34.615828,1082.4 -84.208187,34.615818,1082.0 -84.208225,34.615807,1082.0 -84.208259,34.615794,1081.2 -84.208299,34.615779,1081.2 -84.208348,34.615765,1081.7 -84.20838,34.615745,1081.3 -84.208406,34.61572,1080.0 -84.208447,34.615704,1079.0 -84.20848,34.615696,1080.5 -84.208517,34.615667,1080.0 -84.208553,34.61564,1079.4 -84.208583,34.615606,1079.9 -84.208603,34.615576,1080.3 -84.208623,34.615551,1079.6 -84.208635,34.615521,1078.9 -84.208654,34.615488,1078.0 -84.208677,34.615447,1077.5 -84.2087,34.615405,1076.8 -84.208718,34.615354,1078.0 -84.20873,34.615328,1078.0 -84.208738,34.615299,1077.3 -84.208755,34.615274,1077.9 -84.208777,34.615251,1078.0 -84.208793,34.61522,1078.0 -84.208803,34.615184,1077.4 -84.208824,34.615153,1078.5 -84.208857,34.615122,1077.2 -84.208897,34.615095,1075.8 -84.208915,34.615069,1075.4 -84.208934,34.615039,1074.7 -84.208953,34.615013,1075.0 -84.208971,34.614983,1075.2 -84.208987,34.614956,1074.3 -84.208992,34.614913,1073.1 -84.209,34.614881,1072.6 -84.209015,34.614848,1072.6 -84.209038,34.614828,1073.3 -84.209062,34.614805,1072.4 -84.209085,34.614779,1071.5 -84.209113,34.614753,1071.9 -84.209126,34.614727,1070.1 -84.209146,34.614705,1069.8 -84.209171,34.614676,1069.2 -84.209203,34.614654,1068.1 -84.209221,34.614627,1067.2 -84.209238,34.614592,1068.3 -84.20925,34.614566,1067.3 -84.209282,34.61454,1067.3 -84.209307,34.614518,1067.2 -84.20932,34.614487,1064.9 -84.209355,34.614464,1064.0 -84.209382,34.614446,1063.5 -84.209404,34.614418,1063.6 -84.20941,34.614391,1064.1 -84.209432,34.614367,1063.3 -84.209472,34.614344,1061.8 -84.209511,34.614321,1060.4 -84.209545,34.61429,1058.9 -84.209607,34.614258,1059.8 -84.209629,34.614234,1056.5 -84.20966,34.6142,1057.8 -84.209672,34.614174,1058.6 -84.209695,34.614153,1057.6 -84.209723,34.614123,1058.2 -84.209733,34.614088,1057.9 -84.209749,34.614062,1058.1 -84.209784,34.614026,1057.8 -84.209813,34.614002,1057.9 -84.209846,34.613988,1057.5 -84.209876,34.613968,1055.7 -84.209911,34.613937,1055.8 -84.209914,34.613907,1054.5 -84.209928,34.613877,1052.9 -84.209945,34.613847,1053.3 -84.209981,34.613823,1052.8 -84.210007,34.613805,1052.5 -84.210041,34.613765,1053.0 -84.210058,34.613735,1053.3 -84.210078,34.613712,1052.7 -84.210086,34.613686,1051.1 -84.210111,34.613656,1052.3 -84.210129,34.613632,1051.6 -84.210147,34.613601,1051.0 -84.210156,34.613566,1050.0 -84.210169,34.613536,1049.9 -84.21019,34.613496,1049.7 -84.210235,34.613468,1049.0 -84.210261,34.613443,1048.8 -84.210276,34.613412,1049.0 -84.210288,34.613374,1049.2 -84.210304,34.613346,1047.7 -84.210323,34.613317,1047.3 -84.210336,34.61328,1045.8 -84.210347,34.613253,1045.7 -84.210366,34.613228,1045.1 -84.210401,34.613189,1044.8 -84.210435,34.613164,1044.4 -84.210464,34.613132,1043.9 -84.210475,34.613081,1043.5 -84.210485,34.613033,1042.3 -84.210488,34.612993,1041.7 -84.21049,34.612956,1040.8 -84.210495,34.612919,1039.7 -84.210503,34.612888,1039.5 -84.210515,34.612856,1039.8 -84.210532,34.612827,1036.6 -84.210544,34.6128,1036.9 -84.210544,34.612765,1036.3 -84.21055,34.612732,1038.0 -84.210569,34.612693,1037.1 -84.210594,34.612657,1036.0 -84.210611,34.612633,1034.6 -84.21065,34.612607,1033.3 -84.210674,34.612578,1033.3 -84.210688,34.612551,1032.0 -84.210738,34.612494,1031.0 -84.21074,34.612464,1030.0 -84.210752,34.612437,1030.6 -84.210764,34.612406,1030.5 -84.210768,34.612374,1028.2 -84.210786,34.612344,1026.8 -84.210808,34.612313,1026.8 -84.210827,34.612278,1026.4 -84.210841,34.612252,1025.7 -84.210863,34.612224,1025.4 -84.210885,34.612196,1023.1 -84.210885,34.612163,1022.4 -84.210895,34.612127,1021.9 -84.210905,34.612082,1021.1 -84.21091,34.612054,1019.1 -84.210913,34.612026,1018.9 -84.21092,34.611993,1019.1 -84.210919,34.611959,1019.1 -84.210914,34.611927,1018.6 -84.210926,34.611891,1019.0 -84.210941,34.611864,1018.9 -84.210957,34.61184,1019.2 -84.210997,34.611807,1018.0 -84.211016,34.611773,1018.1 -84.211039,34.611736,1017.1 -84.211046,34.611697,1015.6 -84.211054,34.61167,1016.1 -84.211073,34.611645,1013.4 -84.211094,34.611623,1012.8 -84.211128,34.611595,1012.3 -84.211151,34.611562,1012.0 -84.211162,34.611537,1011.8 -84.211177,34.611504,1011.1 -84.211194,34.611479,1009.6 -84.211215,34.611448,1010.4 -84.211232,34.611405,1009.4 -84.211246,34.611374,1012.1 -84.211259,34.611344,1013.0 -84.211266,34.611316,1011.8 -84.211273,34.611288,1011.5 -84.211281,34.611253,1010.3 -84.211296,34.611212,1009.2 -84.2113,34.61118,1009.7 -84.211321,34.611139,1009.6 -84.211356,34.611116,1009.8 -84.211389,34.611097,1009.4 -84.211426,34.611075,1009.9 -84.211463,34.611044,1010.1 -84.211488,34.611018,1004.3 -84.211512,34.610989,1003.3 -84.211526,34.610953,1003.0 -84.211546,34.610922,1004.0 -84.211572,34.610894,1003.2 -84.2116,34.61087,1004.0 -84.211641,34.610841,1004.9 -84.21167,34.610818,1003.8 -84.211704,34.61079,1003.2 -84.211731,34.610772,1003.2 -84.211769,34.61075,1002.9 -84.211805,34.610731,1002.9 -84.211836,34.610702,1004.0 -84.211867,34.610674,1003.9 -84.211903,34.610652,1001.9 -84.211933,34.610635,1003.0 -84.211966,34.610611,1002.8 -84.212,34.61059,1002.3 -84.21203,34.610572,1002.6 -84.21206,34.61055,1002.4 -84.212084,34.610517,999.5 -84.212113,34.610502,999.7 -84.212159,34.610484,998.0999999999999 -84.212183,34.610464,999.4 -84.212213,34.61044,1000.0 -84.212237,34.610413,1000.2 -84.212266,34.610397,1000.2 -84.212293,34.61037,999.6 -84.212317,34.610348,1000.0 -84.212334,34.610323,999.8 -84.212369,34.610285,1000.2 -84.212389,34.610263,999.9 -84.212406,34.610239,1001.1 -84.212433,34.610214,1001.1 -84.212457,34.610193,1001.8 -84.212487,34.610174,1001.4 -84.212524,34.610156,1001.3 -84.212542,34.61013,1002.6 -84.21255,34.610101,1001.6 -84.212577,34.610076,1000.9 -84.212606,34.610062,997.4999999999999 -84.212633,34.610041,998.5 -84.212662,34.610018,998.6000000000001 -84.212701,34.60999,998.0999999999999 -84.212732,34.609972,998.4 -84.212761,34.609956,997.2 -84.212793,34.609936,997.4999999999999 -84.212831,34.609922,998.3 -84.212868,34.609908,998.4 -84.212912,34.609898,998.4 -84.212947,34.60986,998.0999999999999 -84.212974,34.60984,998.1999999999999 -84.213022,34.6098,997.8000000000001 -84.213049,34.609776,997.4999999999999 -84.213068,34.609752,997.0 -84.213108,34.609697,997.2 -84.213139,34.609677,995.7 -84.21317,34.609657,993.3999999999999 -84.213203,34.609647,993.3999999999999 -84.21325,34.609609,990.6999999999999 -84.213285,34.609592,990.3 -84.213322,34.60959,991.2 -84.213358,34.609584,990.5 -84.213425,34.609565,990.0999999999999 -84.213469,34.609559,991.3 -84.213502,34.609555,990.9 -84.213529,34.609535,990.3 -84.213552,34.609513,989.3999999999999 -84.213589,34.609502,988.1 -84.213624,34.609503,988.0 -84.213665,34.6095,986.8 -84.213699,34.609491,986.8 -84.213753,34.609456,985.1 -84.213763,34.609429,983.4 -84.213778,34.609401,982.8 -84.213795,34.60937,982.1999999999999 -84.213827,34.609337,982.4 -84.21385,34.609315,981.3999999999999 -84.213883,34.609294,979.7 -84.213931,34.609262,977.4999999999999 -84.213966,34.609239,977.3999999999999 -84.214003,34.609225,977.5999999999999 -84.214039,34.60922,975.9 -84.214063,34.609193,973.9999999999999 -84.214083,34.609152,974.5999999999999 -84.214124,34.609146,970.8 -84.214163,34.609129,969.7999999999998 -84.214177,34.609099,969.7999999999998 -84.214203,34.60907,970.5000000000001 -84.214227,34.609047,970.5000000000001 -84.214254,34.609026,969.2 -84.214296,34.608996,967.7 -84.214313,34.608971,965.4999999999999 -84.214305,34.608943,963.3 -84.214292,34.608915,963.2000000000002 -84.214295,34.608881,962.9 -84.214295,34.608854,962.5000000000001 -84.214327,34.608822,961.3999999999999 -84.21435,34.608801,961.2999999999998 -84.21436,34.608773,961.5999999999999 -84.214363,34.608745,959.9 -84.214358,34.608717,960.7999999999998 -84.21434,34.608682,961.2 -84.214343,34.608646,962.1999999999999 -84.214361,34.608622,960.4 -84.214367,34.608592,961.0 -84.21436,34.608562,960.7999999999998 -84.214358,34.608527,962.1999999999999 -84.214356,34.608495,962.9 -84.214361,34.608451,963.0 -84.21437,34.608424,963.7 -84.214383,34.608397,963.2000000000002 -84.214396,34.608357,963.4 -84.214416,34.608332,965.2999999999998 -84.21444,34.60831,966.5999999999999 -84.214457,34.608281,965.4999999999999 -84.214467,34.608249,964.9 -84.21447,34.608216,965.5999999999999 -84.214473,34.608183,965.8999999999999 -84.214475,34.608156,966.6999999999999 -84.214486,34.608128,966.8 -84.214501,34.608099,967.6 -84.214522,34.608068,967.8 -84.214535,34.608037,966.9 -84.214547,34.608001,967.4 -84.214552,34.607969,967.8 -84.214574,34.607946,969.2999999999998 -84.214608,34.60795,969.2 -84.214647,34.607941,969.7 -84.214659,34.607898,970.9 -84.214662,34.60787,971.2 -84.214671,34.607841,970.9 -84.214671,34.607813,971.4 -84.214685,34.607773,974.0999999999999 -84.214709,34.60773,974.0999999999999 -84.21471,34.607703,974.4 -84.21472,34.607663,974.9 -84.214714,34.607632,977.8999999999999 -84.214724,34.607599,977.3999999999999 -84.214741,34.60757,977.5999999999999 -84.214753,34.607544,977.4999999999999 -84.214767,34.607499,978.5000000000001 -84.214779,34.607468,979.6 -84.2148,34.607439,980.1 -84.214874,34.607401,982.6000000000001 -84.214899,34.607377,983.2 -84.214918,34.607346,984.0 -84.214928,34.60732,984.7999999999998 -84.214968,34.607301,985.2999999999998 -84.214976,34.60727,985.5999999999999 -84.214981,34.607241,987.6 -84.215003,34.607209,987.1 -84.215037,34.60717,988.4 -84.215048,34.607143,989.2 -84.215062,34.607116,989.1 -84.215085,34.607091,989.6999999999999 -84.215124,34.607044,991.6 -84.215152,34.607017,992.1 -84.215192,34.606982,992.5 -84.215224,34.606963,993.4999999999999 -84.215235,34.606935,995.8 -84.215258,34.606913,997.5999999999999 -84.215292,34.606911,998.3 -84.215314,34.606889,998.4 -84.215353,34.606862,998.9 -84.215384,34.606844,1000.8 -84.215394,34.606814,1001.2 -84.215406,34.606778,1001.1 -84.215413,34.606748,1004.3 -84.215445,34.606704,1003.9 -84.215478,34.60664,1005.2 -84.215508,34.606599,1006.6 -84.215521,34.606572,1006.1 -84.215549,34.60653,1006.6 -84.215565,34.606501,1008.2 -84.215579,34.606475,1008.8 -84.215591,34.606427,1009.3 -84.215601,34.606387,1009.5 -84.215616,34.606355,1010.5 -84.215629,34.606325,1011.8 -84.215645,34.606298,1011.7 -84.215659,34.60627,1011.6 -84.215674,34.60624,1013.3 -84.215681,34.606212,1013.2 -84.215705,34.606192,1013.6 -84.215739,34.606192,1013.6 -84.215757,34.606138,1014.6 -84.215773,34.6061,1014.5 -84.21576,34.606075,1014.1 -84.215779,34.606052,1014.7 -84.21576,34.606025,1015.3 -84.215762,34.605994,1015.4 -84.215764,34.605947,1016.2 -84.215748,34.605921,1017.4 -84.215746,34.605892,1018.1 -84.215738,34.605864,1018.6 -84.21573,34.605836,1019.0 -84.215724,34.605805,1021.1 -84.215719,34.605777,1021.2 -84.21572,34.605749,1022.5 -84.215716,34.605721,1022.2 -84.215719,34.605679,1022.6 -84.215689,34.605644,1023.5 -84.2157,34.605616,1027.6 -84.215706,34.605589,1025.9 -84.215715,34.605561,1025.6 -84.215731,34.605531,1027.1 -84.215753,34.605504,1028.3 -84.215777,34.605466,1028.3 -84.215783,34.605438,1029.5 -84.215805,34.605412,1029.7 -84.215814,34.605381,1029.8 -84.215835,34.605357,1031.7 -84.215841,34.605329,1033.0 -84.215848,34.605297,1033.1 -84.215855,34.605269,1032.7 -84.215856,34.605224,1034.9 -84.215864,34.605197,1034.8 -84.215879,34.60517,1035.0 -84.215907,34.605147,1035.2 -84.215937,34.605127,1036.2 -84.21596,34.605105,1036.2 -84.215981,34.605082,1037.9 -84.216009,34.605047,1038.1 -84.216003,34.605012,1040.3 -84.216005,34.604982,1040.0 -84.21602,34.604955,1039.7 -84.216036,34.604929,1040.8 -84.216029,34.604901,1040.6 -84.216028,34.604872,1040.4 -84.21604,34.604841,1041.2 -84.216054,34.604809,1041.5 -84.216064,34.604779,1041.7 -84.216072,34.60475,1042.9 -84.216089,34.604725,1043.5 -84.216106,34.604698,1045.0 -84.216126,34.604671,1044.4 -84.216156,34.604637,1045.7 -84.216176,34.604602,1046.2 -84.216195,34.604578,1045.4 -84.216239,34.604534,1047.6 -84.216259,34.604493,1048.1 -84.216274,34.604466,1047.9 -84.216285,34.604439,1048.2 -84.21627,34.604403,1048.3 -84.216263,34.604357,1048.6 -84.216258,34.604326,1047.5 -84.216307,34.6043,1046.3 -84.216338,34.604269,1045.8 -84.216377,34.604251,1045.6 -84.216411,34.604234,1045.1 -84.216441,34.604221,1046.1 -84.216477,34.60421,1045.1 -84.216524,34.604201,1043.6 -84.216567,34.604199,1043.9 -84.2166,34.604194,1043.5 -84.216635,34.604193,1043.6 -84.216672,34.604193,1043.0 -84.216708,34.604186,1042.1 -84.216759,34.604179,1040.8 -84.216798,34.604179,1042.1 -84.216838,34.604177,1041.4 -84.216876,34.604174,1041.2 -84.21691,34.604171,1040.8 -84.216951,34.604171,1039.4 -84.216986,34.604162,1040.8 -84.217043,34.604148,1040.7 -84.217076,34.604139,1040.8 -84.217109,34.604132,1041.1 -84.217146,34.604118,1040.6 -84.217172,34.604097,1041.2 -84.217222,34.60408,1041.3 -84.217262,34.604064,1042.1 -84.217301,34.604048,1042.2 -84.217355,34.604024,1042.1 -84.217404,34.60402,1042.8 -84.217448,34.604004,1042.8 -84.217476,34.603988,1043.2 -84.217513,34.60395,1042.4 -84.217524,34.60392,1042.5 -84.217543,34.603896,1041.7 -84.217571,34.603863,1040.5 -84.217595,34.603823,1041.3 -84.217618,34.603801,1042.5 -84.217644,34.603776,1043.5 -84.217661,34.603752,1044.1 -84.217686,34.603727,1044.0 -84.217704,34.603702,1045.1 -84.217726,34.60367,1046.4 -84.217743,34.603643,1045.7 -84.217765,34.603615,1044.8 -84.217789,34.603595,1045.2 -84.217812,34.603561,1045.6 -84.217832,34.603529,1045.2 -84.217849,34.6035,1046.0 -84.217865,34.603467,1045.6 -84.217897,34.603442,1045.4 -84.217928,34.603399,1044.6 -84.217953,34.603367,1043.9 -84.217977,34.603342,1044.3 -84.218002,34.603322,1045.0 -84.218029,34.603284,1044.8 -84.218036,34.603253,1045.0 -84.218044,34.603227,1044.5 -84.218064,34.603194,1045.5 -84.218086,34.603162,1045.8 -84.218101,34.603132,1043.9 -84.21812,34.603101,1046.4 -84.21814,34.60307,1047.5 -84.218167,34.603023,1048.1 -84.218191,34.602992,1047.3 -84.218213,34.602968,1047.7 -84.218228,34.60294,1047.8 -84.218242,34.602913,1048.7 -84.218255,34.602877,1048.6 -84.218253,34.602847,1048.2 -84.218272,34.602812,1048.3 -84.218291,34.602775,1048.0 -84.218306,34.60274,1046.8 -84.218319,34.602697,1047.3 -84.218326,34.602668,1048.2 -84.218349,34.602615,1048.3 -84.218354,34.602587,1048.9 -84.218361,34.602553,1047.2 -84.218369,34.602526,1047.0 -84.218385,34.602491,1046.9 -84.218397,34.602458,1047.1 -84.218416,34.602404,1047.3 -84.218421,34.602369,1046.7 -84.218433,34.602337,1045.9 -84.218452,34.602312,1045.2 -84.218506,34.602258,1045.7 -84.218526,34.602234,1048.0 -84.218539,34.602208,1048.6 -84.218557,34.602183,1049.5 -84.218595,34.60215,1049.1 -84.218624,34.602126,1049.0 -84.218645,34.602102,1048.9 -84.218669,34.602074,1049.2 -84.21869,34.602049,1050.0 -84.218717,34.602026,1048.5 -84.218746,34.602006,1049.2 -84.218771,34.601982,1049.7 -84.218804,34.601956,1049.7 -84.218832,34.601931,1049.1 -84.21886,34.601909,1049.3 -84.218901,34.601881,1048.7 -84.218929,34.601863,1050.6 -84.218944,34.601839,1049.5 -84.218963,34.601816,1048.9 -84.218981,34.601763,1049.8 -84.219011,34.601741,1049.9 -84.219034,34.601719,1051.0 -84.219069,34.601698,1051.0 -84.219105,34.601685,1049.8 -84.219138,34.601663,1049.8 -84.219162,34.60164,1049.8 -84.219187,34.60161,1049.8 -84.219219,34.601582,1048.7 -84.219248,34.601557,1047.9 -84.219284,34.601531,1047.2 -84.219316,34.601513,1047.0 -84.219341,34.601494,1046.6 -84.219363,34.601472,1046.5 -84.219394,34.601445,1045.8 -84.219408,34.601413,1045.5 -84.219434,34.601357,1046.4 -84.219464,34.601328,1046.1 -84.219491,34.601309,1045.8 -84.219571,34.601262,1045.7 -84.219609,34.601226,1042.6 -84.219643,34.601208,1042.7 -84.219682,34.601187,1042.3 -84.219713,34.601159,1040.0 -84.219727,34.601133,1040.5 -84.219759,34.60111,1040.3 -84.219809,34.601066,1039.6 -84.219844,34.601041,1039.2 -84.219875,34.601012,1039.5 -84.219919,34.600972,1039.5 -84.219944,34.600927,1038.2 -84.219974,34.600911,1036.8 -84.22,34.600873,1036.1 -84.220021,34.60085,1035.2 -84.220068,34.600812,1036.3 -84.220122,34.600776,1034.0 -84.220158,34.600753,1033.7 -84.220177,34.600729,1032.3 -84.22019,34.600702,1032.5 -84.220218,34.600687,1032.1 -84.22025,34.600673,1032.6 -84.220281,34.600662,1032.2 -84.22031,34.600641,1030.5 -84.220333,34.600619,1030.7 -84.220351,34.60059,1030.1 -84.220367,34.600566,1028.5 -84.220388,34.600541,1027.2 -84.220399,34.600515,1027.2 -84.220411,34.600489,1026.3 -84.220436,34.600463,1026.3 -84.220469,34.600441,1026.5 -84.220495,34.600417,1025.6 -84.220538,34.600387,1024.2 -84.220573,34.600356,1023.5 -84.2206,34.60033,1024.5 -84.220635,34.600319,1023.8 -84.220673,34.600309,1022.9 -84.220703,34.600295,1022.0 -84.220744,34.600291,1021.4 -84.220781,34.600284,1020.6 -84.220819,34.600283,1021.2 -84.22088,34.600287,1020.7 -84.22092,34.600285,1020.3 -84.22096,34.60028,1018.5 -84.221003,34.600277,1018.0 -84.221048,34.600278,1017.9 -84.221083,34.600289,1017.7 -84.221118,34.600301,1017.2 -84.22115,34.600309,1016.9 -84.221186,34.600317,1016.7 -84.221243,34.600342,1014.9 -84.221282,34.60036,1013.7 -84.221326,34.60036,1012.9 -84.221377,34.60037,1012.5 -84.22141,34.600358,1013.4 -84.221444,34.600354,1011.9 -84.221481,34.600353,1008.7 -84.221521,34.600352,1009.8 -84.221568,34.600357,1009.9 -84.221614,34.600359,1009.0 -84.221654,34.600351,1009.5 -84.221691,34.600351,1009.3 -84.221743,34.600337,1007.8 -84.221784,34.600336,1006.0 -84.221828,34.600334,1005.4 -84.221872,34.600327,1004.5 -84.221911,34.600317,1004.3 -84.221944,34.600309,1003.4 -84.221978,34.600304,1003.2 -84.222052,34.6003,1003.4 -84.2221,34.600295,1001.7 -84.222144,34.600292,1000.1 -84.2222,34.60028,999.8 -84.222236,34.600278,999.3 -84.222295,34.600273,999.0 -84.222328,34.600259,998.4 -84.222379,34.60025,998.3 -84.222413,34.600242,998.6999999999999 -84.222442,34.600227,998.4 -84.222473,34.600212,998.6000000000001 -84.222514,34.60019,998.0999999999999 -84.222543,34.600164,997.8999999999999 -84.22261,34.600125,997.2 -84.222662,34.600107,995.9 -84.22269,34.60009,995.1 -84.222723,34.600065,995.9 -84.222752,34.600045,996.4 -84.222783,34.60002,996.7999999999998 -84.22281,34.6,997.6999999999999 -84.222836,34.599977,996.6 -84.222859,34.59995,996.3 -84.222879,34.599922,996.6 -84.222895,34.599895,996.8999999999999 -84.222942,34.599868,996.7999999999998 -84.222966,34.599841,995.0 -84.223002,34.599804,996.1 -84.223024,34.599778,997.2999999999998 -84.223045,34.59975,997.8999999999999 -84.223074,34.599724,997.5999999999999 -84.2231,34.599704,997.2 -84.223139,34.599673,996.6 -84.223174,34.599651,997.8999999999999 -84.223206,34.59962,998.0999999999999 -84.223229,34.599598,998.4 -84.223257,34.599581,999.1 -84.223288,34.599567,999.1 -84.223329,34.599551,1001.0 -84.223363,34.599538,1000.3 -84.223411,34.599514,1000.4 -84.223443,34.599503,999.5 -84.223473,34.599488,1000.9 -84.223506,34.599491,999.2 -84.223539,34.599506,1000.8 -84.223543,34.599473,1000.2 -84.223576,34.599457,1001.8 -84.223622,34.599444,1003.0 -84.223652,34.599421,1004.2 -84.223699,34.599384,1006.0 -84.22374,34.599346,1005.9 -84.223768,34.599329,1008.0 -84.223805,34.599314,1008.1 -84.22386,34.599277,1008.5 -84.223893,34.599265,1009.0 -84.223934,34.599236,1010.2 -84.223964,34.59921,1012.8 -84.223991,34.599172,1013.2 -84.224015,34.599144,1012.5 -84.224037,34.599117,1013.1 -84.224061,34.599086,1014.9 -84.22408,34.599063,1014.5 -84.224114,34.599055,1014.6 -84.224144,34.599041,1016.5 -84.22421,34.599034,1015.7 -84.224216,34.599006,1017.6 -84.224251,34.598966,1017.1 -84.224298,34.598933,1017.0 -84.224314,34.598908,1019.2 -84.224352,34.59887,1017.4 -84.224388,34.598836,1021.0 -84.224411,34.598809,1022.0 -84.224448,34.598776,1022.3 -84.22447,34.59875,1023.6 -84.224496,34.598723,1024.7 -84.224521,34.598696,1025.0 -84.224537,34.59867,1026.2 -84.224554,34.598644,1027.4 -84.224617,34.598597,1026.8 -84.224661,34.598572,1027.3 -84.224699,34.598535,1027.5 -84.2247,34.598474,1028.5 -84.224693,34.598444,1028.7 -84.2247,34.598366,1029.8 -84.224694,34.598325,1029.4 -84.224689,34.598292,1029.5 -84.224682,34.598258,1028.0 -84.22468,34.598217,1029.0 -84.224677,34.598183,1029.4 -84.224662,34.598122,1030.0 -84.22466,34.598082,1029.8 -84.224648,34.59804,1029.0 -84.22464,34.597997,1029.3 -84.224643,34.597951,1028.5 -84.224652,34.597907,1028.1 -84.224666,34.59786,1028.3 -84.224672,34.597829,1028.6 -84.224681,34.5978,1027.3 -84.224701,34.597777,1028.2 -84.224721,34.597751,1030.6 -84.224741,34.597718,1030.3 -84.224764,34.597692,1030.3 -84.224793,34.597659,1031.8 -84.224825,34.597633,1031.5 -84.224857,34.597616,1031.2 -84.224892,34.597598,1031.7 -84.224926,34.597577,1032.2 -84.224943,34.597552,1031.2 -84.224978,34.597513,1032.4 -84.225009,34.597478,1033.9 -84.225034,34.597456,1034.7 -84.225102,34.597441,1033.6 -84.225134,34.597432,1035.6 -84.225229,34.597418,1035.3 -84.2253,34.597412,1038.1 -84.225377,34.597405,1037.2 -84.225434,34.597389,1039.7 -84.225524,34.59737,1041.5 -84.225576,34.59736,1042.7 -84.225645,34.597347,1044.3 -84.225685,34.597337,1044.3 -84.225725,34.597325,1044.3 -84.225763,34.597307,1046.0 -84.225805,34.597284,1049.9 -84.225842,34.597266,1050.0 -84.225894,34.597238,1050.2 -84.225927,34.597226,1052.1 -84.226029,34.59721,1053.1 -84.226063,34.597198,1052.7 -84.226094,34.597185,1052.7 -84.226129,34.597196,1052.7 -84.226164,34.597183,1055.0 -84.226178,34.597157,1056.0 -84.226192,34.597131,1056.1 -84.226203,34.5971,1056.8 -84.226225,34.597068,1057.5 -84.226272,34.597006,1057.8 -84.226297,34.596982,1058.3 -84.226317,34.59695,1058.6 -84.226337,34.596927,1059.2 -84.226351,34.5969,1059.4 -84.226375,34.596868,1060.0 -84.226394,34.596842,1059.6 -84.226406,34.596807,1059.3 -84.226423,34.596766,1058.0 -84.226423,34.596733,1058.8 -84.22642,34.596703,1059.1 -84.226428,34.596669,1059.7 -84.226448,34.596633,1060.3 -84.226462,34.596603,1059.0 -84.226483,34.59658,1059.9 -84.226512,34.596565,1058.5 -84.226544,34.596545,1059.4 -84.226573,34.596521,1058.7 -84.226603,34.596501,1058.4 -84.226632,34.596481,1058.6 -84.226663,34.596461,1055.7 -84.226708,34.596428,1055.7 -84.22673,34.596406,1056.8 -84.226759,34.596389,1055.5 -84.226792,34.596383,1053.6 -84.226824,34.596371,1053.9 -84.226859,34.596368,1054.2 -84.226914,34.596379,1053.7 -84.22695,34.596385,1053.5 -84.226996,34.59639,1052.9 -84.227033,34.596382,1051.8 -84.227084,34.596382,1051.5 -84.227119,34.59639,1051.2 -84.227162,34.596401,1050.8 -84.227217,34.596424,1050.7 -84.227254,34.596438,1050.3 -84.2273,34.596436,1049.7 -84.227339,34.596436,1049.0 -84.227387,34.596443,1049.0 -84.22742,34.59646,1049.0 -84.227454,34.596482,1047.9 -84.227494,34.596508,1048.4 -84.227527,34.596518,1048.4 -84.227579,34.596541,1047.3 -84.227617,34.596557,1048.0 -84.227649,34.596577,1046.2 -84.227692,34.596603,1045.5 -84.227728,34.59662,1045.5 -84.22776,34.59664,1045.1 -84.227815,34.596661,1045.3 -84.22785,34.596674,1045.4 -84.227901,34.596675,1044.7 -84.227948,34.596707,1044.7 -84.227987,34.596719,1043.5 -84.228051,34.596733,1043.3 -84.228092,34.596742,1042.8 -84.228146,34.596758,1041.9 -84.228177,34.59677,1042.4 -84.228206,34.596786,1042.8 -84.228244,34.596814,1042.2 -84.22827,34.596839,1040.3 -84.228296,34.596865,1040.8 -84.228351,34.596909,1041.2 -84.228367,34.596935,1040.2 -84.228385,34.59696,1040.7 -84.228425,34.59701,1042.1 -84.228451,34.597027,1041.3 -84.228479,34.597046,1041.1 -84.228509,34.597064,1042.5 -84.228544,34.597079,1043.0 -84.228597,34.597089,1042.7 -84.228673,34.597097,1041.7 -84.228705,34.597105,1042.1 -84.228743,34.597114,1041.9 -84.228779,34.597124,1041.6 -84.228827,34.597132,1042.5 -84.228873,34.597139,1043.6 -84.228935,34.597158,1044.7 -84.228968,34.597166,1043.2 -84.229011,34.597174,1042.5 -84.229044,34.597175,1043.8 -84.22909,34.597188,1044.9 -84.229138,34.597184,1042.6 -84.229201,34.597186,1042.3 -84.229247,34.597188,1043.5 -84.229286,34.597195,1043.7 -84.229325,34.597201,1044.2 -84.229363,34.597206,1044.3 -84.229398,34.597211,1044.2 -84.22944,34.597215,1044.5 -84.229475,34.597222,1044.6 -84.229545,34.597244,1043.4 -84.229602,34.597257,1044.9 -84.229636,34.597266,1045.1 -84.229686,34.597278,1046.0 -84.22973,34.597288,1046.2 -84.229774,34.597303,1046.5 -84.229809,34.597315,1045.5 -84.229843,34.597331,1046.4 -84.229875,34.597341,1047.4 -84.229914,34.597351,1048.8 -84.22995,34.597364,1048.8 -84.229986,34.597375,1049.2 -84.230033,34.597391,1048.3 -84.230066,34.597404,1049.3 -84.230101,34.597408,1049.0 -84.230133,34.597415,1051.2 -84.230168,34.597428,1052.1 -84.230203,34.597427,1052.8 -84.230236,34.597422,1051.2 -84.230298,34.597426,1050.3 -84.230337,34.597429,1050.0 -84.230387,34.597422,1051.2 -84.230422,34.597419,1051.0 -84.230462,34.597417,1050.7 -84.230504,34.597409,1050.0 -84.230537,34.597401,1050.2 -84.23058,34.597401,1050.2 -84.230613,34.597396,1049.1 -84.230649,34.597395,1048.5 -84.230686,34.597392,1047.9 -84.230723,34.597387,1048.1 -84.230832,34.597384,1048.8 -84.230872,34.597383,1047.7 -84.230915,34.597394,1047.8 -84.230948,34.597399,1047.7 -84.230989,34.597404,1047.3 -84.231027,34.597411,1047.3 -84.231066,34.597415,1048.1 -84.231116,34.597414,1047.2 -84.231166,34.597424,1045.3 -84.231203,34.597429,1042.3 -84.231241,34.597442,1042.6 -84.231274,34.597449,1043.2 -84.231311,34.597455,1042.1 -84.231378,34.597477,1042.6 -84.231411,34.597472,1040.1 -84.231456,34.597473,1037.8 -84.231494,34.59748,1038.2 -84.231528,34.597488,1037.8 -84.231591,34.597503,1038.7 -84.231676,34.597519,1037.0 -84.23171,34.597531,1035.5 -84.23174,34.597561,1035.5 -84.231764,34.597582,1035.8 -84.231786,34.597603,1034.7 -84.231809,34.597626,1033.0 -84.231836,34.597651,1032.8 -84.231861,34.597671,1033.2 -84.231903,34.597708,1033.3 -84.231928,34.597744,1031.3 -84.23195,34.597766,1033.1 -84.231966,34.597792,1032.1 -84.231988,34.597824,1031.1 -84.232009,34.597853,1030.2 -84.232058,34.597897,1028.5 -84.23209,34.597921,1029.7 -84.232147,34.597962,1026.4 -84.232169,34.597987,1028.3 -84.232193,34.598015,1026.4 -84.232217,34.598036,1023.2 -84.232262,34.59807,1023.7 -84.232288,34.598092,1023.8 -84.232321,34.598132,1022.5 -84.232345,34.598154,1022.4 -84.232394,34.598205,1021.5 -84.232427,34.598266,1019.5 -84.232443,34.598296,1017.5 -84.232452,34.598334,1016.9 -84.232461,34.598361,1015.5 -84.232481,34.598396,1015.6 -84.2325,34.598419,1015.7 -84.232523,34.598446,1015.4 -84.232596,34.598515,1013.5 -84.23265,34.598576,1010.3 -84.232672,34.598599,1010.7 -84.232733,34.598622,1008.5 -84.232762,34.598652,1005.4 -84.232755,34.598679,1005.4 -84.232778,34.598699,1006.1 -84.232806,34.598722,1004.9 -84.232847,34.598751,1004.4 -84.232884,34.598764,1004.2 -84.23293,34.598775,1002.9 -84.232962,34.598794,1002.5 -84.232978,34.59882,1001.0 -84.233002,34.598846,1000.4 -84.233032,34.598877,1001.0 -84.233048,34.598904,998.6999999999999 -84.233062,34.598932,997.9999999999999 -84.233087,34.598986,997.6999999999999 -84.23309,34.599014,998.1999999999999 -84.233113,34.599045,997.3999999999999 -84.233145,34.599073,997.0 -84.233186,34.599113,997.2999999999998 -84.23321,34.599154,995.1 -84.233223,34.599181,992.6 -84.233255,34.59922,993.1 -84.233288,34.599244,993.3999999999999 -84.233321,34.599275,992.6 -84.233356,34.599318,991.8 -84.23339,34.599347,990.4 -84.233422,34.599384,990.6999999999999 -84.233394,34.599417,989.6999999999999 -84.233423,34.599435,986.6999999999999 -84.233445,34.599457,986.9 -84.233478,34.59946,987.4 -84.233512,34.599458,984.7999999999998 -84.233552,34.599467,983.1 -84.233597,34.599488,983.2 -84.233631,34.599501,981.0 -84.233672,34.599508,980.3 -84.233714,34.599502,979.6 -84.233744,34.599484,977.5999999999999 -84.233786,34.599469,977.3999999999999 -84.23382,34.599459,977.7999999999998 -84.233849,34.599444,977.1 -84.233873,34.599425,977.4999999999999 -84.233903,34.599411,975.5 -84.233944,34.599388,975.5 -84.233973,34.59937,974.9 -84.233995,34.599343,972.0 -84.23402,34.599321,969.7999999999998 -84.234052,34.599288,970.5000000000001 -84.23409,34.59925,969.7999999999998 -84.234124,34.59921,969.3999999999999 -84.234156,34.599166,967.4 -84.234183,34.599138,967.9 -84.23419,34.599111,966.3 -84.234194,34.599076,964.4 -84.234195,34.599038,964.0 -84.234195,34.59901,962.8 -84.234227,34.598951,962.8 -84.234231,34.598923,963.3 -84.234228,34.598894,960.4 -84.234233,34.598859,961.2 -84.23424,34.598826,961.4999999999999 -84.23425,34.598792,960.4 -84.234258,34.598749,960.0 -84.234271,34.598722,958.3 -84.234292,34.598691,958.5999999999999 -84.234276,34.598651,958.4999999999999 -84.234264,34.5986,956.5 -84.234281,34.598553,954.6999999999999 -84.234293,34.598518,954.6999999999999 -84.234303,34.598488,954.4000000000001 -84.234318,34.598458,953.9999999999999 -84.234327,34.598423,949.9999999999999 -84.234337,34.598391,951.2000000000002 -84.234354,34.598365,949.7999999999998 -84.234388,34.598319,949.6 -84.234402,34.598247,948.4 -84.234401,34.598214,947.1 -84.234388,34.598187,946.0999999999999 -84.234393,34.598153,947.6 -84.234401,34.598123,947.6 -84.234399,34.598091,946.4999999999999 -84.234399,34.598028,945.8999999999999 -84.234396,34.597985,946.4000000000001 -84.234389,34.597949,947.1 -84.234391,34.597909,944.6 -84.234383,34.597856,943.9 -84.234372,34.59783,943.5 -84.234362,34.597801,944.8 -84.23435,34.597763,945.7 -84.234339,34.597737,945.1 -84.234331,34.597705,945.1 -84.234325,34.597675,945.7 -84.234325,34.597636,946.4999999999999 -84.234333,34.5976,946.5999999999999 -84.234342,34.597563,946.5999999999999 -84.234344,34.597519,945.7 -84.234349,34.597482,946.0999999999999 -84.234346,34.597454,947.3 -84.234346,34.597407,947.1 -84.234346,34.597377,947.2000000000002 -84.234368,34.597334,947.9 -84.234381,34.597304,948.2 -84.234412,34.597241,949.1 -84.234431,34.597213,949.7 -84.234457,34.597193,952.5 -84.234486,34.597175,951.3 -84.234517,34.597157,950.5999999999999 -84.234576,34.59714,948.6 -84.234613,34.597123,947.4 -84.234654,34.597104,947.9 -84.234689,34.597087,948.4 -84.234726,34.597069,946.5999999999999 -84.234779,34.597041,946.9 -84.234807,34.597025,945.7999999999998 -84.234857,34.597013,946.4000000000001 -84.23488,34.596991,946.8 -84.234909,34.59697,944.4 -84.234934,34.596949,944.0 -84.23497,34.59693,944.5 -84.234999,34.596906,944.2 -84.235019,34.596877,944.5 -84.235037,34.596845,945.0 -84.23505,34.596814,944.5 -84.235062,34.596782,944.0 -84.235086,34.596757,942.9 -84.235117,34.59673,943.3 -84.235141,34.596709,942.4999999999999 -84.235164,34.596686,941.9999999999999 -84.235191,34.59666,942.4000000000001 -84.235213,34.596636,942.9 -84.235233,34.596613,942.1999999999999 -84.235263,34.596593,941.6 -84.235309,34.596566,940.9 -84.235342,34.596553,941.2999999999998 -84.235372,34.596538,940.9 -84.235404,34.596522,939.8 -84.235446,34.596492,940.9 -84.235452,34.596462,940.7 -84.235475,34.596425,940.8 -84.235489,34.596389,941.2 -84.235494,34.596357,940.6 -84.235506,34.596328,940.1 -84.235517,34.596296,940.0 -84.23552,34.596261,941.6 -84.235533,34.596222,942.4000000000001 -84.235537,34.596194,941.2999999999998 -84.235548,34.596145,940.9 -84.235557,34.596116,940.9 -84.235569,34.596076,944.0 -84.23558,34.596047,940.9 -84.235597,34.596015,941.7 -84.23561,34.595987,941.3999999999999 -84.235619,34.595956,940.9 -84.235621,34.595927,940.6 -84.235624,34.595856,940.0 -84.235626,34.595828,938.1999999999999 -84.235651,34.595766,939.3 -84.235653,34.595734,938.9 -84.235655,34.595707,937.6 -84.235654,34.595667,937.1 -84.235661,34.595634,937.3999999999999 -84.235663,34.595588,938.4999999999999 -84.23565,34.595557,939.1999999999999 -84.235645,34.595523,939.3 -84.235641,34.595481,939.1000000000001 -84.235639,34.595438,938.5999999999999 -84.235635,34.595404,937.9999999999999 -84.235636,34.595374,937.6 -84.23564,34.595335,935.8 -84.23564,34.595305,936.3 -84.235638,34.595261,936.5 -84.235641,34.595232,936.4 -84.235644,34.595205,936.5 -84.235654,34.595175,936.5 -84.235666,34.59515,937.2999999999998 -84.23569,34.595117,937.6 -84.235703,34.595091,937.2 -84.235728,34.595049,937.3999999999999 -84.235755,34.595019,938.3000000000001 -84.235776,34.594997,937.7999999999998 -84.235806,34.594968,937.2999999999998 -84.235829,34.594948,938.9 -84.235852,34.594924,938.9 -84.235874,34.594894,938.3000000000001 -84.235896,34.594869,938.1999999999999 -84.235923,34.594851,938.4999999999999 -84.235957,34.594833,938.0999999999999 -84.235983,34.594805,938.5999999999999 -84.236011,34.59478,938.5999999999999 -84.236029,34.594755,940.3 -84.236046,34.59473,940.1 -84.236071,34.5947,941.2 -84.236112,34.594677,940.7 -84.236134,34.594649,940.2 -84.236154,34.594621,939.4 -84.236165,34.59459,939.9 -84.236183,34.594528,942.6999999999999 -84.236196,34.594499,943.9 -84.236204,34.594467,944.0 -84.236205,34.594436,943.7 -84.236203,34.594405,944.2 -84.236204,34.594376,944.8 -84.23621,34.594347,945.0 -84.236225,34.594294,944.7 -84.236225,34.594265,945.2999999999998 -84.236218,34.594235,945.2999999999998 -84.236218,34.594205,945.9999999999999 -84.236217,34.594176,945.6 -84.23622,34.594129,945.6 -84.23623,34.594098,946.4000000000001 -84.236242,34.594067,945.6 -84.236268,34.594029,944.9 -84.236293,34.593999,945.0 -84.236314,34.593971,946.8 -84.236327,34.593945,947.5 -84.236333,34.593911,948.1 -84.236337,34.59388,949.0 -84.236354,34.593854,948.5 -84.236372,34.593825,948.9 -84.236388,34.593796,949.1 -84.236407,34.593767,950.1999999999999 -84.236438,34.593725,950.4000000000001 -84.236461,34.593699,951.2000000000002 -84.236483,34.593673,950.9 -84.236519,34.593648,951.2000000000002 -84.236567,34.593635,951.4 -84.236628,34.593629,951.8 -84.236664,34.59363,951.7 -84.236707,34.593625,953.7999999999998 -84.236743,34.593622,953.2999999999998 -84.236791,34.593619,954.8 -84.23684,34.593613,953.8999999999999 -84.236875,34.593598,954.0999999999999 -84.236903,34.593568,956.3 -84.236923,34.593543,956.1 -84.236938,34.593518,957.0 -84.236983,34.593484,956.9 -84.237019,34.593457,956.1 -84.237036,34.593424,956.1 -84.237043,34.593394,957.7 -84.237073,34.593363,958.1999999999999 -84.237099,34.593342,958.5999999999999 -84.237122,34.593315,958.1999999999999 -84.23714,34.593286,959.3 -84.237153,34.593259,961.2 -84.237167,34.593232,960.6 -84.23717,34.593195,960.4 -84.237159,34.593162,962.0999999999999 -84.237139,34.593126,963.0 -84.237123,34.5931,959.9 -84.237099,34.593066,959.3 -84.237075,34.593006,961.0 -84.237066,34.592977,961.4999999999999 -84.237054,34.592933,961.2999999999998 -84.237054,34.59289,960.6 -84.237042,34.592863,959.5 -84.23702,34.592827,960.3 -84.23701,34.59279,959.3 -84.237007,34.592758,958.5999999999999 -84.237007,34.592727,958.3 -84.237005,34.592697,957.7999999999998 -84.237002,34.592658,957.7999999999998 -84.236988,34.592619,956.8 -84.236985,34.592582,957.9999999999999 -84.23698,34.592543,957.3999999999999 -84.236972,34.5925,958.8 -84.236971,34.592461,958.6999999999999 -84.236963,34.592394,957.2999999999998 -84.236964,34.592358,957.7999999999998 -84.236961,34.592325,958.6999999999999 -84.236957,34.592289,959.8 -84.236952,34.592261,960.0 -84.236941,34.59223,958.9 -84.236929,34.592198,957.7999999999998 -84.236912,34.592146,958.0999999999999 -84.236916,34.592106,957.8999999999999 -84.236928,34.592071,957.4999999999999 -84.236929,34.592039,957.4999999999999 -84.23693,34.592003,957.7 -84.23695,34.591939,956.8 -84.236957,34.59191,957.8999999999999 -84.236972,34.591826,957.3999999999999 -84.236979,34.591796,957.4999999999999 -84.236985,34.591765,957.6 -84.236989,34.591734,957.7999999999998 -84.236988,34.591697,957.9999999999999 -84.236992,34.591669,957.2 -84.237002,34.591627,956.6 -84.23701,34.591596,956.6 -84.237014,34.591568,957.1 -84.237042,34.591511,956.4 -84.23707,34.591493,956.1 -84.237098,34.591477,955.2000000000002 -84.23713,34.591464,956.2 -84.237165,34.591467,953.8999999999999 -84.237196,34.591449,953.7999999999998 -84.237228,34.591412,953.7 -84.237198,34.591397,954.6999999999999 -84.237181,34.591371,953.4999999999999 -84.237191,34.591335,953.7 -84.237199,34.591287,954.1999999999999 -84.237186,34.59126,951.3 -84.237158,34.591188,949.4999999999999 -84.237134,34.591167,951.5 -84.237108,34.591114,952.4 -84.237076,34.591068,951.3 -84.237055,34.591031,950.0999999999999 -84.23704,34.590991,949.8999999999999 -84.237021,34.590968,948.8 -84.236996,34.590949,948.9 -84.236971,34.590924,949.6 -84.236938,34.590907,950.8 -84.236897,34.590886,950.9 -84.236869,34.590862,951.3 -84.236843,34.590839,948.2 -84.236819,34.590819,947.8 -84.236797,34.590791,947.5 -84.236775,34.590765,947.0 -84.236753,34.590741,947.3 -84.236689,34.590664,947.1 -84.236672,34.590629,946.4000000000001 -84.236652,34.590594,946.5999999999999 -84.236633,34.590563,945.8999999999999 -84.23661,34.590539,945.0 -84.23656,34.590478,945.7 -84.236554,34.590448,944.8 -84.236561,34.590387,944.3 -84.236555,34.590354,943.0 -84.236556,34.59032,942.5999999999999 -84.236558,34.590288,940.6 -84.236571,34.590199,941.6 -84.236572,34.590169,939.5 -84.236577,34.590141,938.4999999999999 -84.236589,34.59008,938.4999999999999 -84.236596,34.590051,938.3000000000001 -84.236606,34.590023,940.0 -84.236624,34.589999,938.5999999999999 -84.236686,34.589945,938.8 -84.236692,34.589918,937.7 -84.23668,34.589891,937.3999999999999 -84.236666,34.589852,936.7 -84.236655,34.589823,935.7 -84.236648,34.589785,934.3000000000001 -84.236641,34.58975,933.6 -84.236628,34.589724,932.1 -84.236609,34.58968,932.7 -84.236603,34.589652,929.7 -84.236608,34.589622,929.1 -84.236615,34.589564,928.5 -84.23661,34.589536,927.9 -84.236626,34.589499,927.1000000000001 -84.236612,34.589471,928.5 -84.236606,34.589442,925.5 -84.236612,34.589401,925.9999999999999 -84.236643,34.58935,925.3999999999999 -84.236655,34.589322,924.9 -84.23667,34.589297,924.5 -84.236742,34.589233,922.5999999999999 -84.23678,34.589191,922.5999999999999 -84.236815,34.589159,923.0000000000001 -84.236838,34.589124,921.7 -84.23685,34.589097,923.0000000000001 -84.236867,34.589063,921.5 -84.236894,34.58902,921.2 -84.236925,34.588978,921.0 -84.23693,34.588945,921.8999999999999 -84.236927,34.588909,921.5 -84.236929,34.588876,921.2999999999998 -84.236942,34.588848,919.3 -84.236953,34.588812,918.4999999999999 -84.236962,34.588778,918.6999999999999 -84.236964,34.588749,917.5 -84.236971,34.58872,917.7 -84.236972,34.588687,917.4 -84.236982,34.588643,917.7999999999998 -84.236988,34.58857,916.0 -84.236987,34.588534,916.8 -84.237007,34.588475,916.1 -84.237034,34.588418,914.6999999999999 -84.237019,34.588393,913.9999999999999 -84.237007,34.588366,914.9 -84.236997,34.58834,913.2999999999998 -84.237025,34.588311,914.9 -84.237006,34.588285,911.9 -84.236997,34.588257,911.0999999999999 -84.236979,34.58823,911.5 -84.236959,34.588187,911.6 -84.236968,34.588157,910.2999999999998 -84.236988,34.588134,909.6 -84.237016,34.588107,908.2 -84.237047,34.588091,906.9 -84.237083,34.588075,907.3 -84.237115,34.588065,907.0000000000001 -84.237182,34.588069,905.7 -84.237245,34.588049,903.7000000000002 -84.237277,34.58806,904.0 -84.237321,34.588073,904.2 -84.237357,34.588089,902.9 -84.2374,34.588092,900.2 -84.237457,34.588079,900.3 -84.23749,34.588086,897.1 -84.237518,34.588071,896.3 -84.237537,34.588048,895.9 -84.237556,34.588019,894.4999999999999 -84.237606,34.587972,891.9 -84.237632,34.587952,893.0 -84.237667,34.587943,891.8 -84.237697,34.587931,891.1999999999999 -84.237732,34.587924,891.5 -84.237717,34.587897,892.0 -84.237728,34.587858,890.4999999999999 -84.237735,34.587817,889.6 -84.237734,34.587788,887.4 -84.237754,34.587756,886.8 -84.237814,34.587701,886.1 -84.237836,34.587679,882.9999999999999 -84.237852,34.58765,881.7999999999998 -84.237879,34.587616,881.3 -84.237903,34.587597,879.0999999999999 -84.237915,34.58757,879.9 -84.237941,34.587552,878.9999999999999 -84.237974,34.587546,878.1 -84.238006,34.587502,877.4 -84.238041,34.587476,874.6999999999999 -84.23809,34.587456,874.4999999999999 -84.238114,34.587435,872.3 -84.238183,34.587409,871.9 -84.238218,34.58739,871.9 -84.238278,34.587367,872.0 -84.238305,34.587348,870.2 -84.238339,34.587356,869.5 -84.238373,34.587356,868.7 -84.238441,34.587354,868.5 -84.238465,34.587322,866.3999999999999 -84.238472,34.587287,862.8999999999999 -84.238479,34.587254,862.8000000000001 -84.238465,34.587222,861.8999999999999 -84.238446,34.587197,861.5 -84.238434,34.587168,860.9 -84.238422,34.587126,860.1 -84.238414,34.587092,861.0 -84.238413,34.587061,861.0 -84.238416,34.587033,862.0 -84.238425,34.587001,861.7 -84.238413,34.586955,862.2999999999998 -84.238436,34.586928,861.6 -84.23846,34.586894,861.2 -84.238473,34.586867,861.7999999999998 -84.238496,34.586838,862.2999999999998 -84.23852,34.586803,863.6000000000001 -84.238544,34.586769,863.8 -84.23856,34.586742,863.0999999999999 -84.238594,34.586698,863.1999999999999 -84.238628,34.586681,863.3 -84.23868,34.586661,862.2 -84.238711,34.586638,861.3 -84.238777,34.5866,861.3 -84.238836,34.586619,861.3 -84.238872,34.586618,861.0 -84.238898,34.5866,861.5 -84.238931,34.586595,860.9 -84.238995,34.58662,861.4 -84.23897,34.586602,862.5999999999999 -84.238914,34.586601,863.0999999999999 -84.238905,34.586575,861.8999999999999 -84.238948,34.58658,862.1 -84.238986,34.586587,863.1999999999999 -84.239024,34.586589,864.4 -84.239059,34.586578,863.9 -84.239087,34.586549,864.0 -84.239106,34.586523,864.6 -84.239146,34.586509,866.2999999999998 -84.239204,34.586482,866.1 -84.239243,34.586472,868.4 -84.239279,34.58646,868.4 -84.239312,34.58644,869.1 -84.239339,34.5864,870.1 -84.239343,34.58637,870.2 -84.239362,34.58634,871.1999999999999 -84.239395,34.586304,870.6999999999999 -84.239432,34.586302,873.3 -84.239466,34.586301,873.3 -84.239505,34.586282,872.9 -84.239528,34.586256,874.8000000000001 -84.239553,34.586231,875.0999999999999 -84.239566,34.586203,875.9 -84.239574,34.586171,876.8 -84.239578,34.586142,877.2 -84.239578,34.586111,877.6 -84.239595,34.586073,877.5 -84.239617,34.586048,877.2 -84.239651,34.586027,877.5 -84.239678,34.586007,878.1 -84.239715,34.585962,878.9000000000001 -84.239717,34.585933,880.4 -84.239718,34.585906,880.1 -84.23971,34.585872,880.7 -84.239695,34.585837,880.7 -84.239686,34.585796,881.4 -84.23967,34.58577,881.9999999999999 -84.23965,34.585745,881.7999999999998 -84.239612,34.585722,881.7 -84.239581,34.5857,881.9999999999999 -84.239552,34.585673,883.0999999999999 -84.239521,34.585659,884.3 -84.239493,34.585641,881.7 -84.239469,34.585614,882.4999999999999 -84.239449,34.585577,883.5 -84.239451,34.585526,883.9 -84.239452,34.585488,884.5 -84.23946,34.585459,883.5 -84.239468,34.585423,883.7000000000002 -84.239476,34.585379,883.3 -84.23948,34.585346,882.6999999999999 -84.239491,34.585316,884.6 -84.239473,34.585275,885.3 -84.239482,34.585234,887.1999999999999 -84.239533,34.585189,886.9999999999999 -84.239554,34.585164,888.3 -84.239591,34.585143,889.2 -84.239615,34.585118,890.2999999999998 -84.239652,34.585091,890.8 -84.239687,34.585066,890.6999999999999 -84.239722,34.585051,891.1999999999999 -84.239773,34.585028,890.6999999999999 -84.239811,34.585,892.2 -84.239831,34.584975,891.9 -84.23986,34.584954,892.3 -84.239906,34.584919,892.5 -84.239934,34.584893,893.7 -84.239931,34.584864,894.2 -84.239936,34.584834,893.7999999999998 -84.239925,34.584797,896.2 -84.239911,34.58477,896.3 -84.239896,34.584729,896.9 -84.23987,34.584689,896.4 -84.239856,34.584662,897.5 -84.239847,34.584619,897.2999999999998 -84.239849,34.584583,898.9000000000001 -84.239849,34.584555,897.0 -84.239854,34.584523,896.5 -84.239864,34.584486,896.5 -84.239873,34.584454,897.0 -84.239878,34.584419,897.0 -84.239891,34.584388,897.0 -84.239908,34.584355,898.3999999999999 -84.239925,34.584319,897.1 -84.239932,34.584284,897.0 -84.239927,34.584255,897.1 -84.239933,34.584217,897.5 -84.239933,34.584183,897.8999999999999 -84.239938,34.584149,897.9999999999999 -84.239948,34.584118,897.2999999999998 -84.239948,34.584077,897.9999999999999 -84.239941,34.584033,898.2999999999998 -84.239944,34.584001,899.0999999999999 -84.239965,34.583958,899.4 -84.239977,34.583926,900.1 -84.239995,34.583893,900.9 -84.240015,34.583851,900.7 -84.24002,34.583807,900.6 -84.240035,34.583778,901.0 -84.240048,34.583742,902.6999999999999 -84.240055,34.583707,901.9999999999999 -84.240059,34.583674,902.0999999999999 -84.240065,34.583636,902.2 -84.240065,34.583601,902.4999999999999 -84.240074,34.58357,903.3 -84.24008,34.583528,903.4 -84.240083,34.583494,903.7000000000002 -84.240099,34.583459,904.4 -84.240129,34.583429,905.0 -84.240151,34.583391,903.9 -84.24017,34.583361,903.8 -84.24019,34.583333,902.2999999999998 -84.240233,34.583274,902.4999999999999 -84.240246,34.583231,902.0999999999999 -84.240255,34.583205,902.3999999999999 -84.240254,34.583161,899.9 -84.240254,34.583129,900.1 -84.240252,34.58309,900.1 -84.240257,34.583057,899.7000000000002 -84.240271,34.583024,899.0999999999999 -84.240283,34.582992,898.8 -84.240292,34.582951,897.2 -84.240315,34.582908,897.2999999999998 -84.240332,34.582884,898.1 -84.240353,34.582851,897.4 -84.240391,34.58283,895.0999999999999 -84.24041,34.582803,895.0999999999999 -84.240434,34.582775,894.5999999999999 -84.240451,34.582748,893.4 -84.240499,34.582704,892.4 -84.240534,34.582667,891.9 -84.240579,34.58262,890.6999999999999 -84.240624,34.582589,889.9999999999999 -84.240653,34.582567,887.1999999999999 -84.240682,34.58254,886.5999999999999 -84.240711,34.582515,884.7 -84.240741,34.582498,884.5 -84.240774,34.582473,885.0 -84.240805,34.582444,883.8 -84.240831,34.582423,884.0 -84.240865,34.582402,884.5 -84.240894,34.582381,885.1 -84.240929,34.582344,884.3 -84.240944,34.58232,885.9999999999999 -84.240966,34.582296,885.3 -84.241004,34.582274,884.2 -84.241036,34.582259,885.3 -84.24107,34.582244,884.5 -84.241113,34.582223,885.0 -84.241155,34.582199,885.6 -84.241191,34.582184,885.4 -84.241228,34.582165,884.9 -84.241265,34.582147,885.0 -84.241293,34.582129,884.4 -84.241309,34.582102,883.8 -84.241329,34.582072,884.0 -84.24134,34.582038,885.1 -84.241341,34.582004,886.1 -84.24136,34.581962,886.3999999999999 -84.24137,34.581936,888.2 -84.241394,34.581909,887.7000000000002 -84.241422,34.581876,889.0 -84.24147,34.581817,889.2 -84.241505,34.581774,888.5 -84.241521,34.58175,889.3 -84.241544,34.581725,890.5999999999999 -84.241579,34.581693,890.5999999999999 -84.241602,34.581667,891.1999999999999 -84.241643,34.581618,891.9 -84.24166,34.581592,892.5 -84.241674,34.581557,892.6 -84.241695,34.581532,892.0 -84.241724,34.581512,891.8 -84.241763,34.581488,891.7000000000002 -84.241826,34.581459,890.8 -84.241856,34.581436,893.5 -84.241895,34.581417,893.2 -84.241931,34.581407,894.3999999999999 -84.241964,34.5814,896.1 -84.242025,34.581394,895.7000000000002 -84.242067,34.581402,895.5 -84.242119,34.581417,895.5 -84.242163,34.581417,895.9 -84.242204,34.581419,895.7000000000002 -84.24226,34.581422,896.7 -84.242303,34.581437,896.9 -84.242349,34.581445,897.1 -84.2424,34.581443,898.8 -84.242445,34.581443,898.5999999999999 -84.242479,34.581446,899.7000000000002 -84.242521,34.581455,900.6 -84.242554,34.581464,900.2 -84.242626,34.581482,902.3999999999999 -84.242663,34.581481,902.4999999999999 -84.242697,34.581475,903.0000000000001 -84.242736,34.581488,903.5 -84.242768,34.581501,903.8 -84.24281,34.581512,903.9 -84.242848,34.581522,903.0000000000001 -84.242885,34.581529,903.1999999999999 -84.242921,34.58154,904.2 -84.242947,34.581564,905.0 -84.24297,34.581586,905.1 -84.24301,34.581603,906.2 -84.243043,34.581613,907.4 -84.243077,34.581624,906.3999999999999 -84.243112,34.581634,905.7999999999998 -84.243147,34.581634,908.8 -84.243233,34.58163,909.2 -84.243272,34.581635,910.2 -84.243307,34.581632,911.6 -84.243342,34.581634,911.6 -84.243401,34.581638,912.2 -84.243446,34.581635,912.7 -84.243479,34.581625,913.1 -84.243513,34.581618,913.8999999999999 -84.243535,34.581639,912.9 -84.243569,34.581615,913.2 -84.243578,34.58158,911.8 -84.243569,34.581542,910.9 -84.243554,34.581509,911.8 -84.243556,34.581477,911.1999999999999 -84.243552,34.581442,912.2 -84.243557,34.581397,911.7 -84.243556,34.581366,912.0 -84.243556,34.58132,913.2 -84.243573,34.581282,912.0 -84.243592,34.581257,911.5 -84.243615,34.581227,912.9 -84.243637,34.5812,913.0 -84.243663,34.581167,912.8 -84.243685,34.581141,912.3 -84.243704,34.581117,912.6 -84.243735,34.581083,913.5 -84.243759,34.581045,913.7999999999998 -84.243777,34.581,913.5 -84.24379,34.580962,914.9 -84.243806,34.580921,916.5 -84.243814,34.580894,915.7 -84.243832,34.58087,915.9 -84.243857,34.580825,916.8 -84.243866,34.580796,916.6 -84.243878,34.58077,916.5 -84.243882,34.580737,917.5 -84.243881,34.580706,916.5 -84.243874,34.580674,917.8999999999999 -84.243861,34.580639,919.4 -84.243835,34.580602,919.7 -84.243804,34.58057,919.9 -84.24378,34.580551,919.7 -84.243756,34.58053,919.9 -84.243733,34.5805,920.2 -84.243711,34.580475,920.8 -84.243686,34.580449,920.9 -84.243666,34.580423,921.0 -84.243644,34.580391,920.9 -84.243633,34.580364,920.5 -84.243621,34.580338,920.8 -84.243594,34.580286,922.5999999999999 -84.243582,34.580224,922.1999999999999 -84.243554,34.580176,921.6 -84.243537,34.580147,921.5 -84.243513,34.580113,921.3999999999999 -84.243491,34.58009,921.2999999999998 -84.24345,34.580064,922.3999999999999 -84.243412,34.580042,922.3000000000001 -84.243384,34.580022,922.9 -84.243366,34.579998,923.7 -84.243349,34.579969,923.4 -84.243319,34.579928,921.6 -84.243292,34.579896,922.8 -84.243274,34.579872,923.3 -84.243259,34.579848,923.6 -84.243232,34.579816,924.3 -84.243207,34.579787,925.3999999999999 -84.243183,34.579754,923.7 -84.243161,34.579725,924.1 -84.24314,34.579702,924.1 -84.243117,34.579673,924.1 -84.243094,34.579652,924.1 -84.243072,34.579623,924.6 -84.243058,34.579598,925.5 -84.243055,34.579548,925.6 -84.243063,34.57952,926.4999999999999 -84.243078,34.579486,925.7999999999998 -84.243076,34.579447,927.6 -84.243074,34.579419,926.3999999999999 -84.243077,34.579379,925.8999999999999 -84.243086,34.579348,926.3999999999999 -84.243093,34.579318,927.9 -84.243098,34.579274,928.2 -84.243095,34.579241,928.1 -84.243092,34.579212,925.5 -84.243078,34.579184,925.6 -84.243061,34.579156,925.5 -84.243045,34.579132,926.4999999999999 -84.243035,34.5791,926.4999999999999 -84.24302,34.579068,926.6999999999999 -84.243009,34.579038,926.6999999999999 -84.243001,34.579007,926.3999999999999 -84.242993,34.578964,925.9999999999999 -84.242982,34.578924,925.7999999999998 -84.242964,34.578879,926.5999999999999 -84.242946,34.578853,925.7999999999998 -84.242927,34.57882,925.5 -84.242918,34.578783,924.8 -84.242909,34.578755,923.9 -84.242886,34.57872,923.5 -84.242869,34.578694,924.1 -84.242847,34.578668,926.6999999999999 -84.242834,34.578642,926.1999999999999 -84.242828,34.578606,923.9 -84.242817,34.578565,922.5999999999999 -84.242815,34.578524,923.1999999999999 -84.242816,34.578493,924.2 -84.242813,34.578461,924.3 -84.242808,34.578433,924.0 -84.242801,34.578396,923.7 -84.242795,34.578366,923.9 -84.242792,34.578338,924.1 -84.242791,34.578291,924.6 -84.242795,34.578263,924.0 -84.242795,34.578223,924.3 -84.242804,34.578183,925.0 -84.242817,34.578151,924.6 -84.242834,34.57812,924.4 -84.242847,34.578093,924.8 -84.242853,34.578052,923.8 -84.242849,34.578022,923.6 -84.242844,34.577982,924.0 -84.242845,34.577953,924.6 -84.242844,34.57792,924.7 -84.242845,34.577892,923.7 -84.242842,34.577863,923.6 -84.242833,34.577835,925.2999999999998 -84.242835,34.577791,926.1999999999999 -84.242844,34.577753,925.6 -84.242858,34.577717,924.8 -84.242867,34.577686,925.3999999999999 -84.242871,34.577638,925.7999999999998 -84.242869,34.577606,926.1999999999999 -84.242867,34.577567,926.3999999999999 -84.242877,34.577528,926.1999999999999 -84.242885,34.577496,926.8 -84.242888,34.577459,926.1999999999999 -84.242887,34.577428,925.2 -84.24288,34.577381,925.2 -84.242871,34.577345,925.2 -84.242861,34.577315,924.5 -84.242849,34.577287,924.5 -84.242826,34.577258,924.4 -84.242814,34.577228,926.3999999999999 -84.242798,34.577198,928.7 -84.242786,34.577173,927.7 -84.242775,34.577145,925.2 -84.242768,34.577118,925.0 -84.242765,34.577076,925.3999999999999 -84.242764,34.577033,924.6 -84.242757,34.576991,924.6 -84.242754,34.576962,923.3 -84.242747,34.576921,923.3 -84.242751,34.576888,922.9 -84.242756,34.576855,923.1000000000001 -84.242767,34.576808,920.8 -84.242775,34.576779,920.6 -84.242783,34.576748,920.9 -84.242796,34.576716,919.7 -84.242814,34.576681,920.0 -84.242831,34.576655,918.0999999999999 -84.242853,34.576621,917.7 -84.242872,34.576595,917.9999999999999 -84.242891,34.57657,918.5999999999999 -84.242908,34.576545,918.8 -84.242918,34.576516,917.8999999999999 -84.242925,34.576485,917.1 -84.242932,34.576458,915.0000000000001 -84.242949,34.576432,915.0999999999999 -84.24297,34.576406,915.0000000000001 -84.243,34.576376,914.0999999999999 -84.243027,34.576338,913.5 -84.243048,34.576311,913.4 -84.243078,34.576277,912.7 -84.243092,34.576247,912.5 -84.243114,34.576208,912.4 -84.24313,34.576182,911.7 -84.243144,34.576149,911.0999999999999 -84.243152,34.576121,911.1999999999999 -84.243161,34.576094,909.8999999999999 -84.243176,34.576041,909.1 -84.24318,34.576004,909.1 -84.243181,34.575974,907.6 -84.243189,34.575944,907.7 -84.243198,34.575917,907.6 -84.243209,34.575882,906.2 -84.24321,34.575849,905.0 -84.243225,34.575795,903.5 -84.243227,34.575764,902.9 -84.243224,34.575732,902.2999999999998 -84.243233,34.575684,901.2 -84.243248,34.575655,901.0 -84.243262,34.575619,901.4 -84.243273,34.575592,900.8 -84.243286,34.575566,900.4 -84.24331,34.575542,899.4 -84.243335,34.575515,897.7 -84.243345,34.575487,896.9 -84.24337,34.575448,896.7 -84.243374,34.575421,895.1999999999999 -84.243387,34.57539,895.7000000000002 -84.243393,34.575362,897.2 -84.243414,34.575328,896.7 -84.243436,34.5753,896.5 -84.243451,34.575274,894.8 -84.243468,34.575246,894.9000000000001 -84.243474,34.575217,894.9000000000001 -84.243463,34.575188,895.1999999999999 -84.243463,34.575156,894.5999999999999 -84.243459,34.575122,893.8999999999999 -84.243459,34.575094,896.3 -84.243457,34.575067,896.3 -84.243446,34.575039,893.9999999999999 -84.243437,34.575009,894.2 -84.243441,34.574979,894.8 -84.243448,34.574952,895.3 -84.243439,34.574918,893.9999999999999 -84.243433,34.574888,893.6 -84.243435,34.574849,893.7999999999998 -84.243446,34.574812,893.8999999999999 -84.243455,34.57478,892.4 -84.24347,34.574753,892.8 -84.243477,34.574726,892.3 -84.243487,34.574697,892.8 -84.243497,34.574668,892.6 -84.243502,34.574626,891.8 -84.243505,34.574592,892.0 -84.243498,34.574559,891.9 -84.243502,34.574531,890.9999999999999 -84.243513,34.574501,893.0 -84.24352,34.574471,892.5 -84.243527,34.574438,891.3 -84.243542,34.574402,892.0 -84.243562,34.574363,891.3 -84.243572,34.574333,890.9999999999999 -84.243593,34.574294,891.5 -84.243606,34.574269,891.4 -84.243621,34.574239,891.5 -84.243638,34.57421,890.2999999999998 -84.243668,34.574183,889.1 -84.24371,34.574159,890.2999999999998 -84.243768,34.574134,889.8999999999999 -84.243803,34.574124,890.9999999999999 -84.24387,34.574101,890.3999999999999 -84.243905,34.574083,891.1999999999999 -84.243938,34.574065,889.1 -84.24397,34.574054,889.9999999999999 -84.244001,34.574044,889.5 -84.244012,34.574017,887.7000000000002 -84.244024,34.573989,887.5 -84.244037,34.573962,888.9 -84.244018,34.573933,886.9999999999999 -84.243993,34.57391,885.8999999999999 -84.243958,34.573897,886.5999999999999 -84.243931,34.573873,886.2999999999998 -84.243906,34.573844,886.2999999999998 -84.243884,34.57382,885.2 -84.243867,34.573792,883.5 -84.243833,34.573745,883.4 -84.243818,34.573718,883.7000000000002 -84.2438,34.573692,882.9999999999999 -84.243802,34.57365,883.0999999999999 -84.243798,34.573623,882.5999999999999 -84.243801,34.573565,881.4 -84.243798,34.573534,879.8 -84.243795,34.573473,879.3 -84.243785,34.573446,876.3 -84.243788,34.573416,876.7 -84.243793,34.57336,876.1 -84.243779,34.573332,875.9 -84.243761,34.573306,875.4 -84.24375,34.573278,874.5999999999999 -84.243744,34.573242,874.0 -84.243733,34.573208,872.4 -84.243714,34.573185,871.5 -84.24367,34.573183,870.1 -84.243635,34.573179,869.4 -84.243599,34.573168,870.2999999999998 -84.243558,34.573158,868.7 -84.243525,34.573147,867.9 -84.243492,34.573133,866.9999999999999 -84.243455,34.573113,866.4999999999999 -84.243435,34.573085,865.7 -84.243429,34.573057,864.4 -84.243412,34.573012,863.8 -84.243391,34.572986,863.3 -84.243378,34.572938,863.1999999999999 -84.243371,34.57291,863.0999999999999 -84.24334,34.572892,859.3 -84.243325,34.572866,859.1999999999999 -84.243304,34.572822,857.5 -84.243287,34.572776,857.7 -84.243273,34.572749,857.0 -84.243261,34.572723,854.5999999999999 -84.243246,34.572688,855.8 -84.243212,34.572674,854.8999999999999 -84.243192,34.572649,854.3999999999999 -84.243183,34.572619,853.2 -84.243167,34.572587,852.8 -84.243137,34.572558,852.8 -84.243109,34.572542,853.1 -84.243092,34.572518,853.1 -84.243088,34.572478,853.4 -84.243082,34.57245,851.9 -84.24306,34.572427,851.3 -84.243038,34.5724,852.0 -84.243024,34.572375,850.9999999999999 -84.243038,34.572348,851.5000000000001 -84.243064,34.572317,850.7999999999998 -84.243069,34.572285,850.5999999999999 -84.243074,34.572257,849.3 -84.24307,34.57223,848.6 -84.243079,34.572201,847.6999999999999 -84.243074,34.572172,845.6 -84.243055,34.572135,844.6 -84.243051,34.572107,844.3 -84.243051,34.572072,843.9 -84.243048,34.572038,843.1999999999999 -84.243046,34.572006,841.6 -84.243048,34.571957,840.6 -84.243053,34.571928,839.1999999999999 -84.243041,34.5719,838.4999999999999 -84.243027,34.571869,838.2 -84.243013,34.571829,837.1 -84.242999,34.571803,836.7 -84.24299,34.571774,836.3 -84.242985,34.571747,835.5000000000001 -84.24299,34.571719,835.3 -84.24297,34.571696,834.3999999999999 -84.242952,34.571671,834.1 -84.242939,34.571639,834.2 -84.242927,34.571605,833.4 -84.242921,34.571577,832.2000000000002 -84.242897,34.571554,831.1999999999999 -84.242876,34.571532,830.7999999999998 -84.242836,34.571501,830.7 -84.242807,34.571487,826.9999999999999 -84.242772,34.571475,827.3 -84.24274,34.571463,825.8 -84.242679,34.571445,825.5 -84.242643,34.571444,823.5999999999999 -84.242603,34.571447,822.4999999999999 -84.242567,34.571447,822.2 -84.242531,34.57144,821.0 -84.242493,34.57144,821.4 -84.242425,34.571474,821.6 -84.242373,34.571478,820.2000000000002 -84.242338,34.571475,818.3999999999999 -84.242294,34.571462,819.0999999999999 -84.242262,34.571448,818.9999999999999 -84.242225,34.571446,816.6 -84.242192,34.571451,816.4 -84.242147,34.571467,817.0 -84.24211,34.571467,815.3000000000001 -84.242063,34.571472,812.1999999999999 -84.24203,34.571479,810.2 -84.241999,34.571495,811.1999999999999 -84.241968,34.571486,808.3 -84.24193,34.571471,808.5 -84.241866,34.571455,806.1 -84.241854,34.571429,806.2999999999998 -84.241835,34.571406,806.5 -84.241764,34.571389,805.7 -84.241712,34.571367,808.6 -84.241693,34.571336,808.9 -84.241659,34.571335,809.5 -84.241617,34.571324,810.6 -84.241593,34.571305,811.4000000000001 -84.241562,34.571289,811.1999999999999 -84.241566,34.571255,811.3000000000001 -84.241572,34.571219,810.3999999999999 -84.241586,34.57118,811.0999999999999 -84.241589,34.571152,812.1999999999999 -84.241606,34.571094,813.6 -84.241603,34.571056,812.8 -84.241615,34.571022,812.9 -84.241626,34.570992,812.9 -84.24164,34.570946,814.1 -84.241643,34.570917,815.4999999999999 -84.241663,34.57089,816.0 -84.241664,34.570856,815.9 -84.241676,34.570802,817.7 -84.241685,34.570765,818.5 -84.241701,34.570712,818.3999999999999 -84.241709,34.570676,818.6 -84.241712,34.570642,818.5 -84.241713,34.570612,818.8999999999999 -84.241742,34.570552,820.3 -84.241742,34.570521,819.8 -84.241737,34.570486,819.6999999999999 -84.241741,34.570416,821.8 -84.241732,34.570389,820.3 -84.241743,34.570342,821.0 -84.241747,34.570311,822.4999999999999 -84.241761,34.570286,822.2999999999998 -84.241767,34.570258,822.7999999999998 -84.241781,34.57022,822.9999999999999 -84.241785,34.57019,824.1 -84.241804,34.570133,823.9 -84.241813,34.570104,824.0 -84.241831,34.570033,823.4000000000001 -84.241827,34.570004,823.8 -84.241833,34.569944,823.3 -84.241835,34.569916,824.8 -84.241833,34.569885,824.1 -84.241834,34.569831,824.3 -84.241831,34.569802,825.6 -84.241809,34.569733,826.4999999999999 -84.241786,34.569707,825.8 -84.241749,34.569681,824.1 -84.24174,34.569654,826.2 -84.241767,34.569611,826.7 -84.241748,34.569588,827.9 -84.241722,34.56955,828.0 -84.241707,34.569525,828.0 -84.241688,34.569502,828.2000000000002 -84.241665,34.569478,829.0 -84.241623,34.569438,828.8 -84.241614,34.569408,828.7 -84.241603,34.569377,828.5 -84.241586,34.569352,828.0 -84.241572,34.569312,828.7 -84.241561,34.569284,829.2 -84.241554,34.569252,830.0 -84.241528,34.569204,830.4999999999999 -84.241534,34.569169,830.3999999999999 -84.241537,34.569136,830.1 -84.24157,34.569102,829.2 -84.241603,34.569061,828.8 -84.241629,34.569034,828.8 -84.24166,34.569011,830.0 -84.241698,34.568992,829.7 -84.24174,34.568989,829.0 -84.241779,34.568977,829.5 -84.241813,34.568968,829.7 -84.241884,34.568965,828.6 -84.24192,34.568984,828.6 -84.24196,34.569005,828.2000000000002 -84.242002,34.569026,829.3 -84.242054,34.569027,829.2 -84.242081,34.569044,828.8 -84.242117,34.569071,828.1 -84.24215,34.569088,828.3 -84.242197,34.569072,828.7 -84.242237,34.569076,825.5 -84.242273,34.569066,824.8 -84.242314,34.569057,824.7 -84.242356,34.569048,824.7 -84.242394,34.569041,825.4 -84.24244,34.569028,825.5 -84.242472,34.569014,824.2000000000002 -84.242512,34.569005,823.8 -84.242547,34.568998,823.8 -84.242601,34.568983,822.6 -84.242628,34.568967,823.4999999999999 -84.242663,34.568952,823.1999999999999 -84.242698,34.568929,820.6 -84.242731,34.568915,820.1000000000001 -84.242764,34.568898,820.0 -84.242781,34.568874,819.8 -84.242805,34.568846,820.1000000000001 -84.242819,34.568812,820.0 -84.242837,34.568783,818.6 -84.24286,34.568742,818.3999999999999 -84.24287,34.568697,817.8 -84.242889,34.568673,817.1 -84.242897,34.568644,817.1 -84.242913,34.568614,816.2000000000002 -84.24295,34.568564,816.7 -84.242937,34.568538,816.9 -84.242949,34.568498,818.2 -84.242995,34.56848,817.1 -84.243033,34.568458,813.1 -84.24308,34.568431,813.8 -84.243148,34.568406,812.7 -84.243176,34.568388,812.9 -84.243212,34.568367,812.9 -84.243271,34.568342,812.8 -84.243303,34.568325,812.6 -84.243327,34.568299,812.1999999999999 -84.24334,34.568268,812.1000000000001 -84.243355,34.568215,812.3 -84.243351,34.568179,813.5 -84.243351,34.568128,815.4000000000001 -84.243344,34.568035,814.8999999999999 -84.243302,34.567904,813.1 -84.243171,34.567664,812.9 -84.243279,34.567401,811.4000000000001 -84.243454,34.56735,811.8 -84.243615,34.567257,810.9999999999999 -84.243646,34.567158,810.2999999999998 -84.24412,34.567316,810.7 -84.244134,34.567342,811.3000000000001 -84.244156,34.567395,811.6999999999999 -84.244251,34.567435,811.9 -84.244408,34.567507,813.7 -84.244499,34.567479,814.8999999999999 -84.244615,34.567498,811.9 -84.24455,34.567456,812.4 -84.244588,34.567429,812.7 -84.24455,34.567381,812.3 -84.244611,34.567371,811.0999999999999 -84.244648,34.567363,810.2999999999998 -84.244798,34.567358,809.2 -84.244912,34.567352,809.9 -84.244874,34.567315,806.1 -84.244946,34.56728,806.6 -84.245045,34.567236,806.7 -84.244989,34.567208,2325.0 -84.244924,34.567171,2319.0 -84.245092,34.567109,2314.0 -84.245089,34.567043,2312.0 -84.245134,34.567021,2309.0 -84.245199,34.566987,2311.0 -84.245286,34.566947,2306.0 -84.245251,34.566918,2306.0 -84.245227,34.566886,2303.0 -84.245151,34.56682,2303.0 -84.245217,34.566791,2300.0 -84.245262,34.566763,2295.0 -84.245299,34.566704,2293.0 -84.245324,34.566658,2284.0 -84.245307,34.566627,2284.0 -84.245225,34.566651,2284.0 -84.245118,34.566683,2285.0 -84.245027,34.566697,2285.0 -84.244927,34.566782,2271.0 -84.24486,34.566793,2273.0 -84.244819,34.566762,2274.0 -84.244864,34.56672,2273.0 -84.244902,34.566614,2273.0 -84.244908,34.566618,2273.0 -84.244904,34.566561,2271.0 -84.244902,34.566558,2270.0 -84.244909,34.566551,2265.0 -84.244936,34.56653,2257.0 -84.244966,34.5665,2256.0 -84.244973,34.566471,2254.0 -84.245012,34.566406,2251.0 -84.245051,34.566365,2249.0 -84.24508,34.566321,2246.0 -84.24513,34.566249,2243.0 -84.245213,34.566163,2240.0 -84.24531,34.566114,2240.0 -84.245442,34.566119,2241.0 -84.245462,34.566069,2156.0 -84.24545,34.565972,2155.0 -84.245472,34.565834,2145.0 -84.24549,34.565763,2137.0 -84.245509,34.565647,2133.0 -84.245496,34.565509,2125.0 -84.245495,34.565471,2123.0 -84.2455,34.565432,2120.0 -84.245609,34.56557,2106.0 -84.245687,34.565699,2099.0 -84.245714,34.565694,2093.0 -84.245718,34.565352,2068.0 -84.24573,34.56531,2066.0 -84.245744,34.565267,2063.0 -84.245756,34.565218,2058.0 -84.245797,34.565075,2049.0 -84.245817,34.564922,2039.0 -84.245832,34.564875,2036.0 -84.245849,34.564828,2035.0 -84.245906,34.56474,2030.0 -84.245992,34.564601,2022.0 -84.246025,34.56456,2017.0 -84.24605,34.564519,2017.0 -84.246045,34.564419,2010.0 -84.246055,34.564314,2003.0 -84.246071,34.564233,1998.0 -84.246083,34.564069,1989.0 -84.246305,34.563943,1989.0 -84.246408,34.563895,1972.0 -84.24651,34.563818,1970.0 -84.246655,34.563727,1962.0 -84.246859,34.563638,1962.0 -84.246944,34.563551,1961.0 -84.246936,34.563424,1961.0 -84.246967,34.563362,1962.0 -84.24702,34.563307,1961.0 -84.247082,34.56323,1957.0 -84.247158,34.563149,1943.0 -84.247183,34.563044,1907.0 -84.247258,34.562884,1904.0 -84.247311,34.562761,1902.0 -84.247329,34.562626,1899.0 -84.247368,34.562466,1896.0 -84.247395,34.562314,1891.0 -84.247395,34.562227,1888.0 -84.247413,34.56211,1887.0 -84.247395,34.562019,1885.0 -84.247406,34.561907,1888.0 -84.247411,34.561786,1891.0 -84.247371,34.561636,1894.0 -84.247448,34.561458,1898.0 -84.247425,34.561309,1896.0 -84.247443,34.561178,1896.0 -84.247425,34.561086,1898.0 -84.247316,34.560984,1898.0 -84.247296,34.560911,1898.0 -84.247304,34.560834,1899.0 -84.247308,34.560761,1896.0 -84.247338,34.560722,1893.0 -84.247387,34.56065,1891.0 -84.247448,34.560568,1887.0 -84.247493,34.560509,1885.0 -84.247557,34.560429,1883.0 -84.247631,34.560325,1882.0 -84.247683,34.560245,1880.0 -84.247733,34.56015,1875.0 -84.24778,34.560055,1872.0 -84.247816,34.559981,1871.0 -84.247845,34.559929,1871.0 -84.247884,34.559869,1871.0 -84.247924,34.559778,1871.0 -84.247972,34.559678,1869.0 -84.248014,34.559583,1864.0 -84.248048,34.559488,1863.0 -84.24806,34.559397,1861.0 -84.248092,34.559201,1858.0 -84.248121,34.559004,1858.0 -84.248166,34.558948,1853.0 -84.248216,34.558877,1850.0 -84.248257,34.558785,1844.0 -84.248304,34.558683,1842.0 -84.248375,34.558571,1839.0 -84.24848,34.558459,1838.0 -84.248529,34.558401,1834.0 -84.248561,34.558354,1831.0 -84.248602,34.558303,1831.0 -84.24864,34.558265,1830.0 -84.248669,34.558225,1830.0 -84.248715,34.558176,1828.0 -84.248745,34.558133,1825.0 -84.248785,34.558089,1827.0 -84.248841,34.558009,1827.0 -84.248887,34.557882,1825.0 -84.248918,34.55779,1823.0 -84.248961,34.557754,1820.0 -84.249011,34.557707,1819.0 -84.2491,34.55768,1819.0 -84.249175,34.557686,1814.0 -84.249287,34.557714,1812.0</coordinates>
                </LineString>
            </MultiGeometry>
        </Placemark>
    </Document>
</kml>
